State	County	Latitude	Longitude	Name	State_FIPS	USPS_Code
AL	Autauga	32.536382	86.64449	Alabama	1	AL
AL	Baldwin	30.659218	87.746067	Alabama	1	AL
AL	Barbour	31.87067	85.405456	Alabama	1	AL
AL	Bibb	33.015893	87.127148	Alabama	1	AL
AL	Blount	33.977448	86.567246	Alabama	1	AL
AL	Bullock	32.101759	85.717261	Alabama	1	AL
AL	Butler	31.751667	86.681969	Alabama	1	AL
AL	Calhoun	33.771706	85.822513	Alabama	1	AL
AL	Chambers	32.917943	85.391812	Alabama	1	AL
AL	Cherokee	34.069515	85.654242	Alabama	1	AL
AL	Chilton	32.85406	86.726628	Alabama	1	AL
AL	Choctaw	31.991008	88.248887	Alabama	1	AL
AL	Clarke	31.685521	87.818624	Alabama	1	AL
AL	Clay	33.267809	85.862051	Alabama	1	AL
AL	Cleburne	33.671981	85.516109	Alabama	1	AL
AL	Coffee	31.402183	85.989201	Alabama	1	AL
AL	Colbert	34.703112	87.801457	Alabama	1	AL
AL	Conecuh	31.428293	86.992029	Alabama	1	AL
AL	Coosa	32.931445	86.243482	Alabama	1	AL
AL	Covington	31.243987	86.448721	Alabama	1	AL
AL	Crenshaw	31.732826	86.319222	Alabama	1	AL
AL	Cullman	34.131923	86.869267	Alabama	1	AL
AL	Dale	31.430654	85.609476	Alabama	1	AL
AL	Dallas	32.33354	87.114356	Alabama	1	AL
AL	DeKalb	34.460929	85.803992	Alabama	1	AL
AL	Elmore	32.597229	86.142739	Alabama	1	AL
AL	Escambia	31.121748	87.168429	Alabama	1	AL
AL	Etowah	34.047638	86.03442	Alabama	1	AL
AL	Fayette	33.732249	87.752049	Alabama	1	AL
AL	Franklin	34.441988	87.842815	Alabama	1	AL
AL	Geneva	31.090866	85.824346	Alabama	1	AL
AL	Greene	32.844497	87.964201	Alabama	1	AL
AL	Hale	32.752796	87.623061	Alabama	1	AL
AL	Henry	31.516978	85.239971	Alabama	1	AL
AL	Houston	31.158193	85.296398	Alabama	1	AL
AL	Jackson	34.763522	85.9774	Alabama	1	AL
AL	Jefferson	33.553444	86.896536	Alabama	1	AL
AL	Lamar	33.787085	88.087431	Alabama	1	AL
AL	Lauderdale	34.904122	87.650997	Alabama	1	AL
AL	Lawrence	34.529776	87.321865	Alabama	1	AL
AL	Lee	32.604064	85.353048	Alabama	1	AL
AL	Limestone	34.810239	86.9814	Alabama	1	AL
AL	Lowndes	32.147888	86.650586	Alabama	1	AL
AL	Macon	32.387027	85.692887	Alabama	1	AL
AL	Madison	34.764238	86.55108	Alabama	1	AL
AL	Marengo	32.247591	87.791091	Alabama	1	AL
AL	Marion	34.138219	87.881551	Alabama	1	AL
AL	Marshall	34.309564	86.321668	Alabama	1	AL
AL	Mobile	30.684573	88.196568	Alabama	1	AL
AL	Monroe	31.580332	87.383266	Alabama	1	AL
AL	Montgomery	32.203651	86.203831	Alabama	1	AL
AL	Morgan	34.454484	86.846402	Alabama	1	AL
AL	Perry	32.639005	87.293827	Alabama	1	AL
AL	Pickens	33.296809	88.096878	Alabama	1	AL
AL	Pike	31.798726	85.941997	Alabama	1	AL
AL	Randolph	33.296475	85.464068	Alabama	1	AL
AL	Russell	32.289811	85.18698	Alabama	1	AL
AL	St. Clair	33.712963	86.315663	Alabama	1	AL
AL	Shelby	33.262937	86.678104	Alabama	1	AL
AL	Sumter	32.597481	88.200057	Alabama	1	AL
AL	Talladega	33.369277	86.175805	Alabama	1	AL
AL	Tallapoosa	32.863369	85.799553	Alabama	1	AL
AL	Tuscaloosa	33.290202	87.52286	Alabama	1	AL
AL	Walker	33.791571	87.301092	Alabama	1	AL
AL	Washington	31.406974	88.202078	Alabama	1	AL
AL	Wilcox	31.99033	87.302205	Alabama	1	AL
AL	Winston	34.155888	87.364147	Alabama	1	AL
AK	Aleutians East	55.243722	161.950749	Alaska	2	AK
AK	Aleutians West	51.959447	178.338813	Alaska	2	AK
AK	Anchorage	61.177549	149.274354	Alaska	2	AK
AK	Bethel	60.928916	160.15335	Alaska	2	AK
AK	Bristol Bay	58.731373	156.986612	Alaska	2	AK
AK	Denali	63.682732	150.026719	Alaska	2	AK
AK	Dillingham	59.824816	158.602233	Alaska	2	AK
AK	Fairbanks North Star	64.690832	146.599867	Alaska	2	AK
AK	Haines	59.099905	135.578102	Alaska	2	AK
AK	Hoonah-Angoon	58.076434	135.1851	Alaska	2	AK
AK	Juneau	58.3727	134.178781	Alaska	2	AK
AK	Kenai Peninsula	60.366373	152.321973	Alaska	2	AK
AK	Ketchikan Gateway	55.449938	131.106685	Alaska	2	AK
AK	Kodiak Island	57.553611	153.630911	Alaska	2	AK
AK	Lake and Peninsula	58.205065	156.705188	Alaska	2	AK
AK	Matanuska-Susitna	62.182174	149.407974	Alaska	2	AK
AK	Nome	64.783686	164.188912	Alaska	2	AK
AK	North Slope	69.449343	153.47283	Alaska	2	AK
AK	Northwest Arctic	67.005066	160.021086	Alaska	2	AK
AK	Petersburg	56.639612	133.527996	Alaska	2	AK
AK	Prince of Wales-Hyder	55.415683	132.875734	Alaska	2	AK
AK	Sitka	57.142509	135.332624	Alaska	2	AK
AK	Skagway	59.575097	135.335418	Alaska	2	AK
AK	Southeast Fairbanks	63.864997	143.218628	Alaska	2	AK
AK	Valdez-Cordova	61.34984	145.023141	Alaska	2	AK
AK	Wade Hampton	62.283174	163.19095	Alaska	2	AK
AK	Wrangell	56.279121	132.040326	Alaska	2	AK
AK	Yakutat	59.999083	140.239593	Alaska	2	AK
AK	Yukon-Koyukuk	65.376131	151.576855	Alaska	2	AK
AZ	Apache	35.385845	109.493747	Arizona	4	AZ
AZ	Cochise	31.881793	109.75412	Arizona	4	AZ
AZ	Coconino	35.829692	111.773728	Arizona	4	AZ
AZ	Gila	33.789618	110.81187	Arizona	4	AZ
AZ	Graham	32.931828	109.87831	Arizona	4	AZ
AZ	Greenlee	33.238872	109.242323	Arizona	4	AZ
AZ	La Paz	33.727625	114.038793	Arizona	4	AZ
AZ	Maricopa	33.346541	112.495534	Arizona	4	AZ
AZ	Mohave	35.717705	113.749689	Arizona	4	AZ
AZ	Navajo	35.390934	110.320908	Arizona	4	AZ
AZ	Pima	32.128237	111.783018	Arizona	4	AZ
AZ	Pinal	32.91891	111.367257	Arizona	4	AZ
AZ	Santa Cruz	31.525904	110.84519	Arizona	4	AZ
AZ	Yavapai	34.630044	112.573745	Arizona	4	AZ
AZ	Yuma	32.773942	113.910905	Arizona	4	AZ
AR	Arkansas	34.289574	91.376547	Arkansas	5	AR
AR	Ashley	33.190835	91.772267	Arkansas	5	AR
AR	Baxter	36.28071	92.330438	Arkansas	5	AR
AR	Benton	36.337825	94.256187	Arkansas	5	AR
AR	Boone	36.304308	93.079204	Arkansas	5	AR
AR	Bradley	33.463819	92.168164	Arkansas	5	AR
AR	Calhoun	33.56046	92.513879	Arkansas	5	AR
AR	Carroll	36.337774	93.541663	Arkansas	5	AR
AR	Chicot	33.267139	91.297158	Arkansas	5	AR
AR	Clark	34.053312	93.176205	Arkansas	5	AR
AR	Clay	36.367302	90.418704	Arkansas	5	AR
AR	Cleburne	35.566288	92.059974	Arkansas	5	AR
AR	Cleveland	33.893201	92.188714	Arkansas	5	AR
AR	Columbia	33.21507	93.226901	Arkansas	5	AR
AR	Conway	35.265702	92.689248	Arkansas	5	AR
AR	Craighead	35.828268	90.630411	Arkansas	5	AR
AR	Crawford	35.583041	94.236224	Arkansas	5	AR
AR	Crittenden	35.211878	90.315331	Arkansas	5	AR
AR	Cross	35.291259	90.773894	Arkansas	5	AR
AR	Dallas	33.967823	92.653999	Arkansas	5	AR
AR	Desha	33.828748	91.244427	Arkansas	5	AR
AR	Drew	33.587242	91.722778	Arkansas	5	AR
AR	Faulkner	35.146356	92.324654	Arkansas	5	AR
AR	Franklin	35.508573	93.887672	Arkansas	5	AR
AR	Fulton	36.383443	91.819239	Arkansas	5	AR
AR	Garland	34.578861	93.146915	Arkansas	5	AR
AR	Grant	34.288063	92.423984	Arkansas	5	AR
AR	Greene	36.119922	90.565241	Arkansas	5	AR
AR	Hempstead	33.728611	93.665809	Arkansas	5	AR
AR	Hot Spring	34.315177	92.944147	Arkansas	5	AR
AR	Howard	34.083179	93.990988	Arkansas	5	AR
AR	Independence	35.737499	91.559942	Arkansas	5	AR
AR	Izard	36.094879	91.913625	Arkansas	5	AR
AR	Jackson	35.596605	91.223178	Arkansas	5	AR
AR	Jefferson	34.277696	91.930701	Arkansas	5	AR
AR	Johnson	35.573359	93.466322	Arkansas	5	AR
AR	Lafayette	33.24066	93.611643	Arkansas	5	AR
AR	Lawrence	36.041098	91.101153	Arkansas	5	AR
AR	Lee	34.77975	90.779288	Arkansas	5	AR
AR	Lincoln	33.957665	91.727624	Arkansas	5	AR
AR	Little River	33.699497	94.229774	Arkansas	5	AR
AR	Logan	35.21855	93.720563	Arkansas	5	AR
AR	Lonoke	34.755114	91.894132	Arkansas	5	AR
AR	Madison	36.012545	93.724053	Arkansas	5	AR
AR	Marion	36.266656	92.678588	Arkansas	5	AR
AR	Miller	33.305505	93.901509	Arkansas	5	AR
AR	Mississippi	35.766943	90.052209	Arkansas	5	AR
AR	Monroe	34.679513	91.203314	Arkansas	5	AR
AR	Montgomery	34.545652	93.664147	Arkansas	5	AR
AR	Nevada	33.666699	93.305072	Arkansas	5	AR
AR	Newton	35.910063	93.215084	Arkansas	5	AR
AR	Ouachita	33.591158	92.878418	Arkansas	5	AR
AR	Perry	34.946363	92.926877	Arkansas	5	AR
AR	Phillips	34.425842	90.848386	Arkansas	5	AR
AR	Pike	34.158191	93.658659	Arkansas	5	AR
AR	Poinsett	35.568981	90.680595	Arkansas	5	AR
AR	Polk	34.490915	94.230884	Arkansas	5	AR
AR	Pope	35.455297	93.031535	Arkansas	5	AR
AR	Prairie	34.828225	91.5572	Arkansas	5	AR
AR	Pulaski	34.773988	92.316515	Arkansas	5	AR
AR	Randolph	36.341299	91.028441	Arkansas	5	AR
AR	St. Francis	35.014438	90.742199	Arkansas	5	AR
AR	Saline	34.648525	92.674463	Arkansas	5	AR
AR	Scott	34.858869	94.063641	Arkansas	5	AR
AR	Searcy	35.90966	92.699351	Arkansas	5	AR
AR	Sebastian	35.196981	94.274989	Arkansas	5	AR
AR	Sevier	33.994608	94.24329	Arkansas	5	AR
AR	Sharp	36.173399	91.471069	Arkansas	5	AR
AR	Stone	35.856989	92.140494	Arkansas	5	AR
AR	Union	33.168219	92.598145	Arkansas	5	AR
AR	Van Buren	35.582959	92.515977	Arkansas	5	AR
AR	Washington	35.971209	94.218417	Arkansas	5	AR
AR	White	35.254722	91.753158	Arkansas	5	AR
AR	Woodruff	35.189071	91.244418	Arkansas	5	AR
AR	Yell	34.997713	93.408303	Arkansas	5	AR
CA	Alameda	37.648081	121.913304	California	6	CA
CA	Alpine	38.61761	119.798999	California	6	CA
CA	Amador	38.44355	120.653856	California	6	CA
CA	Butte	39.665959	121.601919	California	6	CA
CA	Calaveras	38.187844	120.555115	California	6	CA
CA	Colusa	39.177739	122.237563	California	6	CA
CA	Contra Costa	37.919479	121.951543	California	6	CA
CA	Del Norte	41.749903	123.980998	California	6	CA
CA	El Dorado	38.785532	120.534398	California	6	CA
CA	Fresno	36.761006	119.655019	California	6	CA
CA	Glenn	39.602546	122.4017	California	6	CA
CA	Humboldt	40.706673	123.925818	California	6	CA
CA	Imperial	33.040816	115.355395	California	6	CA
CA	Inyo	36.561977	117.403927	California	6	CA
CA	Kern	35.346629	118.729506	California	6	CA
CA	Kings	36.072478	119.81553	California	6	CA
CA	Lake	39.094802	122.746757	California	6	CA
CA	Lassen	40.721089	120.629931	California	6	CA
CA	Los Angeles	34.196398	118.261862	California	6	CA
CA	Madera	37.210039	119.749852	California	6	CA
CA	Marin	38.051817	122.745974	California	6	CA
CA	Mariposa	37.570034	119.91286	California	6	CA
CA	Mendocino	39.432388	123.442881	California	6	CA
CA	Merced	37.194806	120.722802	California	6	CA
CA	Modoc	41.592919	120.71837	California	6	CA
CA	Mono	37.915836	118.875167	California	6	CA
CA	Monterey	36.240107	121.315573	California	6	CA
CA	Napa	38.507351	122.325995	California	6	CA
CA	Nevada	39.295191	120.773446	California	6	CA
CA	Orange	33.675687	117.777207	California	6	CA
CA	Placer	39.062032	120.722718	California	6	CA
CA	Plumas	39.99517	120.829516	California	6	CA
CA	Riverside	33.729828	116.002239	California	6	CA
CA	Sacramento	38.450011	121.340441	California	6	CA
CA	San Benito	36.610702	121.085296	California	6	CA
CA	San Bernardino	34.85722	116.181197	California	6	CA
CA	San Diego	33.023604	116.776117	California	6	CA
CA	San Francisco	37.727239	123.032229	California	6	CA
CA	San Joaquin	37.935034	121.272237	California	6	CA
CA	San Luis Obispo	35.385227	120.44754	California	6	CA
CA	San Mateo	37.414664	122.371542	California	6	CA
CA	Santa Barbara	34.537378	120.038485	California	6	CA
CA	Santa Clara	37.220777	121.690622	California	6	CA
CA	Santa Cruz	37.012488	122.007205	California	6	CA
CA	Shasta	40.760522	122.04355	California	6	CA
CA	Sierra	39.576925	120.521993	California	6	CA
CA	Siskiyou	41.587986	122.533287	California	6	CA
CA	Solano	38.267226	121.939594	California	6	CA
CA	Sonoma	38.532574	122.945194	California	6	CA
CA	Stanislaus	37.562384	121.002656	California	6	CA
CA	Sutter	39.035257	121.702758	California	6	CA
CA	Tehama	40.126156	122.232276	California	6	CA
CA	Trinity	40.647724	123.114404	California	6	CA
CA	Tulare	36.230453	118.780542	California	6	CA
CA	Tuolumne	38.021451	119.964708	California	6	CA
CA	Ventura	34.358742	119.133143	California	6	CA
CA	Yolo	38.679268	121.903178	California	6	CA
CA	Yuba	39.270026	121.34428	California	6	CA
CO	Adams	39.874325	104.331872	Colorado	8	CO
CO	Alamosa	37.568442	105.788041	Colorado	8	CO
CO	Arapahoe	39.644632	104.331733	Colorado	8	CO
CO	Archuleta	37.202395	107.050863	Colorado	8	CO
CO	Baca	37.303144	102.535457	Colorado	8	CO
CO	Bent	37.931891	103.077584	Colorado	8	CO
CO	Boulder	40.094826	105.398382	Colorado	8	CO
CO	Broomfield	39.953383	105.052125	Colorado	8	CO
CO	Chaffee	38.738246	106.316972	Colorado	8	CO
CO	Cheyenne	38.835387	102.604585	Colorado	8	CO
CO	Clear Creek	39.689403	105.670791	Colorado	8	CO
CO	Conejos	37.213407	106.176447	Colorado	8	CO
CO	Costilla	37.277547	105.42894	Colorado	8	CO
CO	Crowley	38.321956	103.787562	Colorado	8	CO
CO	Custer	38.101994	105.373515	Colorado	8	CO
CO	Delta	38.861756	107.864757	Colorado	8	CO
CO	Denver	39.761849	104.880625	Colorado	8	CO
CO	Dolores	37.747602	108.530383	Colorado	8	CO
CO	Douglas	39.326435	104.926199	Colorado	8	CO
CO	Eagle	39.630638	106.692944	Colorado	8	CO
CO	Elbert	39.310817	104.117928	Colorado	8	CO
CO	El Paso	38.827383	104.527472	Colorado	8	CO
CO	Fremont	38.455658	105.421438	Colorado	8	CO
CO	Garfield	39.599352	107.90978	Colorado	8	CO
CO	Gilpin	39.861082	105.528947	Colorado	8	CO
CO	Grand	40.123289	106.095876	Colorado	8	CO
CO	Gunnison	38.669679	107.078108	Colorado	8	CO
CO	Hinsdale	37.811625	107.383405	Colorado	8	CO
CO	Huerfano	37.687815	104.959928	Colorado	8	CO
CO	Jackson	40.663432	106.329248	Colorado	8	CO
CO	Jefferson	39.58646	105.245601	Colorado	8	CO
CO	Kiowa	38.388466	102.75621	Colorado	8	CO
CO	Kit Carson	39.30534	102.603023	Colorado	8	CO
CO	Lake	39.204316	106.349696	Colorado	8	CO
CO	La Plata	37.287367	107.839718	Colorado	8	CO
CO	Larimer	40.663091	105.482131	Colorado	8	CO
CO	Las Animas	37.318831	104.04411	Colorado	8	CO
CO	Lincoln	38.99374	103.507555	Colorado	8	CO
CO	Logan	40.728091	103.090464	Colorado	8	CO
CO	Mesa	39.019492	108.461837	Colorado	8	CO
CO	Mineral	37.651478	106.9323	Colorado	8	CO
CO	Moffat	40.573984	108.204521	Colorado	8	CO
CO	Montezuma	37.338025	108.595786	Colorado	8	CO
CO	Montrose	38.413427	108.263042	Colorado	8	CO
CO	Morgan	40.262354	103.807092	Colorado	8	CO
CO	Otero	37.88417	103.72126	Colorado	8	CO
CO	Ouray	38.1506	107.767133	Colorado	8	CO
CO	Park	39.118914	105.717648	Colorado	8	CO
CO	Phillips	40.594712	102.345105	Colorado	8	CO
CO	Pitkin	39.217533	106.915943	Colorado	8	CO
CO	Prowers	37.958181	102.392161	Colorado	8	CO
CO	Pueblo	38.170658	104.489893	Colorado	8	CO
CO	Rio Blanco	39.972606	108.200685	Colorado	8	CO
CO	Rio Grande	37.485763	106.453214	Colorado	8	CO
CO	Routt	40.48316	106.985289	Colorado	8	CO
CO	Saguache	38.033952	106.246675	Colorado	8	CO
CO	San Juan	37.781075	107.670257	Colorado	8	CO
CO	San Miguel	38.009374	108.427326	Colorado	8	CO
CO	Sedgwick	40.871568	102.355358	Colorado	8	CO
CO	Summit	39.621023	106.137555	Colorado	8	CO
CO	Teller	38.871994	105.182552	Colorado	8	CO
CO	Washington	39.965413	103.209605	Colorado	8	CO
CO	Weld	40.555794	104.383649	Colorado	8	CO
CO	Yuma	40.000631	102.422649	Colorado	8	CO
CT	Fairfield	41.228103	73.366757	Connecticut	9	CT
CT	Hartford	41.806053	72.732916	Connecticut	9	CT
CT	Litchfield	41.791897	73.235428	Connecticut	9	CT
CT	Middlesex	41.434525	72.524227	Connecticut	9	CT
CT	New Haven	41.349717	72.900204	Connecticut	9	CT
CT	New London	41.47863	72.103452	Connecticut	9	CT
CT	Tolland	41.858076	72.340977	Connecticut	9	CT
CT	Windham	41.824999	71.990702	Connecticut	9	CT
DE	Kent	39.097088	75.502982	Delaware	10	DE
DE	New Castle	39.575915	75.644132	Delaware	10	DE
DE	Sussex	38.677511	75.335495	Delaware	10	DE
DC	District of Columbia	38.904149	77.017094	District of Columbia	11	DC
FL	Alachua	29.67574	82.357221	Florida	12	FL
FL	Baker	30.324442	82.302284	Florida	12	FL
FL	Bay	30.237563	85.631348	Florida	12	FL
FL	Bradford	29.946934	82.166796	Florida	12	FL
FL	Brevard	28.298276	80.700384	Florida	12	FL
FL	Broward	26.19352	80.476658	Florida	12	FL
FL	Calhoun	30.388801	85.197916	Florida	12	FL
FL	Charlotte	26.868826	81.940858	Florida	12	FL
FL	Citrus	28.843628	82.524796	Florida	12	FL
FL	Clay	29.987116	81.858147	Florida	12	FL
FL	Collier	26.118713	81.400884	Florida	12	FL
FL	Columbia	30.221305	82.623127	Florida	12	FL
FL	DeSoto	27.190581	81.806253	Florida	12	FL
FL	Dixie	29.580899	83.195666	Florida	12	FL
FL	Duval	30.335245	81.648113	Florida	12	FL
FL	Escambia	30.611664	87.33904	Florida	12	FL
FL	Flagler	29.474894	81.286362	Florida	12	FL
FL	Franklin	29.810176	84.799174	Florida	12	FL
FL	Gadsden	30.57917	84.612783	Florida	12	FL
FL	Gilchrist	29.723456	82.795801	Florida	12	FL
FL	Glades	26.95481	81.19082	Florida	12	FL
FL	Gulf	29.907257	85.256537	Florida	12	FL
FL	Hamilton	30.491102	82.951049	Florida	12	FL
FL	Hardee	27.492846	81.82158	Florida	12	FL
FL	Hendry	26.53934	81.151584	Florida	12	FL
FL	Hernando	28.567911	82.464835	Florida	12	FL
FL	Highlands	27.342627	81.340921	Florida	12	FL
FL	Hillsborough	27.90659	82.349568	Florida	12	FL
FL	Holmes	30.866222	85.812959	Florida	12	FL
FL	Indian River	27.700638	80.574803	Florida	12	FL
FL	Jackson	30.787812	85.210374	Florida	12	FL
FL	Jefferson	30.424558	83.890859	Florida	12	FL
FL	Lafayette	29.990066	83.17851	Florida	12	FL
FL	Lake	28.764113	81.712282	Florida	12	FL
FL	Lee	26.552134	81.89225	Florida	12	FL
FL	Leon	30.45931	84.2778	Florida	12	FL
FL	Levy	29.284409	82.783483	Florida	12	FL
FL	Liberty	30.259849	84.868581	Florida	12	FL
FL	Madison	30.447228	83.470437	Florida	12	FL
FL	Manatee	27.481386	82.365784	Florida	12	FL
FL	Marion	29.202805	82.0431	Florida	12	FL
FL	Martin	27.079954	80.398211	Florida	12	FL
FL	Miami-Dade	25.610494	80.499045	Florida	12	FL
FL	Monroe	25.601043	81.206777	Florida	12	FL
FL	Nassau	30.605926	81.764929	Florida	12	FL
FL	Okaloosa	30.665858	86.594194	Florida	12	FL
FL	Okeechobee	27.385592	80.887388	Florida	12	FL
FL	Orange	28.514435	81.323295	Florida	12	FL
FL	Osceola	28.059027	81.139312	Florida	12	FL
FL	Palm Beach	26.645763	80.448673	Florida	12	FL
FL	Pasco	28.302024	82.455707	Florida	12	FL
FL	Pinellas	27.903122	82.739518	Florida	12	FL
FL	Polk	27.953115	81.692783	Florida	12	FL
FL	Putnam	29.606006	81.740894	Florida	12	FL
FL	St. Johns	29.890593	81.383914	Florida	12	FL
FL	St. Lucie	27.380775	80.443364	Florida	12	FL
FL	Santa Rosa	30.703633	87.014255	Florida	12	FL
FL	Sarasota	27.184386	82.365835	Florida	12	FL
FL	Seminole	28.690079	81.13198	Florida	12	FL
FL	Sumter	28.714294	82.074715	Florida	12	FL
FL	Suwannee	30.189244	82.992754	Florida	12	FL
FL	Taylor	30.016943	83.616417	Florida	12	FL
FL	Union	30.05428	82.366918	Florida	12	FL
FL	Volusia	29.057617	81.161813	Florida	12	FL
FL	Wakulla	30.140378	84.375136	Florida	12	FL
FL	Walton	30.631211	86.176614	Florida	12	FL
FL	Washington	30.602217	85.662797	Florida	12	FL
GA	Appling	31.739712	82.290103	Georgia	13	GA
GA	Atkinson	31.300562	82.883614	Georgia	13	GA
GA	Bacon	31.563327	82.387859	Georgia	13	GA
GA	Baker	31.319622	84.454857	Georgia	13	GA
GA	Baldwin	33.059532	83.255362	Georgia	13	GA
GA	Banks	34.351922	83.498441	Georgia	13	GA
GA	Barrow	33.992009	83.712303	Georgia	13	GA
GA	Bartow	34.240918	84.838188	Georgia	13	GA
GA	Ben Hill	31.740776	83.14719	Georgia	13	GA
GA	Berrien	31.274308	83.231906	Georgia	13	GA
GA	Bibb	32.808844	83.694193	Georgia	13	GA
GA	Bleckley	32.435403	83.331717	Georgia	13	GA
GA	Brantley	31.197334	81.982978	Georgia	13	GA
GA	Brooks	30.833696	83.588971	Georgia	13	GA
GA	Bryan	32.017969	81.438543	Georgia	13	GA
GA	Bulloch	32.393408	81.74381	Georgia	13	GA
GA	Burke	33.063737	82.00389	Georgia	13	GA
GA	Butts	33.290355	83.958221	Georgia	13	GA
GA	Calhoun	31.521279	84.62629	Georgia	13	GA
GA	Camden	30.916358	81.636516	Georgia	13	GA
GA	Candler	32.403986	82.071446	Georgia	13	GA
GA	Carroll	33.582237	85.080527	Georgia	13	GA
GA	Catoosa	34.899393	85.137353	Georgia	13	GA
GA	Charlton	30.779904	82.139644	Georgia	13	GA
GA	Chatham	31.974756	81.091768	Georgia	13	GA
GA	Chattahoochee	32.347445	84.788021	Georgia	13	GA
GA	Chattooga	34.474179	85.345289	Georgia	13	GA
GA	Cherokee	34.244317	84.475057	Georgia	13	GA
GA	Clarke	33.952234	83.36713	Georgia	13	GA
GA	Clay	31.619831	84.992583	Georgia	13	GA
GA	Clayton	33.552242	84.412977	Georgia	13	GA
GA	Clinch	30.917653	82.702614	Georgia	13	GA
GA	Cobb	33.93994	84.574166	Georgia	13	GA
GA	Coffee	31.549245	82.844938	Georgia	13	GA
GA	Colquitt	31.189758	83.769741	Georgia	13	GA
GA	Columbia	33.550556	82.251342	Georgia	13	GA
GA	Cook	31.152935	83.429552	Georgia	13	GA
GA	Coweta	33.352897	84.762138	Georgia	13	GA
GA	Crawford	32.709446	83.979182	Georgia	13	GA
GA	Crisp	31.914753	83.753338	Georgia	13	GA
GA	Dade	34.852424	85.506201	Georgia	13	GA
GA	Dawson	34.442842	84.173284	Georgia	13	GA
GA	Decatur	30.877961	84.577744	Georgia	13	GA
GA	DeKalb	33.770661	84.226343	Georgia	13	GA
GA	Dodge	32.160656	83.156818	Georgia	13	GA
GA	Dooly	32.151995	83.807167	Georgia	13	GA
GA	Dougherty	31.535068	84.214444	Georgia	13	GA
GA	Douglas	33.699317	84.765944	Georgia	13	GA
GA	Early	31.324191	84.906723	Georgia	13	GA
GA	Echols	30.7085	82.836132	Georgia	13	GA
GA	Effingham	32.361711	81.343337	Georgia	13	GA
GA	Elbert	34.115017	82.842057	Georgia	13	GA
GA	Emanuel	32.5911	82.299763	Georgia	13	GA
GA	Evans	32.151902	81.887618	Georgia	13	GA
GA	Fannin	34.863837	84.319287	Georgia	13	GA
GA	Fayette	33.412717	84.493941	Georgia	13	GA
GA	Floyd	34.263677	85.21373	Georgia	13	GA
GA	Forsyth	34.225143	84.127336	Georgia	13	GA
GA	Franklin	34.375155	83.227291	Georgia	13	GA
GA	Fulton	33.790034	84.468182	Georgia	13	GA
GA	Gilmer	34.690541	84.453984	Georgia	13	GA
GA	Glascock	33.227491	82.606913	Georgia	13	GA
GA	Glynn	31.212747	81.496517	Georgia	13	GA
GA	Gordon	34.509667	84.873862	Georgia	13	GA
GA	Grady	30.875863	84.244772	Georgia	13	GA
GA	Greene	33.576836	83.167103	Georgia	13	GA
GA	Gwinnett	33.959101	84.022938	Georgia	13	GA
GA	Habersham	34.635108	83.526406	Georgia	13	GA
GA	Hall	34.317588	83.818497	Georgia	13	GA
GA	Hancock	33.26922	83.000465	Georgia	13	GA
GA	Haralson	33.795165	85.220062	Georgia	13	GA
GA	Harris	32.731549	84.912432	Georgia	13	GA
GA	Hart	34.348733	82.96329	Georgia	13	GA
GA	Heard	33.290968	85.139594	Georgia	13	GA
GA	Henry	33.452881	84.15444	Georgia	13	GA
GA	Houston	32.458381	83.662856	Georgia	13	GA
GA	Irwin	31.604306	83.277037	Georgia	13	GA
GA	Jackson	34.134157	83.565133	Georgia	13	GA
GA	Jasper	33.314905	83.687892	Georgia	13	GA
GA	Jeff Davis	31.811615	82.636825	Georgia	13	GA
GA	Jefferson	33.051874	82.41905	Georgia	13	GA
GA	Jenkins	32.794563	81.971524	Georgia	13	GA
GA	Johnson	32.689831	82.661354	Georgia	13	GA
GA	Jones	33.020226	83.562339	Georgia	13	GA
GA	Lamar	33.07446	84.146721	Georgia	13	GA
GA	Lanier	31.038197	83.063164	Georgia	13	GA
GA	Laurens	32.39322	82.926317	Georgia	13	GA
GA	Lee	31.818419	84.146681	Georgia	13	GA
GA	Liberty	31.807245	81.457969	Georgia	13	GA
GA	Lincoln	33.792151	82.448299	Georgia	13	GA
GA	Long	31.749563	81.74287	Georgia	13	GA
GA	Lowndes	30.83368	83.268967	Georgia	13	GA
GA	Lumpkin	34.568149	83.998828	Georgia	13	GA
GA	McDuffie	33.482464	82.473188	Georgia	13	GA
GA	McIntosh	31.482978	81.370199	Georgia	13	GA
GA	Macon	32.366216	84.052162	Georgia	13	GA
GA	Madison	34.128486	83.203637	Georgia	13	GA
GA	Marion	32.359538	84.529561	Georgia	13	GA
GA	Meriwether	33.03022	84.663279	Georgia	13	GA
GA	Miller	31.162908	84.730386	Georgia	13	GA
GA	Mitchell	31.22894	84.192407	Georgia	13	GA
GA	Monroe	33.017435	83.922938	Georgia	13	GA
GA	Montgomery	32.172108	82.533349	Georgia	13	GA
GA	Morgan	33.593732	83.492324	Georgia	13	GA
GA	Murray	34.797097	84.73799	Georgia	13	GA
GA	Muscogee	32.510197	84.874946	Georgia	13	GA
GA	Newton	33.544046	83.855189	Georgia	13	GA
GA	Oconee	33.834125	83.437728	Georgia	13	GA
GA	Oglethorpe	33.866806	83.074081	Georgia	13	GA
GA	Paulding	33.920903	84.866979	Georgia	13	GA
GA	Peach	32.571324	83.831978	Georgia	13	GA
GA	Pickens	34.456621	84.490256	Georgia	13	GA
GA	Pierce	31.353988	82.210427	Georgia	13	GA
GA	Pike	33.090769	84.386627	Georgia	13	GA
GA	Polk	33.995961	85.186826	Georgia	13	GA
GA	Pulaski	32.238794	83.481855	Georgia	13	GA
GA	Putnam	33.321061	83.37179	Georgia	13	GA
GA	Quitman	31.861487	85.009317	Georgia	13	GA
GA	Rabun	34.883026	83.404735	Georgia	13	GA
GA	Randolph	31.762651	84.752311	Georgia	13	GA
GA	Richmond	33.361487	82.074998	Georgia	13	GA
GA	Rockdale	33.652081	84.02637	Georgia	13	GA
GA	Schley	32.263441	84.322724	Georgia	13	GA
GA	Screven	32.744751	81.617585	Georgia	13	GA
GA	Seminole	30.933894	84.867592	Georgia	13	GA
GA	Spalding	33.262389	84.286067	Georgia	13	GA
GA	Stephens	34.552914	83.290216	Georgia	13	GA
GA	Stewart	32.073225	84.834912	Georgia	13	GA
GA	Sumter	32.042203	84.204283	Georgia	13	GA
GA	Talbot	32.704603	84.530029	Georgia	13	GA
GA	Taliaferro	33.559314	82.875208	Georgia	13	GA
GA	Tattnall	32.043768	82.059208	Georgia	13	GA
GA	Taylor	32.554667	84.251426	Georgia	13	GA
GA	Telfair	31.913639	82.931062	Georgia	13	GA
GA	Terrell	31.777191	84.439446	Georgia	13	GA
GA	Thomas	30.864616	83.919783	Georgia	13	GA
GA	Tift	31.457003	83.525931	Georgia	13	GA
GA	Toombs	32.126698	82.332071	Georgia	13	GA
GA	Towns	34.90265	83.732158	Georgia	13	GA
GA	Treutlen	32.409586	82.570882	Georgia	13	GA
GA	Troup	33.034482	85.02836	Georgia	13	GA
GA	Turner	31.718232	83.628567	Georgia	13	GA
GA	Twiggs	32.665847	83.425879	Georgia	13	GA
GA	Union	34.83377	83.989573	Georgia	13	GA
GA	Upson	32.881837	84.292281	Georgia	13	GA
GA	Walker	34.735827	85.305385	Georgia	13	GA
GA	Walton	33.782649	83.734215	Georgia	13	GA
GA	Ware	31.050881	82.421507	Georgia	13	GA
GA	Warren	33.419169	82.688012	Georgia	13	GA
GA	Washington	32.971848	82.798112	Georgia	13	GA
GA	Wayne	31.547845	81.912376	Georgia	13	GA
GA	Webster	32.046554	84.553218	Georgia	13	GA
GA	Wheeler	32.109276	82.738701	Georgia	13	GA
GA	White	34.643677	83.743713	Georgia	13	GA
GA	Whitfield	34.801726	84.968541	Georgia	13	GA
GA	Wilcox	31.962717	83.438262	Georgia	13	GA
GA	Wilkes	33.77904	82.747922	Georgia	13	GA
GA	Wilkinson	32.804321	83.175587	Georgia	13	GA
GA	Worth	31.551773	83.84996	Georgia	13	GA
HI	Hawaiʻi	19.597764	155.502443	Hawaii	15	HI
HI	Honolulu	21.461364	158.201976	Hawaii	15	HI
HI	Kalawao [8]	21.218764	156.97401	Hawaii	15	HI
HI	Kauaʻi	22.012038	159.705965	Hawaii	15	HI
HI	Maui	20.855931	156.60155	Hawaii	15	HI
ID	Ada	43.447861	116.244456	Idaho	16	ID
ID	Adams	44.884583	116.431873	Idaho	16	ID
ID	Bannock	42.692939	112.228986	Idaho	16	ID
ID	Bear Lake	42.285833	111.327445	Idaho	16	ID
ID	Benewah	47.218451	116.633541	Idaho	16	ID
ID	Bingham	43.216357	112.399206	Idaho	16	ID
ID	Blaine	43.394482	113.95529	Idaho	16	ID
ID	Boise	43.987275	115.715111	Idaho	16	ID
ID	Bonner	48.312512	116.59694	Idaho	16	ID
ID	Bonneville	43.395171	111.621878	Idaho	16	ID
ID	Boundary	48.773065	116.524619	Idaho	16	ID
ID	Butte	43.6851	113.177627	Idaho	16	ID
ID	Camas	43.463396	114.804427	Idaho	16	ID
ID	Canyon	43.623051	116.708527	Idaho	16	ID
ID	Caribou	42.786273	111.544172	Idaho	16	ID
ID	Cassia	42.288635	113.605498	Idaho	16	ID
ID	Clark	44.286251	112.36112	Idaho	16	ID
ID	Clearwater	46.67257	115.6535	Idaho	16	ID
ID	Custer	44.273341	114.252251	Idaho	16	ID
ID	Elmore	43.394826	115.470751	Idaho	16	ID
ID	Franklin	42.173589	111.822955	Idaho	16	ID
ID	Fremont	44.218091	111.484429	Idaho	16	ID
ID	Gem	44.061473	116.398784	Idaho	16	ID
ID	Gooding	42.973185	114.82142	Idaho	16	ID
ID	Idaho	45.849237	115.467376	Idaho	16	ID
ID	Jefferson	43.796965	112.318588	Idaho	16	ID
ID	Jerome	42.691172	114.263009	Idaho	16	ID
ID	Kootenai	47.677113	116.694918	Idaho	16	ID
ID	Latah	46.81892	116.730974	Idaho	16	ID
ID	Lemhi	44.928789	113.887841	Idaho	16	ID
ID	Lewis	46.236328	116.42376	Idaho	16	ID
ID	Lincoln	42.986181	114.153899	Idaho	16	ID
ID	Madison	43.789709	111.65655	Idaho	16	ID
ID	Minidoka	42.856937	113.64001	Idaho	16	ID
ID	Nez Perce	46.333766	116.760903	Idaho	16	ID
ID	Oneida	42.18389	112.520465	Idaho	16	ID
ID	Owyhee	42.593063	116.142655	Idaho	16	ID
ID	Payette	44.00274	116.748655	Idaho	16	ID
ID	Power	42.694126	112.844407	Idaho	16	ID
ID	Shoshone	47.347694	115.885092	Idaho	16	ID
ID	Teton	43.760994	111.211765	Idaho	16	ID
ID	Twin Falls	42.352309	114.665639	Idaho	16	ID
ID	Valley	44.771532	115.637875	Idaho	16	ID
ID	Washington	44.448213	116.79783	Idaho	16	ID
IL	Adams	39.986053	91.194961	Illinois	17	IL
IL	Alexander	37.183683	89.349506	Illinois	17	IL
IL	Bond	38.885924	89.436592	Illinois	17	IL
IL	Boone	42.318983	88.824295	Illinois	17	IL
IL	Brown	39.962069	90.75031	Illinois	17	IL
IL	Bureau	41.401304	89.528377	Illinois	17	IL
IL	Calhoun	39.164262	90.666295	Illinois	17	IL
IL	Carroll	42.059084	89.926485	Illinois	17	IL
IL	Cass	39.969202	90.245705	Illinois	17	IL
IL	Champaign	40.13915	88.197201	Illinois	17	IL
IL	Christian	39.545524	89.279593	Illinois	17	IL
IL	Clark	39.332364	87.791687	Illinois	17	IL
IL	Clay	38.747312	88.483789	Illinois	17	IL
IL	Clinton	38.606423	89.423136	Illinois	17	IL
IL	Coles	39.51368	88.220782	Illinois	17	IL
IL	Cook	41.894294	87.645455	Illinois	17	IL
IL	Crawford	39.00373	87.757172	Illinois	17	IL
IL	Cumberland	39.273121	88.240619	Illinois	17	IL
IL	DeKalb	41.894613	88.768991	Illinois	17	IL
IL	De Witt	40.181499	88.901853	Illinois	17	IL
IL	Douglas	39.766078	88.222866	Illinois	17	IL
IL	DuPage	41.852058	88.086038	Illinois	17	IL
IL	Edgar	39.679037	87.74711	Illinois	17	IL
IL	Edwards	38.417095	88.047941	Illinois	17	IL
IL	Effingham	39.047694	88.592786	Illinois	17	IL
IL	Fayette	39.001125	89.017923	Illinois	17	IL
IL	Ford	40.594423	88.224746	Illinois	17	IL
IL	Franklin	37.991848	88.926246	Illinois	17	IL
IL	Fulton	40.465688	90.206793	Illinois	17	IL
IL	Gallatin	37.768677	88.227964	Illinois	17	IL
IL	Greene	39.355444	90.387757	Illinois	17	IL
IL	Grundy	41.29241	88.401055	Illinois	17	IL
IL	Hamilton	38.085226	88.539005	Illinois	17	IL
IL	Hancock	40.405792	91.167988	Illinois	17	IL
IL	Hardin	37.517852	88.266148	Illinois	17	IL
IL	Henderson	40.815141	90.93848	Illinois	17	IL
IL	Henry	41.350021	90.130838	Illinois	17	IL
IL	Iroquois	40.748867	87.833601	Illinois	17	IL
IL	Jackson	37.786096	89.381212	Illinois	17	IL
IL	Jasper	39.004874	88.150763	Illinois	17	IL
IL	Jefferson	38.30078	88.92421	Illinois	17	IL
IL	Jersey	39.080192	90.361365	Illinois	17	IL
IL	Jo Daviess	42.362391	90.211471	Illinois	17	IL
IL	Johnson	37.460815	88.882962	Illinois	17	IL
IL	Kane	41.939594	88.42804	Illinois	17	IL
IL	Kankakee	41.139494	87.861125	Illinois	17	IL
IL	Kendall	41.58814	88.430626	Illinois	17	IL
IL	Knox	40.930941	90.213761	Illinois	17	IL
IL	Lake	42.326444	87.436118	Illinois	17	IL
IL	La Salle	41.343341	88.885931	Illinois	17	IL
IL	Lawrence	38.718954	87.730221	Illinois	17	IL
IL	Lee	41.747442	89.299351	Illinois	17	IL
IL	Livingston	40.894376	88.552852	Illinois	17	IL
IL	Logan	40.12907	89.365308	Illinois	17	IL
IL	McDonough	40.455789	90.677579	Illinois	17	IL
IL	McHenry	42.324298	88.452245	Illinois	17	IL
IL	McLean	40.494559	88.844539	Illinois	17	IL
IL	Macon	39.860237	88.961529	Illinois	17	IL
IL	Macoupin	39.2659	89.926344	Illinois	17	IL
IL	Madison	38.827082	89.900195	Illinois	17	IL
IL	Marion	38.648396	88.920221	Illinois	17	IL
IL	Marshall	41.031119	89.342371	Illinois	17	IL
IL	Mason	40.236993	89.913575	Illinois	17	IL
IL	Massac	37.216119	88.705658	Illinois	17	IL
IL	Menard	40.022569	89.794133	Illinois	17	IL
IL	Mercer	41.204791	90.741433	Illinois	17	IL
IL	Monroe	38.277983	90.179078	Illinois	17	IL
IL	Montgomery	39.228092	89.478007	Illinois	17	IL
IL	Morgan	39.716806	90.202277	Illinois	17	IL
IL	Moultrie	39.636896	88.625726	Illinois	17	IL
IL	Ogle	42.041884	89.320176	Illinois	17	IL
IL	Peoria	40.785999	89.767358	Illinois	17	IL
IL	Perry	38.084385	89.368487	Illinois	17	IL
IL	Piatt	40.009056	88.592328	Illinois	17	IL
IL	Pike	39.625106	90.889034	Illinois	17	IL
IL	Pope	37.417169	88.542374	Illinois	17	IL
IL	Pulaski	37.215615	89.127755	Illinois	17	IL
IL	Putnam	41.19894	89.298386	Illinois	17	IL
IL	Randolph	38.056515	89.82121	Illinois	17	IL
IL	Richland	38.71155	88.085698	Illinois	17	IL
IL	Rock Island	41.468404	90.572203	Illinois	17	IL
IL	St. Clair	38.470198	89.928546	Illinois	17	IL
IL	Saline	37.751653	88.545031	Illinois	17	IL
IL	Sangamon	39.756378	89.662311	Illinois	17	IL
IL	Schuyler	40.156905	90.613464	Illinois	17	IL
IL	Scott	39.63698	90.477759	Illinois	17	IL
IL	Shelby	39.384926	88.798862	Illinois	17	IL
IL	Stark	41.096908	89.797411	Illinois	17	IL
IL	Stephenson	42.349726	89.665994	Illinois	17	IL
IL	Tazewell	40.508074	89.51626	Illinois	17	IL
IL	Union	37.475104	89.252875	Illinois	17	IL
IL	Vermilion	40.18674	87.726772	Illinois	17	IL
IL	Wabash	38.445821	87.839167	Illinois	17	IL
IL	Warren	40.850441	90.620223	Illinois	17	IL
IL	Washington	38.353141	89.417187	Illinois	17	IL
IL	Wayne	38.431948	88.432129	Illinois	17	IL
IL	White	38.087372	88.178585	Illinois	17	IL
IL	Whiteside	41.750571	89.910957	Illinois	17	IL
IL	Will	41.448474	87.978456	Illinois	17	IL
IL	Williamson	37.730353	88.930018	Illinois	17	IL
IL	Winnebago	42.337396	89.161205	Illinois	17	IL
IL	Woodford	40.789596	89.210301	Illinois	17	IL
IN	Adams	40.745733	84.936131	Indiana	18	IN
IN	Allen	41.091855	85.07223	Indiana	18	IN
IN	Bartholomew	39.205843	85.897999	Indiana	18	IN
IN	Benton	40.608253	87.315479	Indiana	18	IN
IN	Blackford	40.472672	85.32373	Indiana	18	IN
IN	Boone	40.050892	86.469014	Indiana	18	IN
IN	Brown	39.192585	86.23941	Indiana	18	IN
IN	Carroll	40.58498	86.565141	Indiana	18	IN
IN	Cass	40.753799	86.355169	Indiana	18	IN
IN	Clark	38.476217	85.711122	Indiana	18	IN
IN	Clay	39.393951	87.115837	Indiana	18	IN
IN	Clinton	40.305944	86.477567	Indiana	18	IN
IN	Crawford	38.289433	86.440871	Indiana	18	IN
IN	Daviess	38.696155	87.076988	Indiana	18	IN
IN	Dearborn	39.151491	84.97346	Indiana	18	IN
IN	Decatur	39.30598	85.499831	Indiana	18	IN
IN	DeKalb	41.401189	85.000185	Indiana	18	IN
IN	Delaware	40.227165	85.398856	Indiana	18	IN
IN	Dubois	38.373344	86.873385	Indiana	18	IN
IN	Elkhart	41.600693	85.863986	Indiana	18	IN
IN	Fayette	39.639655	85.185032	Indiana	18	IN
IN	Floyd	38.317937	85.911474	Indiana	18	IN
IN	Fountain	40.121282	87.234806	Indiana	18	IN
IN	Franklin	39.409762	85.066964	Indiana	18	IN
IN	Fulton	41.050384	86.265006	Indiana	18	IN
IN	Gibson	38.317413	87.580566	Indiana	18	IN
IN	Grant	40.515758	85.654946	Indiana	18	IN
IN	Greene	39.0486	87.005245	Indiana	18	IN
IN	Hamilton	40.04987	86.020586	Indiana	18	IN
IN	Hancock	39.822604	85.772904	Indiana	18	IN
IN	Harrison	38.18644	86.103681	Indiana	18	IN
IN	Hendricks	39.768749	86.510287	Indiana	18	IN
IN	Henry	39.929576	85.397338	Indiana	18	IN
IN	Howard	40.483537	86.114118	Indiana	18	IN
IN	Huntington	40.826394	85.478598	Indiana	18	IN
IN	Jackson	38.911957	86.042516	Indiana	18	IN
IN	Jasper	41.017688	87.118814	Indiana	18	IN
IN	Jay	40.434972	85.00338	Indiana	18	IN
IN	Jefferson	38.783604	85.44009	Indiana	18	IN
IN	Jennings	38.996234	85.628111	Indiana	18	IN
IN	Johnson	39.495986	86.0946	Indiana	18	IN
IN	Knox	38.688663	87.420182	Indiana	18	IN
IN	Kosciusko	41.244293	85.861575	Indiana	18	IN
IN	LaGrange	41.642468	85.426302	Indiana	18	IN
IN	Lake	41.472239	87.374337	Indiana	18	IN
IN	LaPorte	41.549011	86.744729	Indiana	18	IN
IN	Lawrence	38.839815	86.48782	Indiana	18	IN
IN	Madison	40.166203	85.722454	Indiana	18	IN
IN	Marion	39.782976	86.135794	Indiana	18	IN
IN	Marshall	41.325003	86.269036	Indiana	18	IN
IN	Martin	38.705322	86.801847	Indiana	18	IN
IN	Miami	40.772881	86.044259	Indiana	18	IN
IN	Monroe	39.160751	86.523325	Indiana	18	IN
IN	Montgomery	40.040296	86.892715	Indiana	18	IN
IN	Morgan	39.482646	86.447457	Indiana	18	IN
IN	Newton	40.962399	87.402172	Indiana	18	IN
IN	Noble	41.400794	85.41785	Indiana	18	IN
IN	Ohio	38.940527	84.964299	Indiana	18	IN
IN	Orange	38.547381	86.489257	Indiana	18	IN
IN	Owen	39.317339	86.838845	Indiana	18	IN
IN	Parke	39.77425	87.19695	Indiana	18	IN
IN	Perry	38.081436	86.62654	Indiana	18	IN
IN	Pike	38.397898	87.232532	Indiana	18	IN
IN	Porter	41.509922	87.071308	Indiana	18	IN
IN	Posey	38.027614	87.868653	Indiana	18	IN
IN	Pulaski	41.045272	86.692538	Indiana	18	IN
IN	Putnam	39.665545	86.853325	Indiana	18	IN
IN	Randolph	40.164414	85.005004	Indiana	18	IN
IN	Ripley	39.10023	85.260541	Indiana	18	IN
IN	Rush	39.622312	85.466527	Indiana	18	IN
IN	St. Joseph	41.617699	86.288159	Indiana	18	IN
IN	Scott	38.679431	85.751898	Indiana	18	IN
IN	Shelby	39.524135	85.792174	Indiana	18	IN
IN	Spencer	38.009789	87.010645	Indiana	18	IN
IN	Starke	41.28322	86.64757	Indiana	18	IN
IN	Steuben	41.643437	85.002467	Indiana	18	IN
IN	Sullivan	39.089225	87.415843	Indiana	18	IN
IN	Switzerland	38.825846	85.029679	Indiana	18	IN
IN	Tippecanoe	40.38926	86.893943	Indiana	18	IN
IN	Tipton	40.310229	86.056207	Indiana	18	IN
IN	Union	39.623111	84.925152	Indiana	18	IN
IN	Vanderburgh	38.02007	87.586166	Indiana	18	IN
IN	Vermillion	39.854045	87.462071	Indiana	18	IN
IN	Vigo	39.429143	87.390375	Indiana	18	IN
IN	Wabash	40.843717	85.795175	Indiana	18	IN
IN	Warren	40.352658	87.375847	Indiana	18	IN
IN	Warrick	38.097764	87.272023	Indiana	18	IN
IN	Washington	38.600613	86.104751	Indiana	18	IN
IN	Wayne	39.863091	85.006735	Indiana	18	IN
IN	Wells	40.735273	85.212974	Indiana	18	IN
IN	White	40.75095	86.864293	Indiana	18	IN
IN	Whitley	41.136426	85.501892	Indiana	18	IN
IA	Adair	41.328528	94.478164	Iowa	19	IA
IA	Adams	41.021656	94.696906	Iowa	19	IA
IA	Allamakee	43.274964	91.382751	Iowa	19	IA
IA	Appanoose	40.744683	92.870345	Iowa	19	IA
IA	Audubon	41.679178	94.904312	Iowa	19	IA
IA	Benton	42.092547	92.05763	Iowa	19	IA
IA	Black Hawk	42.472888	92.306059	Iowa	19	IA
IA	Boone	42.038601	93.939138	Iowa	19	IA
IA	Bremer	42.78089	92.327586	Iowa	19	IA
IA	Buchanan	42.470328	91.838666	Iowa	19	IA
IA	Buena Vista	42.741522	95.141433	Iowa	19	IA
IA	Butler	42.734708	92.780066	Iowa	19	IA
IA	Calhoun	42.38617	94.643683	Iowa	19	IA
IA	Carroll	42.039492	94.867647	Iowa	19	IA
IA	Cass	41.333824	94.933302	Iowa	19	IA
IA	Cedar	41.772355	91.13219	Iowa	19	IA
IA	Cerro Gordo	43.075171	93.251266	Iowa	19	IA
IA	Cherokee	42.742738	95.633262	Iowa	19	IA
IA	Chickasaw	43.059741	92.31721	Iowa	19	IA
IA	Clarke	41.029191	93.784096	Iowa	19	IA
IA	Clay	43.079822	95.149726	Iowa	19	IA
IA	Clayton	42.840998	91.323511	Iowa	19	IA
IA	Clinton	41.898073	90.534243	Iowa	19	IA
IA	Crawford	42.043119	95.38909	Iowa	19	IA
IA	Dallas	41.685321	94.040707	Iowa	19	IA
IA	Davis	40.748089	92.410345	Iowa	19	IA
IA	Decatur	40.736379	93.78458	Iowa	19	IA
IA	Delaware	42.473003	91.359443	Iowa	19	IA
IA	Des Moines	40.915339	91.186925	Iowa	19	IA
IA	Dickinson	43.389611	95.196057	Iowa	19	IA
IA	Dubuque	42.463481	90.878771	Iowa	19	IA
IA	Emmet	43.377984	94.66937	Iowa	19	IA
IA	Fayette	42.86445	91.839373	Iowa	19	IA
IA	Floyd	43.052741	92.787367	Iowa	19	IA
IA	Franklin	42.736549	93.271425	Iowa	19	IA
IA	Fremont	40.743726	95.599516	Iowa	19	IA
IA	Greene	42.042494	94.388703	Iowa	19	IA
IA	Grundy	42.403323	92.790261	Iowa	19	IA
IA	Guthrie	41.683573	94.501272	Iowa	19	IA
IA	Hamilton	42.390768	93.709198	Iowa	19	IA
IA	Hancock	43.075411	93.743697	Iowa	19	IA
IA	Hardin	42.389955	93.241081	Iowa	19	IA
IA	Harrison	41.688584	95.827149	Iowa	19	IA
IA	Henry	40.985864	91.54427	Iowa	19	IA
IA	Howard	43.365313	92.321908	Iowa	19	IA
IA	Humboldt	42.782221	94.202775	Iowa	19	IA
IA	Ida	42.39186	95.507421	Iowa	19	IA
IA	Iowa	41.683918	92.059123	Iowa	19	IA
IA	Jackson	42.164281	90.574597	Iowa	19	IA
IA	Jasper	41.685686	93.052971	Iowa	19	IA
IA	Jefferson	41.00688	91.967137	Iowa	19	IA
IA	Johnson	41.668737	91.588812	Iowa	19	IA
IA	Jones	42.125118	91.116914	Iowa	19	IA
IA	Keokuk	41.331182	92.167721	Iowa	19	IA
IA	Kossuth	43.212478	94.213983	Iowa	19	IA
IA	Lee	40.647588	91.477157	Iowa	19	IA
IA	Linn	42.077951	91.597674	Iowa	19	IA
IA	Louisa	41.218211	91.256994	Iowa	19	IA
IA	Lucas	41.033344	93.331467	Iowa	19	IA
IA	Lyon	43.38358	96.207201	Iowa	19	IA
IA	Madison	41.330622	94.015184	Iowa	19	IA
IA	Mahaska	41.330797	92.636366	Iowa	19	IA
IA	Marion	41.331455	93.093849	Iowa	19	IA
IA	Marshall	42.041691	92.981452	Iowa	19	IA
IA	Mills	41.033703	95.619101	Iowa	19	IA
IA	Mitchell	43.348564	92.784466	Iowa	19	IA
IA	Monona	42.049432	95.956566	Iowa	19	IA
IA	Monroe	41.028847	92.869642	Iowa	19	IA
IA	Montgomery	41.021735	95.15779	Iowa	19	IA
IA	Muscatine	41.483776	91.118699	Iowa	19	IA
IA	O'Brien	43.083746	95.625624	Iowa	19	IA
IA	Osceola	43.378542	95.633788	Iowa	19	IA
IA	Page	40.73909	95.14429	Iowa	19	IA
IA	Palo Alto	43.075854	94.667297	Iowa	19	IA
IA	Plymouth	42.737585	96.215864	Iowa	19	IA
IA	Pocahontas	42.734033	94.678279	Iowa	19	IA
IA	Polk	41.684281	93.56972	Iowa	19	IA
IA	Pottawattamie	41.340184	95.544905	Iowa	19	IA
IA	Poweshiek	41.684526	92.522882	Iowa	19	IA
IA	Ringgold	40.735334	94.244251	Iowa	19	IA
IA	Sac	42.387526	95.105224	Iowa	19	IA
IA	Scott	41.641679	90.62229	Iowa	19	IA
IA	Shelby	41.679014	95.308917	Iowa	19	IA
IA	Sioux	43.082854	96.177929	Iowa	19	IA
IA	Story	42.037538	93.466093	Iowa	19	IA
IA	Tama	42.074848	92.529412	Iowa	19	IA
IA	Taylor	40.737949	94.697108	Iowa	19	IA
IA	Union	41.02855	94.245091	Iowa	19	IA
IA	Van Buren	40.754117	91.952943	Iowa	19	IA
IA	Wapello	41.031263	92.409482	Iowa	19	IA
IA	Warren	41.336769	93.564366	Iowa	19	IA
IA	Washington	41.329401	91.725052	Iowa	19	IA
IA	Wayne	40.739983	93.332613	Iowa	19	IA
IA	Webster	42.434397	94.179157	Iowa	19	IA
IA	Winnebago	43.378124	93.743488	Iowa	19	IA
IA	Winneshiek	43.292989	91.850788	Iowa	19	IA
IA	Woodbury	42.39322	96.053296	Iowa	19	IA
IA	Worth	43.373491	93.248533	Iowa	19	IA
IA	Wright	42.733007	93.734735	Iowa	19	IA
KS	Allen	37.884229	95.300945	Kansas	20	KS
KS	Anderson	38.215114	95.292046	Kansas	20	KS
KS	Atchison	39.532544	95.313398	Kansas	20	KS
KS	Barber	37.222906	98.685052	Kansas	20	KS
KS	Barton	38.481239	98.767837	Kansas	20	KS
KS	Bourbon	37.8561	94.850928	Kansas	20	KS
KS	Brown	39.825931	95.569905	Kansas	20	KS
KS	Butler	37.773681	96.838762	Kansas	20	KS
KS	Chase	38.298553	96.594064	Kansas	20	KS
KS	Chautauqua	37.154259	96.245396	Kansas	20	KS
KS	Cherokee	37.169392	94.845698	Kansas	20	KS
KS	Cheyenne	39.789256	101.727302	Kansas	20	KS
KS	Clark	37.233831	99.813869	Kansas	20	KS
KS	Clay	39.344964	97.168853	Kansas	20	KS
KS	Cloud	39.487329	97.64139	Kansas	20	KS
KS	Coffey	38.23645	95.729137	Kansas	20	KS
KS	Comanche	37.189071	99.254089	Kansas	20	KS
KS	Cowley	37.234507	96.837247	Kansas	20	KS
KS	Crawford	37.505628	94.853941	Kansas	20	KS
KS	Decatur	39.783542	100.459708	Kansas	20	KS
KS	Dickinson	38.867735	97.157943	Kansas	20	KS
KS	Doniphan	39.788502	95.147225	Kansas	20	KS
KS	Douglas	38.896573	95.290529	Kansas	20	KS
KS	Edwards	37.883595	99.304746	Kansas	20	KS
KS	Elk	37.456026	96.244642	Kansas	20	KS
KS	Ellis	38.914596	99.317329	Kansas	20	KS
KS	Ellsworth	38.700845	98.205355	Kansas	20	KS
KS	Finney	38.049855	100.739929	Kansas	20	KS
KS	Ford	37.688365	99.884734	Kansas	20	KS
KS	Franklin	38.558019	95.278962	Kansas	20	KS
KS	Geary	39.002155	96.768038	Kansas	20	KS
KS	Gove	38.917239	100.48736	Kansas	20	KS
KS	Graham	39.349445	99.880952	Kansas	20	KS
KS	Grant	37.547537	101.299362	Kansas	20	KS
KS	Gray	37.744513	100.451716	Kansas	20	KS
KS	Greeley	38.480408	101.805984	Kansas	20	KS
KS	Greenwood	37.878659	96.242232	Kansas	20	KS
KS	Hamilton	37.995244	101.793689	Kansas	20	KS
KS	Harper	37.188184	98.06659	Kansas	20	KS
KS	Harvey	38.050144	97.436707	Kansas	20	KS
KS	Haskell	37.55855	100.876869	Kansas	20	KS
KS	Hodgeman	38.087493	99.898407	Kansas	20	KS
KS	Jackson	39.410989	95.794509	Kansas	20	KS
KS	Jefferson	39.239644	95.375314	Kansas	20	KS
KS	Jewell	39.77701	98.222584	Kansas	20	KS
KS	Johnson	38.883907	94.82233	Kansas	20	KS
KS	Kearny	37.994461	101.308136	Kansas	20	KS
KS	Kingman	37.552951	98.144529	Kansas	20	KS
KS	Kiowa	37.561231	99.286539	Kansas	20	KS
KS	Labette	37.191468	95.297473	Kansas	20	KS
KS	Lane	38.481286	100.466185	Kansas	20	KS
KS	Leavenworth	39.189511	95.038977	Kansas	20	KS
KS	Lincoln	39.047276	98.214265	Kansas	20	KS
KS	Linn	38.216549	94.844932	Kansas	20	KS
KS	Logan	38.91327	101.157407	Kansas	20	KS
KS	Lyon	38.455498	96.161589	Kansas	20	KS
KS	McPherson	38.395812	97.647489	Kansas	20	KS
KS	Marion	38.359647	97.102771	Kansas	20	KS
KS	Marshall	39.782709	96.521243	Kansas	20	KS
KS	Meade	37.243886	100.360094	Kansas	20	KS
KS	Miami	38.566772	94.832963	Kansas	20	KS
KS	Mitchell	39.393026	98.207362	Kansas	20	KS
KS	Montgomery	37.189537	95.742403	Kansas	20	KS
KS	Morris	38.687696	96.644905	Kansas	20	KS
KS	Morton	37.18525	101.809516	Kansas	20	KS
KS	Nemaha	39.791043	96.005381	Kansas	20	KS
KS	Neosho	37.564283	95.315683	Kansas	20	KS
KS	Ness	38.480437	99.908745	Kansas	20	KS
KS	Norton	39.783867	99.899235	Kansas	20	KS
KS	Osage	38.649706	95.727275	Kansas	20	KS
KS	Osborne	39.348649	98.767876	Kansas	20	KS
KS	Ottawa	39.137963	97.654803	Kansas	20	KS
KS	Pawnee	38.182873	99.232154	Kansas	20	KS
KS	Phillips	39.784506	99.34215	Kansas	20	KS
KS	Pottawatomie	39.382187	96.337113	Kansas	20	KS
KS	Pratt	37.647594	98.74012	Kansas	20	KS
KS	Rawlins	39.786198	101.076738	Kansas	20	KS
KS	Reno	37.948185	98.078346	Kansas	20	KS
KS	Republic	39.82891	97.650921	Kansas	20	KS
KS	Rice	38.347178	98.201415	Kansas	20	KS
KS	Riley	39.291211	96.727489	Kansas	20	KS
KS	Rooks	39.346006	99.324492	Kansas	20	KS
KS	Rush	38.523592	99.309183	Kansas	20	KS
KS	Russell	38.916839	98.765638	Kansas	20	KS
KS	Saline	38.786327	97.650153	Kansas	20	KS
KS	Scott	38.481877	100.90636	Kansas	20	KS
KS	Sedgwick	37.683807	97.459451	Kansas	20	KS
KS	Seward	37.180585	100.854741	Kansas	20	KS
KS	Shawnee	39.041805	95.755664	Kansas	20	KS
KS	Sheridan	39.350543	100.441206	Kansas	20	KS
KS	Sherman	39.351352	101.719859	Kansas	20	KS
KS	Smith	39.78466	98.78543	Kansas	20	KS
KS	Stafford	38.03563	98.719889	Kansas	20	KS
KS	Stanton	37.565932	101.789383	Kansas	20	KS
KS	Stevens	37.202356	101.315796	Kansas	20	KS
KS	Sumner	37.236663	97.493349	Kansas	20	KS
KS	Thomas	39.357706	101.083439	Kansas	20	KS
KS	Trego	38.921302	99.865423	Kansas	20	KS
KS	Wabaunsee	38.955154	96.201262	Kansas	20	KS
KS	Wallace	38.926626	101.771103	Kansas	20	KS
KS	Washington	39.776714	97.095611	Kansas	20	KS
KS	Wichita	38.481922	101.347434	Kansas	20	KS
KS	Wilson	37.558515	95.745175	Kansas	20	KS
KS	Woodson	37.888484	95.757553	Kansas	20	KS
KS	Wyandotte	39.115384	94.763087	Kansas	20	KS
KY	Adair	37.105541	85.281401	Kentucky	21	KY
KY	Allen	36.75077	86.192458	Kentucky	21	KY
KY	Anderson	38.005396	84.986417	Kentucky	21	KY
KY	Ballard	37.05112	89.009178	Kentucky	21	KY
KY	Barren	36.963614	85.92499	Kentucky	21	KY
KY	Bath	38.152249	83.737641	Kentucky	21	KY
KY	Bell	36.72268	83.681046	Kentucky	21	KY
KY	Boone	38.974595	84.731444	Kentucky	21	KY
KY	Bourbon	38.202562	84.20986	Kentucky	21	KY
KY	Boyd	38.360004	82.681406	Kentucky	21	KY
KY	Boyle	37.6182	84.873016	Kentucky	21	KY
KY	Bracken	38.678523	84.100355	Kentucky	21	KY
KY	Breathitt	37.521178	83.322401	Kentucky	21	KY
KY	Breckinridge	37.778109	86.432829	Kentucky	21	KY
KY	Bullitt	37.969572	85.703036	Kentucky	21	KY
KY	Butler	37.207013	86.682471	Kentucky	21	KY
KY	Caldwell	37.148643	87.87051	Kentucky	21	KY
KY	Calloway	36.620978	88.274086	Kentucky	21	KY
KY	Campbell	38.946981	84.379583	Kentucky	21	KY
KY	Carlisle	36.857726	88.975757	Kentucky	21	KY
KY	Carroll	38.668284	85.124083	Kentucky	21	KY
KY	Carter	38.309555	83.048821	Kentucky	21	KY
KY	Casey	37.321962	84.92822	Kentucky	21	KY
KY	Christian	36.893388	87.493554	Kentucky	21	KY
KY	Clark	37.970133	84.144974	Kentucky	21	KY
KY	Clay	37.164466	83.710763	Kentucky	21	KY
KY	Clinton	36.729124	85.153499	Kentucky	21	KY
KY	Crittenden	37.358149	88.10501	Kentucky	21	KY
KY	Cumberland	36.784227	85.393499	Kentucky	21	KY
KY	Daviess	37.731671	87.087139	Kentucky	21	KY
KY	Edmonson	37.227856	86.217778	Kentucky	21	KY
KY	Elliott	38.116425	83.097541	Kentucky	21	KY
KY	Estill	37.69246	83.963927	Kentucky	21	KY
KY	Fayette	38.040157	84.458443	Kentucky	21	KY
KY	Fleming	38.368431	83.706152	Kentucky	21	KY
KY	Floyd	37.558283	82.740337	Kentucky	21	KY
KY	Franklin	38.234919	84.868786	Kentucky	21	KY
KY	Fulton	36.55262	89.187723	Kentucky	21	KY
KY	Gallatin	38.760184	84.862114	Kentucky	21	KY
KY	Garrard	37.630162	84.545856	Kentucky	21	KY
KY	Grant	38.64921	84.625946	Kentucky	21	KY
KY	Graves	36.723344	88.649897	Kentucky	21	KY
KY	Grayson	37.458577	86.344011	Kentucky	21	KY
KY	Green	37.269637	85.561403	Kentucky	21	KY
KY	Greenup	38.563596	82.933833	Kentucky	21	KY
KY	Hancock	37.843389	86.792773	Kentucky	21	KY
KY	Hardin	37.695836	85.963183	Kentucky	21	KY
KY	Harlan	36.859223	83.221497	Kentucky	21	KY
KY	Harrison	38.443489	84.332796	Kentucky	21	KY
KY	Hart	37.313856	85.881995	Kentucky	21	KY
KY	Henderson	37.792542	87.572577	Kentucky	21	KY
KY	Henry	38.451561	85.120079	Kentucky	21	KY
KY	Hickman	36.675916	88.97202	Kentucky	21	KY
KY	Hopkins	37.31107	87.542196	Kentucky	21	KY
KY	Jackson	37.40332	84.020686	Kentucky	21	KY
KY	Jefferson	38.189533	85.657624	Kentucky	21	KY
KY	Jessamine	37.873291	84.58396	Kentucky	21	KY
KY	Johnson	37.84926	82.830639	Kentucky	21	KY
KY	Kenton	38.930477	84.533492	Kentucky	21	KY
KY	Knott	37.354703	82.949138	Kentucky	21	KY
KY	Knox	36.887476	83.85563	Kentucky	21	KY
KY	Larue	37.545518	85.697209	Kentucky	21	KY
KY	Laurel	37.113268	84.119395	Kentucky	21	KY
KY	Lawrence	38.074459	82.738305	Kentucky	21	KY
KY	Lee	37.605383	83.718497	Kentucky	21	KY
KY	Leslie	37.087846	83.388616	Kentucky	21	KY
KY	Letcher	37.118503	82.861175	Kentucky	21	KY
KY	Lewis	38.532051	83.373303	Kentucky	21	KY
KY	Lincoln	37.457257	84.658074	Kentucky	21	KY
KY	Livingston	37.209517	88.363426	Kentucky	21	KY
KY	Logan	36.859829	86.881436	Kentucky	21	KY
KY	Lyon	37.023976	88.083391	Kentucky	21	KY
KY	McCracken	37.053688	88.712378	Kentucky	21	KY
KY	McCreary	36.731136	84.491052	Kentucky	21	KY
KY	McLean	37.530575	87.262931	Kentucky	21	KY
KY	Madison	37.723528	84.277008	Kentucky	21	KY
KY	Magoffin	37.698954	83.069716	Kentucky	21	KY
KY	Marion	37.552247	85.269242	Kentucky	21	KY
KY	Marshall	36.882017	88.332752	Kentucky	21	KY
KY	Martin	37.796774	82.506623	Kentucky	21	KY
KY	Mason	38.594068	83.828052	Kentucky	21	KY
KY	Meade	37.967476	86.200863	Kentucky	21	KY
KY	Menifee	37.950715	83.597345	Kentucky	21	KY
KY	Mercer	37.812085	84.879695	Kentucky	21	KY
KY	Metcalfe	36.990394	85.629554	Kentucky	21	KY
KY	Monroe	36.714077	85.713508	Kentucky	21	KY
KY	Montgomery	38.038138	83.912338	Kentucky	21	KY
KY	Morgan	37.92294	83.258944	Kentucky	21	KY
KY	Muhlenberg	37.213816	87.134092	Kentucky	21	KY
KY	Nelson	37.803188	85.465955	Kentucky	21	KY
KY	Nicholas	38.337132	84.025554	Kentucky	21	KY
KY	Ohio	37.477859	86.844871	Kentucky	21	KY
KY	Oldham	38.400046	85.456059	Kentucky	21	KY
KY	Owen	38.499603	84.841509	Kentucky	21	KY
KY	Owsley	37.423452	83.691566	Kentucky	21	KY
KY	Pendleton	38.690765	84.354041	Kentucky	21	KY
KY	Perry	37.241282	83.217772	Kentucky	21	KY
KY	Pike	37.482067	82.402869	Kentucky	21	KY
KY	Powell	37.810379	83.826985	Kentucky	21	KY
KY	Pulaski	37.108312	84.579986	Kentucky	21	KY
KY	Robertson	38.513826	84.063757	Kentucky	21	KY
KY	Rockcastle	37.36122	84.314419	Kentucky	21	KY
KY	Rowan	38.205894	83.425969	Kentucky	21	KY
KY	Russell	36.989127	85.058976	Kentucky	21	KY
KY	Scott	38.289882	84.579376	Kentucky	21	KY
KY	Shelby	38.239426	85.22836	Kentucky	21	KY
KY	Simpson	36.740863	86.581464	Kentucky	21	KY
KY	Spencer	38.026976	85.321525	Kentucky	21	KY
KY	Taylor	37.365106	85.326698	Kentucky	21	KY
KY	Todd	36.840338	87.183642	Kentucky	21	KY
KY	Trigg	36.807681	87.858652	Kentucky	21	KY
KY	Trimble	38.618193	85.355171	Kentucky	21	KY
KY	Union	37.658029	87.95165	Kentucky	21	KY
KY	Warren	36.995634	86.423579	Kentucky	21	KY
KY	Washington	37.754209	85.175416	Kentucky	21	KY
KY	Wayne	36.802011	84.83044	Kentucky	21	KY
KY	Webster	37.520021	87.685095	Kentucky	21	KY
KY	Whitley	36.758021	84.14455	Kentucky	21	KY
KY	Wolfe	37.743774	83.495068	Kentucky	21	KY
KY	Woodford	38.042789	84.748147	Kentucky	21	KY
LA	Acadia	30.291497	92.411037	Louisiana	22	LA
LA	Allen	30.652744	92.819605	Louisiana	22	LA
LA	Ascension	30.202946	90.910023	Louisiana	22	LA
LA	Assumption	29.899884	91.050528	Louisiana	22	LA
LA	Avoyelles	31.085094	91.993798	Louisiana	22	LA
LA	Beauregard	30.645018	93.340253	Louisiana	22	LA
LA	Bienville	32.344268	93.061513	Louisiana	22	LA
LA	Bossier	32.696202	93.617977	Louisiana	22	LA
LA	Caddo	32.577195	93.882423	Louisiana	22	LA
LA	Calcasieu	30.229559	93.358015	Louisiana	22	LA
LA	Caldwell	32.101244	92.11418	Louisiana	22	LA
LA	Cameron	29.871989	93.165437	Louisiana	22	LA
LA	Catahoula	31.666517	91.846703	Louisiana	22	LA
LA	Claiborne	32.827585	92.991125	Louisiana	22	LA
LA	Concordia	31.469806	91.626314	Louisiana	22	LA
LA	De Soto	32.059248	93.740797	Louisiana	22	LA
LA	East Baton Rouge	30.544002	91.093174	Louisiana	22	LA
LA	East Carroll	32.73017	91.234141	Louisiana	22	LA
LA	East Feliciana	30.839784	91.043434	Louisiana	22	LA
LA	Evangeline	30.720693	92.404086	Louisiana	22	LA
LA	Franklin	32.138279	91.672101	Louisiana	22	LA
LA	Grant	31.597787	92.561716	Louisiana	22	LA
LA	Iberia	29.606013	91.842706	Louisiana	22	LA
LA	Iberville	30.288394	91.36315	Louisiana	22	LA
LA	Jackson	32.30448	92.556672	Louisiana	22	LA
LA	Jefferson	29.5033	90.036231	Louisiana	22	LA
LA	Jefferson Davis	30.269529	92.816221	Louisiana	22	LA
LA	Lafayette	30.206507	92.06417	Louisiana	22	LA
LA	Lafourche	29.491993	90.394849	Louisiana	22	LA
LA	La Salle	31.680836	92.161809	Louisiana	22	LA
LA	Lincoln	32.601148	92.662082	Louisiana	22	LA
LA	Livingston	30.440419	90.727474	Louisiana	22	LA
LA	Madison	32.365824	91.240729	Louisiana	22	LA
LA	Morehouse	32.820008	91.800399	Louisiana	22	LA
LA	Natchitoches	31.734982	93.086106	Louisiana	22	LA
LA	Orleans	30.068636	89.939007	Louisiana	22	LA
LA	Ouachita	32.477495	92.154798	Louisiana	22	LA
LA	Plaquemines	29.402337	89.298489	Louisiana	22	LA
LA	Pointe Coupee	30.708319	91.604621	Louisiana	22	LA
LA	Rapides	31.193204	92.535953	Louisiana	22	LA
LA	Red River	32.101213	93.34905	Louisiana	22	LA
LA	Richland	32.418121	91.758375	Louisiana	22	LA
LA	Sabine	31.560209	93.559228	Louisiana	22	LA
LA	St. Bernard	29.91811	89.263494	Louisiana	22	LA
LA	St. Charles	29.913833	90.359314	Louisiana	22	LA
LA	St. Helena	30.821423	90.70935	Louisiana	22	LA
LA	St. James	30.02482	90.793956	Louisiana	22	LA
LA	St. John the Baptist	30.117471	90.504677	Louisiana	22	LA
LA	St. Landry	30.583441	91.989275	Louisiana	22	LA
LA	St. Martin	30.121433	91.611481	Louisiana	22	LA
LA	St. Mary	29.629349	91.463804	Louisiana	22	LA
LA	St. Tammany	30.410022	89.951962	Louisiana	22	LA
LA	Tangipahoa	30.621581	90.406633	Louisiana	22	LA
LA	Tensas	32.001489	91.342576	Louisiana	22	LA
LA	Terrebonne	29.333266	90.844191	Louisiana	22	LA
LA	Union	32.829349	92.37565	Louisiana	22	LA
LA	Vermilion	29.786872	92.29009	Louisiana	22	LA
LA	Vernon	31.110563	93.18152	Louisiana	22	LA
LA	Washington	30.852144	90.046253	Louisiana	22	LA
LA	Webster	32.732152	93.339825	Louisiana	22	LA
LA	West Baton Rouge	30.464052	91.309808	Louisiana	22	LA
LA	West Carroll	32.79248	91.451998	Louisiana	22	LA
LA	West Feliciana	30.872701	91.421008	Louisiana	22	LA
LA	Winn	31.941187	92.641269	Louisiana	22	LA
ME	Androscoggin	44.167681	70.207435	Maine	23	ME
ME	Aroostook	46.727057	68.64941	Maine	23	ME
ME	Cumberland	43.808348	70.330375	Maine	23	ME
ME	Franklin	44.973012	70.444727	Maine	23	ME
ME	Hancock	44.564906	68.370703	Maine	23	ME
ME	Kennebec	44.417012	69.765764	Maine	23	ME
ME	Knox	44.042045	69.038515	Maine	23	ME
ME	Lincoln	43.994265	69.514029	Maine	23	ME
ME	Oxford	44.494585	70.734688	Maine	23	ME
ME	Penobscot	45.390602	68.657487	Maine	23	ME
ME	Piscataquis	45.917678	69.104548	Maine	23	ME
ME	Sagadahoc	43.916694	69.843994	Maine	23	ME
ME	Somerset	45.507482	69.97604	Maine	23	ME
ME	Waldo	44.505361	69.139678	Maine	23	ME
ME	Washington	44.967009	67.609354	Maine	23	ME
ME	York	43.427239	70.670402	Maine	23	ME
MD	Allegany	39.612309	78.703108	Maryland	24	MD
MD	Anne Arundel	38.993374	76.560511	Maryland	24	MD
MD	Baltimore	39.443167	76.616569	Maryland	24	MD
MD	Calvert	38.521358	76.525864	Maryland	24	MD
MD	Caroline	38.871531	75.831631	Maryland	24	MD
MD	Carroll	39.563189	77.015512	Maryland	24	MD
MD	Cecil	39.562352	75.941584	Maryland	24	MD
MD	Charles	38.472853	77.015427	Maryland	24	MD
MD	Dorchester	38.429196	76.047433	Maryland	24	MD
MD	Frederick	39.470427	77.397627	Maryland	24	MD
MD	Garrett	39.529871	79.269416	Maryland	24	MD
MD	Harford	39.537429	76.299789	Maryland	24	MD
MD	Howard	39.252264	76.924406	Maryland	24	MD
MD	Kent	39.239177	76.1242	Maryland	24	MD
MD	Montgomery	39.137382	77.203063	Maryland	24	MD
MD	Prince George's	38.82588	76.847272	Maryland	24	MD
MD	Queen Anne's	39.040693	76.082405	Maryland	24	MD
MD	St. Mary's	38.222666	76.534271	Maryland	24	MD
MD	Somerset	38.07445	75.853323	Maryland	24	MD
MD	Talbot	38.749427	76.17913	Maryland	24	MD
MD	Washington	39.603621	77.814671	Maryland	24	MD
MD	Wicomico	38.367389	75.632206	Maryland	24	MD
MD	Worcester	38.222133	75.309932	Maryland	24	MD
MD	Baltimore [9]	39.300214	76.610516	Maryland	24	MD
MA	Barnstable	41.798819	70.211083	Massachusetts	25	MA
MA	Berkshire	42.375314	73.213948	Massachusetts	25	MA
MA	Bristol	41.748576	71.087062	Massachusetts	25	MA
MA	Dukes	41.380939	70.701536	Massachusetts	25	MA
MA	Essex	42.642711	70.865107	Massachusetts	25	MA
MA	Franklin	42.583791	72.591655	Massachusetts	25	MA
MA	Hampden	42.136198	72.635648	Massachusetts	25	MA
MA	Hampshire	42.339459	72.663694	Massachusetts	25	MA
MA	Middlesex	42.479477	71.396507	Massachusetts	25	MA
MA	Nantucket	41.305878	70.14191	Massachusetts	25	MA
MA	Norfolk	42.169703	71.179875	Massachusetts	25	MA
MA	Plymouth	41.987196	70.741942	Massachusetts	25	MA
MA	Suffolk	42.33196	71.020173	Massachusetts	25	MA
MA	Worcester	42.311693	71.940282	Massachusetts	25	MA
MI	Alcona	44.682535	82.83408	Michigan	26	MI
MI	Alger	47.080077	86.564108	Michigan	26	MI
MI	Allegan	42.595788	86.634745	Michigan	26	MI
MI	Alpena	44.894954	83.426574	Michigan	26	MI
MI	Antrim	45.005457	85.175625	Michigan	26	MI
MI	Arenac	44.03687	83.740675	Michigan	26	MI
MI	Baraga	46.696068	88.356022	Michigan	26	MI
MI	Barry	42.582811	85.31455	Michigan	26	MI
MI	Bay	43.699711	83.978701	Michigan	26	MI
MI	Benzie	44.648621	86.494317	Michigan	26	MI
MI	Berrien	41.792639	86.741822	Michigan	26	MI
MI	Branch	41.918585	85.066523	Michigan	26	MI
MI	Calhoun	42.24299	85.012385	Michigan	26	MI
MI	Cass	41.91624	85.999457	Michigan	26	MI
MI	Charlevoix	45.513164	85.450392	Michigan	26	MI
MI	Cheboygan	45.47612	84.495271	Michigan	26	MI
MI	Chippewa	46.321819	84.52063	Michigan	26	MI
MI	Clare	43.991137	84.838325	Michigan	26	MI
MI	Clinton	42.950455	84.591695	Michigan	26	MI
MI	Crawford	44.680208	84.611132	Michigan	26	MI
MI	Delta	45.805101	86.901373	Michigan	26	MI
MI	Dickinson	46.012823	87.866119	Michigan	26	MI
MI	Eaton	42.589614	84.846524	Michigan	26	MI
MI	Emmet	45.590094	84.986822	Michigan	26	MI
MI	Genesee	43.021077	83.706372	Michigan	26	MI
MI	Gladwin	43.98975	84.389816	Michigan	26	MI
MI	Gogebic	46.488054	89.788314	Michigan	26	MI
MI	Grand Traverse	44.718688	85.553848	Michigan	26	MI
MI	Gratiot	43.292326	84.60469	Michigan	26	MI
MI	Hillsdale	41.864475	84.642409	Michigan	26	MI
MI	Houghton	46.998305	88.652066	Michigan	26	MI
MI	Huron	43.907616	82.857045	Michigan	26	MI
MI	Ingham	42.603534	84.373811	Michigan	26	MI
MI	Ionia	42.94465	85.073766	Michigan	26	MI
MI	Iosco	44.329482	82.849447	Michigan	26	MI
MI	Iron	46.170249	88.540409	Michigan	26	MI
MI	Isabella	43.645233	84.839425	Michigan	26	MI
MI	Jackson	42.248474	84.420868	Michigan	26	MI
MI	Kalamazoo	42.246266	85.532854	Michigan	26	MI
MI	Kalkaska	44.678881	85.088992	Michigan	26	MI
MI	Kent	43.032497	85.547446	Michigan	26	MI
MI	Keweenaw	47.681981	88.148802	Michigan	26	MI
MI	Lake	43.995187	85.8114	Michigan	26	MI
MI	Lapeer	43.088633	83.224325	Michigan	26	MI
MI	Leelanau	45.146182	86.051574	Michigan	26	MI
MI	Lenawee	41.895915	84.066853	Michigan	26	MI
MI	Livingston	42.602532	83.911718	Michigan	26	MI
MI	Luce	46.940602	85.582368	Michigan	26	MI
MI	Mackinac	46.167981	85.303756	Michigan	26	MI
MI	Macomb	42.671467	82.910869	Michigan	26	MI
MI	Manistee	44.350385	86.602967	Michigan	26	MI
MI	Marquette	46.656597	87.584028	Michigan	26	MI
MI	Mason	43.996636	86.750814	Michigan	26	MI
MI	Mecosta	43.635295	85.332751	Michigan	26	MI
MI	Menominee	45.544174	87.509892	Michigan	26	MI
MI	Midland	43.648378	84.37922	Michigan	26	MI
MI	Missaukee	44.325424	85.085471	Michigan	26	MI
MI	Monroe	41.916097	83.487106	Michigan	26	MI
MI	Montcalm	43.312782	85.149468	Michigan	26	MI
MI	Montmorency	45.024134	84.130107	Michigan	26	MI
MI	Muskegon	43.289258	86.751892	Michigan	26	MI
MI	Newaygo	43.562709	85.791423	Michigan	26	MI
MI	Oakland	42.660452	83.38421	Michigan	26	MI
MI	Oceana	43.647255	86.807575	Michigan	26	MI
MI	Ogemaw	44.33328	84.128073	Michigan	26	MI
MI	Ontonagon	47.216604	89.500461	Michigan	26	MI
MI	Osceola	43.997552	85.322283	Michigan	26	MI
MI	Oscoda	44.685121	84.124894	Michigan	26	MI
MI	Otsego	45.021794	84.576597	Michigan	26	MI
MI	Ottawa	42.942346	86.655342	Michigan	26	MI
MI	Presque Isle	45.489515	83.384019	Michigan	26	MI
MI	Roscommon	44.339517	84.611272	Michigan	26	MI
MI	Saginaw	43.328267	84.05541	Michigan	26	MI
MI	St. Clair	42.928804	82.668914	Michigan	26	MI
MI	St. Joseph	41.911488	85.52287	Michigan	26	MI
MI	Sanilac	43.449155	82.642815	Michigan	26	MI
MI	Schoolcraft	46.020758	86.199352	Michigan	26	MI
MI	Shiawassee	42.951545	84.146352	Michigan	26	MI
MI	Tuscola	43.487902	83.436618	Michigan	26	MI
MI	Van Buren	42.283986	86.305697	Michigan	26	MI
MI	Washtenaw	42.252327	83.844634	Michigan	26	MI
MI	Wayne	42.284664	83.261953	Michigan	26	MI
MI	Wexford	44.331375	85.570046	Michigan	26	MI
MN	Aitkin	46.602446	93.41976	Minnesota	27	MN
MN	Anoka	45.27411	93.242723	Minnesota	27	MN
MN	Becker	46.937629	95.741757	Minnesota	27	MN
MN	Beltrami	47.878825	94.986698	Minnesota	27	MN
MN	Benton	45.701227	94.00144	Minnesota	27	MN
MN	Big Stone	45.419925	96.402226	Minnesota	27	MN
MN	Blue Earth	44.038225	94.064071	Minnesota	27	MN
MN	Brown	44.246542	94.733647	Minnesota	27	MN
MN	Carlton	46.603818	92.671044	Minnesota	27	MN
MN	Carver	44.821381	93.800575	Minnesota	27	MN
MN	Cass	46.951427	94.333773	Minnesota	27	MN
MN	Chippewa	45.028625	95.564108	Minnesota	27	MN
MN	Chisago	45.505444	92.903849	Minnesota	27	MN
MN	Clay	46.898377	96.494901	Minnesota	27	MN
MN	Clearwater	47.575873	95.371117	Minnesota	27	MN
MN	Cook	47.538571	90.29019	Minnesota	27	MN
MN	Cottonwood	44.010711	95.18313	Minnesota	27	MN
MN	Crow Wing	46.491114	94.071213	Minnesota	27	MN
MN	Dakota	44.670893	93.062481	Minnesota	27	MN
MN	Dodge	44.020706	92.869353	Minnesota	27	MN
MN	Douglas	45.936429	95.46061	Minnesota	27	MN
MN	Faribault	43.676522	93.947234	Minnesota	27	MN
MN	Fillmore	43.67727	92.093681	Minnesota	27	MN
MN	Freeborn	43.674202	93.350289	Minnesota	27	MN
MN	Goodhue	44.406178	92.716	Minnesota	27	MN
MN	Grant	45.930743	96.010699	Minnesota	27	MN
MN	Hennepin	45.006064	93.475185	Minnesota	27	MN
MN	Houston	43.66699	91.501556	Minnesota	27	MN
MN	Hubbard	47.095551	94.91329	Minnesota	27	MN
MN	Isanti	45.562431	93.296339	Minnesota	27	MN
MN	Itasca	47.490843	93.613128	Minnesota	27	MN
MN	Jackson	43.673025	95.149704	Minnesota	27	MN
MN	Kanabec	45.94776	93.297788	Minnesota	27	MN
MN	Kandiyohi	45.152714	95.004981	Minnesota	27	MN
MN	Kittson	48.77604	96.780349	Minnesota	27	MN
MN	Koochiching	48.24549	93.782842	Minnesota	27	MN
MN	Lac qui Parle	44.999855	96.176836	Minnesota	27	MN
MN	Lake	47.517111	91.411704	Minnesota	27	MN
MN	Lake of the Woods	48.7681	94.904634	Minnesota	27	MN
MN	Le Sueur	44.373397	93.73018	Minnesota	27	MN
MN	Lincoln	44.408238	96.272032	Minnesota	27	MN
MN	Lyon	44.409195	95.847268	Minnesota	27	MN
MN	McLeod	44.821644	94.27232	Minnesota	27	MN
MN	Mahnomen	47.325842	95.810703	Minnesota	27	MN
MN	Marshall	48.362728	96.357761	Minnesota	27	MN
MN	Martin	43.677118	94.537198	Minnesota	27	MN
MN	Meeker	45.123156	94.527346	Minnesota	27	MN
MN	Mille Lacs	45.929043	93.632996	Minnesota	27	MN
MN	Morrison	46.020484	94.266619	Minnesota	27	MN
MN	Mower	43.666249	92.759514	Minnesota	27	MN
MN	Murray	44.015594	95.761581	Minnesota	27	MN
MN	Nicollet	44.35882	94.245685	Minnesota	27	MN
MN	Nobles	43.677686	95.763132	Minnesota	27	MN
MN	Norman	47.32947	96.463807	Minnesota	27	MN
MN	Olmsted	44.00343	92.406722	Minnesota	27	MN
MN	Otter Tail	46.405725	95.714578	Minnesota	27	MN
MN	Pennington	48.069247	96.037725	Minnesota	27	MN
MN	Pine	46.10094	92.763094	Minnesota	27	MN
MN	Pipestone	44.015361	96.257015	Minnesota	27	MN
MN	Polk	47.774254	96.400027	Minnesota	27	MN
MN	Pope	45.589623	95.446705	Minnesota	27	MN
MN	Ramsey	45.01525	93.100141	Minnesota	27	MN
MN	Red Lake	47.865487	96.08718	Minnesota	27	MN
MN	Redwood	44.403536	95.254242	Minnesota	27	MN
MN	Renville	44.723697	94.955617	Minnesota	27	MN
MN	Rice	44.350943	93.298503	Minnesota	27	MN
MN	Rock	43.669587	96.263238	Minnesota	27	MN
MN	Roseau	48.761066	95.82153	Minnesota	27	MN
MN	St. Louis	47.583852	92.463645	Minnesota	27	MN
MN	Scott	44.651932	93.534553	Minnesota	27	MN
MN	Sherburne	45.443171	93.775092	Minnesota	27	MN
MN	Sibley	44.575734	94.230123	Minnesota	27	MN
MN	Stearns	45.555235	94.610482	Minnesota	27	MN
MN	Steele	44.015261	93.220453	Minnesota	27	MN
MN	Stevens	45.593461	95.992315	Minnesota	27	MN
MN	Swift	45.27545	95.690398	Minnesota	27	MN
MN	Todd	46.066569	94.900576	Minnesota	27	MN
MN	Traverse	45.76984	96.475049	Minnesota	27	MN
MN	Wabasha	44.289693	92.233341	Minnesota	27	MN
MN	Wadena	46.586784	94.988331	Minnesota	27	MN
MN	Waseca	44.01846	93.589844	Minnesota	27	MN
MN	Washington	45.037929	92.890117	Minnesota	27	MN
MN	Watonwan	43.978366	94.614128	Minnesota	27	MN
MN	Wilkin	46.362335	96.476657	Minnesota	27	MN
MN	Winona	43.982268	91.776708	Minnesota	27	MN
MN	Wright	45.175091	93.966397	Minnesota	27	MN
MN	Yellow Medicine	44.715736	95.862756	Minnesota	27	MN
MS	Adams	31.486218	91.351781	Mississippi	28	MS
MS	Alcorn	34.886648	88.581014	Mississippi	28	MS
MS	Amite	31.203933	90.795542	Mississippi	28	MS
MS	Attala	33.09047	89.588622	Mississippi	28	MS
MS	Benton	34.810773	89.200029	Mississippi	28	MS
MS	Bolivar	33.799278	90.884476	Mississippi	28	MS
MS	Calhoun	33.936634	89.337114	Mississippi	28	MS
MS	Carroll	33.440795	89.918887	Mississippi	28	MS
MS	Chickasaw	33.921654	88.945808	Mississippi	28	MS
MS	Choctaw	33.345964	89.251332	Mississippi	28	MS
MS	Claiborne	31.97281	90.915424	Mississippi	28	MS
MS	Clarke	32.048448	88.685964	Mississippi	28	MS
MS	Clay	33.661734	88.783326	Mississippi	28	MS
MS	Coahoma	34.22867	90.603165	Mississippi	28	MS
MS	Copiah	31.866915	90.448758	Mississippi	28	MS
MS	Covington	31.633331	89.548897	Mississippi	28	MS
MS	DeSoto	34.874266	89.99324	Mississippi	28	MS
MS	Forrest	31.18858	89.259447	Mississippi	28	MS
MS	Franklin	31.477798	90.895884	Mississippi	28	MS
MS	George	30.855431	88.642268	Mississippi	28	MS
MS	Greene	31.212846	88.634811	Mississippi	28	MS
MS	Grenada	33.770031	89.80274	Mississippi	28	MS
MS	Hancock	30.391437	89.47985	Mississippi	28	MS
MS	Harrison	30.416536	89.083376	Mississippi	28	MS
MS	Hinds	32.267924	90.4659	Mississippi	28	MS
MS	Holmes	33.125942	90.091197	Mississippi	28	MS
MS	Humphreys	33.132978	90.523911	Mississippi	28	MS
MS	Issaquena	32.754977	90.988552	Mississippi	28	MS
MS	Itawamba	34.281075	88.363127	Mississippi	28	MS
MS	Jackson	30.458491	88.619991	Mississippi	28	MS
MS	Jasper	32.016989	89.11943	Mississippi	28	MS
MS	Jefferson	31.733633	91.043878	Mississippi	28	MS
MS	Jefferson Davis	31.564734	89.826626	Mississippi	28	MS
MS	Jones	31.621044	89.167262	Mississippi	28	MS
MS	Kemper	32.750136	88.625631	Mississippi	28	MS
MS	Lafayette	34.349298	89.485903	Mississippi	28	MS
MS	Lamar	31.197135	89.514952	Mississippi	28	MS
MS	Lauderdale	32.403998	88.660449	Mississippi	28	MS
MS	Lawrence	31.550009	90.10753	Mississippi	28	MS
MS	Leake	32.753268	89.522568	Mississippi	28	MS
MS	Lee	34.288965	88.680887	Mississippi	28	MS
MS	Leflore	33.54979	90.294934	Mississippi	28	MS
MS	Lincoln	31.535216	90.453566	Mississippi	28	MS
MS	Lowndes	33.471424	88.439723	Mississippi	28	MS
MS	Madison	32.63437	90.03416	Mississippi	28	MS
MS	Marion	31.230126	89.821736	Mississippi	28	MS
MS	Marshall	34.76619	89.504231	Mississippi	28	MS
MS	Monroe	33.89003	88.485038	Mississippi	28	MS
MS	Montgomery	33.500714	89.639625	Mississippi	28	MS
MS	Neshoba	32.752518	89.119274	Mississippi	28	MS
MS	Newton	32.40197	89.118412	Mississippi	28	MS
MS	Noxubee	33.10627	88.565787	Mississippi	28	MS
MS	Oktibbeha	33.422313	88.876151	Mississippi	28	MS
MS	Panola	34.365205	89.963065	Mississippi	28	MS
MS	Pearl River	30.773791	89.586832	Mississippi	28	MS
MS	Perry	31.169307	88.988755	Mississippi	28	MS
MS	Pike	31.177517	90.397725	Mississippi	28	MS
MS	Pontotoc	34.227081	89.037239	Mississippi	28	MS
MS	Prentiss	34.620866	88.52224	Mississippi	28	MS
MS	Quitman	34.25264	90.290525	Mississippi	28	MS
MS	Rankin	32.262057	89.946552	Mississippi	28	MS
MS	Scott	32.427127	89.533209	Mississippi	28	MS
MS	Sharkey	32.89249	90.827388	Mississippi	28	MS
MS	Simpson	31.902503	89.917707	Mississippi	28	MS
MS	Smith	32.019034	89.494973	Mississippi	28	MS
MS	Stone	30.790184	89.112297	Mississippi	28	MS
MS	Sunflower	33.605529	90.59509	Mississippi	28	MS
MS	Tallahatchie	33.955891	90.172833	Mississippi	28	MS
MS	Tate	34.649553	89.943105	Mississippi	28	MS
MS	Tippah	34.763618	88.918819	Mississippi	28	MS
MS	Tishomingo	34.737699	88.236067	Mississippi	28	MS
MS	Tunica	34.652201	90.37177	Mississippi	28	MS
MS	Union	34.489101	89.0023	Mississippi	28	MS
MS	Walthall	31.164492	90.103431	Mississippi	28	MS
MS	Warren	32.357005	90.851791	Mississippi	28	MS
MS	Washington	33.273131	90.94443	Mississippi	28	MS
MS	Wayne	31.64476	88.682057	Mississippi	28	MS
MS	Webster	33.612048	89.283836	Mississippi	28	MS
MS	Wilkinson	31.160249	91.325567	Mississippi	28	MS
MS	Winston	33.078724	89.037391	Mississippi	28	MS
MS	Yalobusha	34.030669	89.703793	Mississippi	28	MS
MS	Yazoo	32.765675	90.387928	Mississippi	28	MS
MO	Adair	40.190666	92.603592	Missouri	29	MO
MO	Andrew	39.988863	94.803551	Missouri	29	MO
MO	Atchison	40.431846	95.437555	Missouri	29	MO
MO	Audrain	39.21448	91.843415	Missouri	29	MO
MO	Barry	36.699378	93.834326	Missouri	29	MO
MO	Barton	37.500799	94.344089	Missouri	29	MO
MO	Bates	38.257217	94.339246	Missouri	29	MO
MO	Benton	38.301036	93.287942	Missouri	29	MO
MO	Bollinger	37.318349	90.024601	Missouri	29	MO
MO	Boone	38.989657	92.310779	Missouri	29	MO
MO	Buchanan	39.66037	94.808173	Missouri	29	MO
MO	Butler	36.71518	90.40313	Missouri	29	MO
MO	Caldwell	39.658998	93.979179	Missouri	29	MO
MO	Callaway	38.835966	91.924089	Missouri	29	MO
MO	Camden	38.031995	92.765138	Missouri	29	MO
MO	Cape Girardeau	37.383882	89.684908	Missouri	29	MO
MO	Carroll	39.427375	93.500227	Missouri	29	MO
MO	Carter	36.944783	90.945626	Missouri	29	MO
MO	Cass	38.647159	94.354242	Missouri	29	MO
MO	Cedar	37.733655	93.850014	Missouri	29	MO
MO	Chariton	39.517969	92.961621	Missouri	29	MO
MO	Christian	36.969739	93.187614	Missouri	29	MO
MO	Clark	40.407275	91.729472	Missouri	29	MO
MO	Clay	39.315551	94.421502	Missouri	29	MO
MO	Clinton	39.608723	94.395803	Missouri	29	MO
MO	Cole	38.506847	92.271404	Missouri	29	MO
MO	Cooper	38.845386	92.812323	Missouri	29	MO
MO	Crawford	37.966561	91.313933	Missouri	29	MO
MO	Dade	37.43235	93.854878	Missouri	29	MO
MO	Dallas	37.683583	93.033812	Missouri	29	MO
MO	Daviess	39.962839	93.970053	Missouri	29	MO
MO	DeKalb	39.894665	94.40719	Missouri	29	MO
MO	Dent	37.60325	91.495916	Missouri	29	MO
MO	Douglas	36.946517	92.515892	Missouri	29	MO
MO	Dunklin	36.153025	90.062254	Missouri	29	MO
MO	Franklin	38.408313	91.07341	Missouri	29	MO
MO	Gasconade	38.441183	91.50578	Missouri	29	MO
MO	Gentry	40.209379	94.40411	Missouri	29	MO
MO	Greene	37.258196	93.340641	Missouri	29	MO
MO	Grundy	40.112541	93.565054	Missouri	29	MO
MO	Harrison	40.34562	93.992582	Missouri	29	MO
MO	Henry	38.386491	93.792628	Missouri	29	MO
MO	Hickory	37.9367	93.322835	Missouri	29	MO
MO	Holt	40.095724	95.219072	Missouri	29	MO
MO	Howard	39.143365	92.695926	Missouri	29	MO
MO	Howell	36.774369	91.887368	Missouri	29	MO
MO	Iron	37.62596	90.699627	Missouri	29	MO
MO	Jackson	39.007233	94.342507	Missouri	29	MO
MO	Jasper	37.200865	94.338869	Missouri	29	MO
MO	Jefferson	38.257414	90.543138	Missouri	29	MO
MO	Johnson	38.74588	93.805999	Missouri	29	MO
MO	Knox	40.136776	92.146809	Missouri	29	MO
MO	Laclede	37.65969	92.594832	Missouri	29	MO
MO	Lafayette	39.068705	93.802639	Missouri	29	MO
MO	Lawrence	37.106135	93.833262	Missouri	29	MO
MO	Lewis	40.084559	91.728803	Missouri	29	MO
MO	Lincoln	39.058568	90.957771	Missouri	29	MO
MO	Linn	39.86444	93.108019	Missouri	29	MO
MO	Livingston	39.778587	93.548201	Missouri	29	MO
MO	McDonald	36.630218	94.343956	Missouri	29	MO
MO	Macon	39.829795	92.56434	Missouri	29	MO
MO	Madison	37.473235	90.345453	Missouri	29	MO
MO	Maries	38.162615	91.923601	Missouri	29	MO
MO	Marion	39.807538	91.635379	Missouri	29	MO
MO	Mercer	40.421414	93.567631	Missouri	29	MO
MO	Miller	38.21672	92.429871	Missouri	29	MO
MO	Mississippi	36.826264	89.295929	Missouri	29	MO
MO	Moniteau	38.633037	92.583642	Missouri	29	MO
MO	Monroe	39.49827	92.006458	Missouri	29	MO
MO	Montgomery	38.935162	91.465437	Missouri	29	MO
MO	Morgan	38.420807	92.874835	Missouri	29	MO
MO	New Madrid	36.594261	89.655949	Missouri	29	MO
MO	Newton	36.908017	94.334741	Missouri	29	MO
MO	Nodaway	40.360484	94.883281	Missouri	29	MO
MO	Oregon	36.684867	91.402902	Missouri	29	MO
MO	Osage	38.464254	91.859504	Missouri	29	MO
MO	Ozark	36.649643	92.45858	Missouri	29	MO
MO	Pemiscot	36.209916	89.785942	Missouri	29	MO
MO	Perry	37.71113	89.802125	Missouri	29	MO
MO	Pettis	38.727367	93.285207	Missouri	29	MO
MO	Phelps	37.866326	91.790349	Missouri	29	MO
MO	Pike	39.344178	91.171042	Missouri	29	MO
MO	Platte	39.378696	94.761472	Missouri	29	MO
MO	Polk	37.616761	93.400817	Missouri	29	MO
MO	Pulaski	37.824835	92.207022	Missouri	29	MO
MO	Putnam	40.478606	93.014531	Missouri	29	MO
MO	Ralls	39.553455	91.524787	Missouri	29	MO
MO	Randolph	39.441601	92.492725	Missouri	29	MO
MO	Ray	39.308401	93.995746	Missouri	29	MO
MO	Reynolds	37.360857	90.969516	Missouri	29	MO
MO	Ripley	36.648902	90.86706	Missouri	29	MO
MO	St. Charles	38.781102	90.674915	Missouri	29	MO
MO	St. Clair	38.039069	93.773077	Missouri	29	MO
MO	Ste. Genevieve	37.89018	90.18117	Missouri	29	MO
MO	St. Francois	37.810707	90.473868	Missouri	29	MO
MO	St. Louis	38.640702	90.445954	Missouri	29	MO
MO	Saline	39.13584	93.204164	Missouri	29	MO
MO	Schuyler	40.469361	92.519016	Missouri	29	MO
MO	Scotland	40.447686	92.142824	Missouri	29	MO
MO	Scott	37.047793	89.568098	Missouri	29	MO
MO	Shannon	37.15198	91.398364	Missouri	29	MO
MO	Shelby	39.797531	92.088719	Missouri	29	MO
MO	Stoddard	36.855428	89.941735	Missouri	29	MO
MO	Stone	36.747857	93.467782	Missouri	29	MO
MO	Sullivan	40.209587	93.109783	Missouri	29	MO
MO	Taney	36.649827	93.042819	Missouri	29	MO
MO	Texas	37.314257	91.964478	Missouri	29	MO
MO	Vernon	37.850196	94.341597	Missouri	29	MO
MO	Warren	38.761902	91.159307	Missouri	29	MO
MO	Washington	37.942315	90.897056	Missouri	29	MO
MO	Wayne	37.113825	90.460868	Missouri	29	MO
MO	Webster	37.280804	92.87608	Missouri	29	MO
MO	Worth	40.480482	94.419129	Missouri	29	MO
MO	Wright	37.267636	92.48001	Missouri	29	MO
MO	St. Louis [9]	38.635699	90.244582	Missouri	29	MO
MT	Beaverhead	45.133863	112.892869	Montana	30	MT
MT	Big Horn	45.407869	107.518163	Montana	30	MT
MT	Blaine	48.428282	108.967648	Montana	30	MT
MT	Broadwater	46.334476	111.496103	Montana	30	MT
MT	Carbon	45.224475	109.028551	Montana	30	MT
MT	Carter	45.516825	104.515324	Montana	30	MT
MT	Cascade	47.316443	111.350571	Montana	30	MT
MT	Chouteau	47.886837	110.436189	Montana	30	MT
MT	Custer	46.261481	105.550508	Montana	30	MT
MT	Daniels	48.794429	105.541739	Montana	30	MT
MT	Dawson	47.272425	104.901027	Montana	30	MT
MT	Deer Lodge	46.099059	113.139108	Montana	30	MT
MT	Fallon	46.318184	104.405718	Montana	30	MT
MT	Fergus	47.222997	109.22328	Montana	30	MT
MT	Flathead	48.314696	114.054319	Montana	30	MT
MT	Gallatin	45.535559	111.173443	Montana	30	MT
MT	Garfield	47.281174	106.982212	Montana	30	MT
MT	Glacier	48.705671	112.990502	Montana	30	MT
MT	Golden Valley	46.380624	109.174586	Montana	30	MT
MT	Granite	46.395358	113.425683	Montana	30	MT
MT	Hill	48.628331	110.106372	Montana	30	MT
MT	Jefferson	46.126557	112.056771	Montana	30	MT
MT	Judith Basin	47.032558	110.30532	Montana	30	MT
MT	Lake	47.642901	114.083687	Montana	30	MT
MT	Lewis and Clark	47.122133	112.382954	Montana	30	MT
MT	Liberty	48.559654	111.036924	Montana	30	MT
MT	Lincoln	48.542232	115.404343	Montana	30	MT
MT	McCone	47.629628	105.757222	Montana	30	MT
MT	Madison	45.319288	111.917328	Montana	30	MT
MT	Meagher	46.585706	110.921781	Montana	30	MT
MT	Mineral	47.155213	115.06455	Montana	30	MT
MT	Missoula	47.027263	113.892681	Montana	30	MT
MT	Musselshell	46.505665	108.436982	Montana	30	MT
MT	Park	45.421905	110.532798	Montana	30	MT
MT	Petroleum	47.141917	108.226575	Montana	30	MT
MT	Phillips	48.250155	107.928833	Montana	30	MT
MT	Pondera	48.230312	112.219928	Montana	30	MT
MT	Powder River	45.40889	105.555259	Montana	30	MT
MT	Powell	46.844225	112.9311	Montana	30	MT
MT	Prairie	46.852434	105.375808	Montana	30	MT
MT	Ravalli	46.079298	114.119065	Montana	30	MT
MT	Richland	47.785513	104.563387	Montana	30	MT
MT	Roosevelt	48.282747	104.99517	Montana	30	MT
MT	Rosebud	46.161734	106.701953	Montana	30	MT
MT	Sanders	47.756469	115.180225	Montana	30	MT
MT	Sheridan	48.705523	104.533913	Montana	30	MT
MT	Silver Bow	45.895959	112.660222	Montana	30	MT
MT	Stillwater	45.663496	109.391752	Montana	30	MT
MT	Sweet Grass	45.81306	109.941312	Montana	30	MT
MT	Teton	47.819035	112.281725	Montana	30	MT
MT	Toole	48.645052	111.733493	Montana	30	MT
MT	Treasure	46.209636	107.280494	Montana	30	MT
MT	Valley	48.365713	106.687883	Montana	30	MT
MT	Wheatland	46.497047	109.857147	Montana	30	MT
MT	Wibaux	46.962866	104.274466	Montana	30	MT
MT	Yellowstone	45.936987	108.276656	Montana	30	MT
NE	Adams	40.520632	98.500044	Nebraska	31	NE
NE	Antelope	42.183225	98.058037	Nebraska	31	NE
NE	Arthur	41.570856	101.697045	Nebraska	31	NE
NE	Banner	41.53975	103.726263	Nebraska	31	NE
NE	Blaine	41.92523	99.990771	Nebraska	31	NE
NE	Boone	41.7054	98.066794	Nebraska	31	NE
NE	Box Butte	42.215665	103.087821	Nebraska	31	NE
NE	Boyd	42.894448	98.773022	Nebraska	31	NE
NE	Brown	42.34939	99.923176	Nebraska	31	NE
NE	Buffalo	40.855226	99.074983	Nebraska	31	NE
NE	Burt	41.854179	96.337746	Nebraska	31	NE
NE	Butler	41.226072	97.13204	Nebraska	31	NE
NE	Cass	40.909878	96.140609	Nebraska	31	NE
NE	Cedar	42.604511	97.256824	Nebraska	31	NE
NE	Chase	40.53039	101.694192	Nebraska	31	NE
NE	Cherry	42.566985	101.072622	Nebraska	31	NE
NE	Cheyenne	41.214236	103.011929	Nebraska	31	NE
NE	Clay	40.523669	98.05105	Nebraska	31	NE
NE	Colfax	41.574675	97.089455	Nebraska	31	NE
NE	Cuming	41.915865	96.788517	Nebraska	31	NE
NE	Custer	41.393893	99.726866	Nebraska	31	NE
NE	Dakota	42.390456	96.562549	Nebraska	31	NE
NE	Dawes	42.711214	103.134872	Nebraska	31	NE
NE	Dawson	40.867378	99.815154	Nebraska	31	NE
NE	Deuel	41.112988	102.332604	Nebraska	31	NE
NE	Dixon	42.48528	96.855862	Nebraska	31	NE
NE	Dodge	41.577008	96.645853	Nebraska	31	NE
NE	Douglas	41.297091	96.154066	Nebraska	31	NE
NE	Dundy	40.180165	101.681133	Nebraska	31	NE
NE	Fillmore	40.52504	97.596705	Nebraska	31	NE
NE	Franklin	40.183203	98.96208	Nebraska	31	NE
NE	Frontier	40.530947	100.406683	Nebraska	31	NE
NE	Furnas	40.191991	99.909661	Nebraska	31	NE
NE	Gage	40.255234	96.683453	Nebraska	31	NE
NE	Garden	41.659381	102.328229	Nebraska	31	NE
NE	Garfield	41.905572	98.922998	Nebraska	31	NE
NE	Gosper	40.509838	99.824078	Nebraska	31	NE
NE	Grant	41.915867	101.756875	Nebraska	31	NE
NE	Greeley	41.5676	98.530566	Nebraska	31	NE
NE	Hall	40.866023	98.498004	Nebraska	31	NE
NE	Hamilton	40.877145	98.021943	Nebraska	31	NE
NE	Harlan	40.178766	99.403418	Nebraska	31	NE
NE	Hayes	40.535786	101.05558	Nebraska	31	NE
NE	Hitchcock	40.176896	101.044217	Nebraska	31	NE
NE	Holt	42.459287	98.784766	Nebraska	31	NE
NE	Hooker	41.9187	101.11681	Nebraska	31	NE
NE	Howard	41.219403	98.513303	Nebraska	31	NE
NE	Jefferson	40.175736	97.143103	Nebraska	31	NE
NE	Johnson	40.395457	96.268562	Nebraska	31	NE
NE	Kearney	40.506269	98.948461	Nebraska	31	NE
NE	Keith	41.194404	101.644474	Nebraska	31	NE
NE	Keya Paha	42.87548	99.718351	Nebraska	31	NE
NE	Kimball	41.199155	103.711105	Nebraska	31	NE
NE	Knox	42.634405	97.891349	Nebraska	31	NE
NE	Lancaster	40.783547	96.688658	Nebraska	31	NE
NE	Lincoln	41.050322	100.744481	Nebraska	31	NE
NE	Logan	41.542156	100.443665	Nebraska	31	NE
NE	Loup	41.897714	99.509764	Nebraska	31	NE
NE	McPherson	41.596473	101.060237	Nebraska	31	NE
NE	Madison	41.909929	97.606856	Nebraska	31	NE
NE	Merrick	41.169801	98.031051	Nebraska	31	NE
NE	Morrill	41.732205	102.990599	Nebraska	31	NE
NE	Nance	41.402386	97.991408	Nebraska	31	NE
NE	Nemaha	40.387448	95.850954	Nebraska	31	NE
NE	Nuckolls	40.176492	98.046842	Nebraska	31	NE
NE	Otoe	40.637992	96.131027	Nebraska	31	NE
NE	Pawnee	40.13785	96.245225	Nebraska	31	NE
NE	Perkins	40.856065	101.636443	Nebraska	31	NE
NE	Phelps	40.516365	99.406557	Nebraska	31	NE
NE	Pierce	42.271413	97.610992	Nebraska	31	NE
NE	Platte	41.576866	97.513467	Nebraska	31	NE
NE	Polk	41.187925	97.570663	Nebraska	31	NE
NE	Red Willow	40.16942	100.468576	Nebraska	31	NE
NE	Richardson	40.123743	95.718603	Nebraska	31	NE
NE	Rock	42.413325	99.45853	Nebraska	31	NE
NE	Saline	40.516802	97.131755	Nebraska	31	NE
NE	Sarpy	41.115064	96.109125	Nebraska	31	NE
NE	Saunders	41.223152	96.640923	Nebraska	31	NE
NE	Scotts Bluff	41.851589	103.70586	Nebraska	31	NE
NE	Seward	40.871944	97.140383	Nebraska	31	NE
NE	Sheridan	42.507074	102.389698	Nebraska	31	NE
NE	Sherman	41.218743	98.972849	Nebraska	31	NE
NE	Sioux	42.483806	103.742605	Nebraska	31	NE
NE	Stanton	41.904793	97.174724	Nebraska	31	NE
NE	Thayer	40.173845	97.596263	Nebraska	31	NE
NE	Thomas	41.84862	100.506911	Nebraska	31	NE
NE	Thurston	42.154061	96.533943	Nebraska	31	NE
NE	Valley	41.564094	98.983484	Nebraska	31	NE
NE	Washington	41.533979	96.224574	Nebraska	31	NE
NE	Wayne	42.210746	97.126243	Nebraska	31	NE
NE	Webster	40.180646	98.49859	Nebraska	31	NE
NE	Wheeler	41.937859	98.522289	Nebraska	31	NE
NE	York	40.873056	97.596742	Nebraska	31	NE
NV	Churchill	39.525701	118.270419	Nevada	32	NV
NV	Clark	36.214236	115.013819	Nevada	32	NV
NV	Douglas	38.905129	119.609019	Nevada	32	NV
NV	Elko	41.141133	115.351424	Nevada	32	NV
NV	Esmeralda	37.778966	117.632382	Nevada	32	NV
NV	Eureka	39.977788	116.272208	Nevada	32	NV
NV	Humboldt	41.407914	118.127592	Nevada	32	NV
NV	Lander	39.900211	117.04724	Nevada	32	NV
NV	Lincoln	37.634605	114.863037	Nevada	32	NV
NV	Lyon	39.022214	119.197417	Nevada	32	NV
NV	Mineral	38.516647	118.416279	Nevada	32	NV
NV	Nye	37.966379	116.459047	Nevada	32	NV
NV	Pershing	40.439639	118.409477	Nevada	32	NV
NV	Storey	39.438385	119.524646	Nevada	32	NV
NV	Washoe	40.703311	119.710315	Nevada	32	NV
NV	White Pine	39.417804	114.900945	Nevada	32	NV
NV	Carson City [9]	39.153447	119.743442	Nevada	32	NV
NH	Belknap	43.519109	71.425366	New Hampshire	33	NH
NH	Carroll	43.867567	71.201665	New Hampshire	33	NH
NH	Cheshire	42.925455	72.248217	New Hampshire	33	NH
NH	Coos	44.652419	71.289383	New Hampshire	33	NH
NH	Grafton	43.926488	71.842264	New Hampshire	33	NH
NH	Hillsborough	42.911643	71.723101	New Hampshire	33	NH
NH	Merrimack	43.299485	71.68013	New Hampshire	33	NH
NH	Rockingham	42.98936	71.099437	New Hampshire	33	NH
NH	Strafford	43.293177	71.035927	New Hampshire	33	NH
NH	Sullivan	43.361188	72.222084	New Hampshire	33	NH
NJ	Atlantic	39.469354	74.633758	New Jersey	34	NJ
NJ	Bergen	40.95909	74.074522	New Jersey	34	NJ
NJ	Burlington	39.875786	74.663006	New Jersey	34	NJ
NJ	Camden	39.802352	74.961251	New Jersey	34	NJ
NJ	Cape May	39.086143	74.847716	New Jersey	34	NJ
NJ	Cumberland	39.328387	75.121644	New Jersey	34	NJ
NJ	Essex	40.787217	74.246136	New Jersey	34	NJ
NJ	Gloucester	39.721019	75.143708	New Jersey	34	NJ
NJ	Hudson	40.731384	74.078627	New Jersey	34	NJ
NJ	Hunterdon	40.565283	74.91197	New Jersey	34	NJ
NJ	Mercer	40.282503	74.703724	New Jersey	34	NJ
NJ	Middlesex	40.439593	74.407585	New Jersey	34	NJ
NJ	Monmouth	40.287056	74.152446	New Jersey	34	NJ
NJ	Morris	40.858581	74.547427	New Jersey	34	NJ
NJ	Ocean	39.86585	74.263027	New Jersey	34	NJ
NJ	Passaic	41.033763	74.300308	New Jersey	34	NJ
NJ	Salem	39.573828	75.357356	New Jersey	34	NJ
NJ	Somerset	40.565522	74.61993	New Jersey	34	NJ
NJ	Sussex	41.137424	74.691855	New Jersey	34	NJ
NJ	Union	40.659871	74.308696	New Jersey	34	NJ
NJ	Warren	40.853524	75.009542	New Jersey	34	NJ
NM	Bernalillo	35.054002	106.669065	New Mexico	35	NM
NM	Catron	33.901814	108.392097	New Mexico	35	NM
NM	Chaves	33.361605	104.469837	New Mexico	35	NM
NM	Cibola	34.93205	108.000255	New Mexico	35	NM
NM	Colfax	36.612963	104.640126	New Mexico	35	NM
NM	Curry	34.572984	103.346055	New Mexico	35	NM
NM	De Baca	34.351429	104.401527	New Mexico	35	NM
NM	Dona Ana	32.350912	106.832182	New Mexico	35	NM
NM	Eddy	32.457858	104.306471	New Mexico	35	NM
NM	Grant	32.732087	108.381504	New Mexico	35	NM
NM	Guadalupe	34.869782	104.784968	New Mexico	35	NM
NM	Harding	35.863152	103.829931	New Mexico	35	NM
NM	Hidalgo	31.899658	108.745729	New Mexico	35	NM
NM	Lea	32.795687	103.413271	New Mexico	35	NM
NM	Lincoln	33.740941	105.449083	New Mexico	35	NM
NM	Los Alamos	35.870047	106.307968	New Mexico	35	NM
NM	Luna	32.184482	107.746639	New Mexico	35	NM
NM	McKinley	35.573732	108.255307	New Mexico	35	NM
NM	Mora	35.982841	104.921898	New Mexico	35	NM
NM	Otero	32.588776	105.781079	New Mexico	35	NM
NM	Quay	35.107018	103.548071	New Mexico	35	NM
NM	Rio Arriba	36.509669	106.693983	New Mexico	35	NM
NM	Roosevelt	34.021457	103.482725	New Mexico	35	NM
NM	Sandoval	35.685073	106.882618	New Mexico	35	NM
NM	San Juan	36.511625	108.324578	New Mexico	35	NM
NM	San Miguel	35.476876	104.803515	New Mexico	35	NM
NM	Santa Fe	35.513722	105.966441	New Mexico	35	NM
NM	Sierra	33.119479	107.188161	New Mexico	35	NM
NM	Socorro	33.991614	106.939003	New Mexico	35	NM
NM	Taos	36.576529	105.637987	New Mexico	35	NM
NM	Torrance	34.634644	105.846836	New Mexico	35	NM
NM	Union	36.488085	103.475723	New Mexico	35	NM
NM	Valencia	34.71684	106.806582	New Mexico	35	NM
NY	Albany	42.588271	73.974014	New York	36	NY
NY	Allegany	42.247894	78.026176	New York	36	NY
NY	Bronx [10]	40.848711	73.852939	New York	36	NY
NY	Broome	42.161977	75.830291	New York	36	NY
NY	Cattaraugus	42.244853	78.681006	New York	36	NY
NY	Cayuga	43.008546	76.574587	New York	36	NY
NY	Chautauqua	42.304216	79.407595	New York	36	NY
NY	Chemung	42.155281	76.747179	New York	36	NY
NY	Chenango	42.489732	75.604905	New York	36	NY
NY	Clinton	44.75271	73.705648	New York	36	NY
NY	Columbia	42.247729	73.626805	New York	36	NY
NY	Cortland	42.593824	76.076265	New York	36	NY
NY	Delaware	42.193987	74.966728	New York	36	NY
NY	Dutchess	41.755009	73.739951	New York	36	NY
NY	Erie	42.752759	78.778192	New York	36	NY
NY	Essex	44.108971	73.777573	New York	36	NY
NY	Franklin	44.594374	74.31067	New York	36	NY
NY	Fulton	43.115609	74.423678	New York	36	NY
NY	Genesee	43.00091	78.192778	New York	36	NY
NY	Greene	42.286951	74.149495	New York	36	NY
NY	Hamilton	43.657879	74.502456	New York	36	NY
NY	Herkimer	43.461635	74.894694	New York	36	NY
NY	Jefferson	43.995371	76.053522	New York	36	NY
NY	Kings [10]	40.635133	73.950777	New York	36	NY
NY	Lewis	43.786397	75.442617	New York	36	NY
NY	Livingston	42.727485	77.76978	New York	36	NY
NY	Madison	42.910026	75.663575	New York	36	NY
NY	Monroe	43.464475	77.664656	New York	36	NY
NY	Montgomery	42.900891	74.435358	New York	36	NY
NY	Nassau	40.729687	73.589384	New York	36	NY
NY	New York [10]	40.776557	73.970174	New York	36	NY
NY	Niagara	43.456731	78.792143	New York	36	NY
NY	Oneida	43.242727	75.434282	New York	36	NY
NY	Onondaga	43.00653	76.196117	New York	36	NY
NY	Ontario	42.856695	77.303277	New York	36	NY
NY	Orange	41.40241	74.306252	New York	36	NY
NY	Orleans	43.502287	78.229726	New York	36	NY
NY	Oswego	43.461443	76.209258	New York	36	NY
NY	Otsego	42.629776	75.028841	New York	36	NY
NY	Putnam	41.427904	73.743882	New York	36	NY
NY	Queens	40.658557	73.837929	New York	36	NY
NY	Rensselaer	42.710421	73.513845	New York	36	NY
NY	Richmond	40.563855	74.137063	New York	36	NY
NY	Rockland	41.154785	74.024772	New York	36	NY
NY	St. Lawrence	44.488113	75.074311	New York	36	NY
NY	Saratoga	43.106135	73.855387	New York	36	NY
NY	Schenectady	42.817542	74.043583	New York	36	NY
NY	Schoharie	42.591294	74.438172	New York	36	NY
NY	Schuyler	42.419776	76.938604	New York	36	NY
NY	Seneca	42.782294	76.827088	New York	36	NY
NY	Steuben	42.266725	77.385525	New York	36	NY
NY	Suffolk	40.943554	72.692218	New York	36	NY
NY	Sullivan	41.720176	74.76468	New York	36	NY
NY	Tioga	42.178057	76.29745	New York	36	NY
NY	Tompkins	42.453281	76.473712	New York	36	NY
NY	Ulster	41.947232	74.265447	New York	36	NY
NY	Warren	43.555105	73.838139	New York	36	NY
NY	Washington	43.312377	73.439428	New York	36	NY
NY	Wayne	43.458758	77.063164	New York	36	NY
NY	Westchester	41.15277	73.745912	New York	36	NY
NY	Wyoming	42.701363	78.228567	New York	36	NY
NY	Yates	42.638237	77.104324	New York	36	NY
NC	Alamance	36.041974	79.399935	North Carolina	37	NC
NC	Alexander	35.920951	81.177467	North Carolina	37	NC
NC	Alleghany	36.489356	81.132299	North Carolina	37	NC
NC	Anson	34.974996	80.109959	North Carolina	37	NC
NC	Ashe	36.436305	81.49877	North Carolina	37	NC
NC	Avery	36.072894	81.920363	North Carolina	37	NC
NC	Beaufort	35.482313	76.842014	North Carolina	37	NC
NC	Bertie	36.06133	76.962367	North Carolina	37	NC
NC	Bladen	34.591949	78.539513	North Carolina	37	NC
NC	Brunswick	34.038708	78.227688	North Carolina	37	NC
NC	Buncombe	35.609371	82.530426	North Carolina	37	NC
NC	Burke	35.746182	81.70618	North Carolina	37	NC
NC	Cabarrus	35.387845	80.552868	North Carolina	37	NC
NC	Caldwell	35.957857	81.530076	North Carolina	37	NC
NC	Camden	36.342344	76.162488	North Carolina	37	NC
NC	Carteret	34.858313	76.526967	North Carolina	37	NC
NC	Caswell	36.393097	79.332546	North Carolina	37	NC
NC	Catawba	35.663182	81.214151	North Carolina	37	NC
NC	Chatham	35.704994	79.251454	North Carolina	37	NC
NC	Cherokee	35.136233	84.061308	North Carolina	37	NC
NC	Chowan	36.127288	76.60207	North Carolina	37	NC
NC	Clay	35.052997	83.752264	North Carolina	37	NC
NC	Cleveland	35.33463	81.557115	North Carolina	37	NC
NC	Columbus	34.260471	78.636378	North Carolina	37	NC
NC	Craven	35.118179	77.082541	North Carolina	37	NC
NC	Cumberland	35.050192	78.828719	North Carolina	37	NC
NC	Currituck	36.372174	75.941224	North Carolina	37	NC
NC	Dare	35.606269	75.767536	North Carolina	37	NC
NC	Davidson	35.795123	80.206525	North Carolina	37	NC
NC	Davie	35.929356	80.542542	North Carolina	37	NC
NC	Duplin	34.934403	77.933543	North Carolina	37	NC
NC	Durham	36.036589	78.877919	North Carolina	37	NC
NC	Edgecombe	35.917055	77.602655	North Carolina	37	NC
NC	Forsyth	36.131667	80.257289	North Carolina	37	NC
NC	Franklin	36.088241	78.28309	North Carolina	37	NC
NC	Gaston	35.293344	81.177256	North Carolina	37	NC
NC	Gates	36.442135	76.702355	North Carolina	37	NC
NC	Graham	35.348111	83.830909	North Carolina	37	NC
NC	Granville	36.299884	78.657634	North Carolina	37	NC
NC	Greene	35.481933	77.681667	North Carolina	37	NC
NC	Guilford	36.079065	79.788665	North Carolina	37	NC
NC	Halifax	36.251438	77.644842	North Carolina	37	NC
NC	Harnett	35.368635	78.87161	North Carolina	37	NC
NC	Haywood	35.557097	82.972807	North Carolina	37	NC
NC	Henderson	35.336424	82.479634	North Carolina	37	NC
NC	Hertford	36.363517	76.981616	North Carolina	37	NC
NC	Hoke	35.017233	79.241964	North Carolina	37	NC
NC	Hyde	35.408157	76.153687	North Carolina	37	NC
NC	Iredell	35.806356	80.874545	North Carolina	37	NC
NC	Jackson	35.286463	83.130641	North Carolina	37	NC
NC	Johnston	35.513405	78.367267	North Carolina	37	NC
NC	Jones	35.03216	77.356443	North Carolina	37	NC
NC	Lee	35.476075	79.17222	North Carolina	37	NC
NC	Lenoir	35.238062	77.639023	North Carolina	37	NC
NC	Lincoln	35.487825	81.225176	North Carolina	37	NC
NC	McDowell	35.682232	82.048029	North Carolina	37	NC
NC	Macon	35.152959	83.421901	North Carolina	37	NC
NC	Madison	35.86408	82.712731	North Carolina	37	NC
NC	Martin	35.841059	77.112867	North Carolina	37	NC
NC	Mecklenburg	35.246862	80.833832	North Carolina	37	NC
NC	Mitchell	36.013102	82.163554	North Carolina	37	NC
NC	Montgomery	35.338071	79.904196	North Carolina	37	NC
NC	Moore	35.310163	79.480664	North Carolina	37	NC
NC	Nash	35.965945	77.987555	North Carolina	37	NC
NC	New Hanover	34.177466	77.871378	North Carolina	37	NC
NC	Northampton	36.421774	77.398352	North Carolina	37	NC
NC	Onslow	34.76346	77.503297	North Carolina	37	NC
NC	Orange	36.062499	79.119355	North Carolina	37	NC
NC	Pamlico	35.147462	76.665069	North Carolina	37	NC
NC	Pasquotank	36.265276	76.260355	North Carolina	37	NC
NC	Pender	34.512581	77.888029	North Carolina	37	NC
NC	Perquimans	36.178261	76.404269	North Carolina	37	NC
NC	Person	36.386387	78.965471	North Carolina	37	NC
NC	Pitt	35.591065	77.372404	North Carolina	37	NC
NC	Polk	35.278928	82.167667	North Carolina	37	NC
NC	Randolph	35.709915	79.806215	North Carolina	37	NC
NC	Richmond	35.001957	79.747809	North Carolina	37	NC
NC	Robeson	34.63921	79.100881	North Carolina	37	NC
NC	Rockingham	36.380927	79.782889	North Carolina	37	NC
NC	Rowan	35.639218	80.525344	North Carolina	37	NC
NC	Rutherford	35.402747	81.919583	North Carolina	37	NC
NC	Sampson	34.990575	78.371382	North Carolina	37	NC
NC	Scotland	34.840023	79.477337	North Carolina	37	NC
NC	Stanly	35.310523	80.254355	North Carolina	37	NC
NC	Stokes	36.404195	80.239271	North Carolina	37	NC
NC	Surry	36.415416	80.686463	North Carolina	37	NC
NC	Swain	35.568849	83.465614	North Carolina	37	NC
NC	Transylvania	35.210095	82.816696	North Carolina	37	NC
NC	Tyrrell	35.87042	76.165345	North Carolina	37	NC
NC	Union	34.991501	80.530131	North Carolina	37	NC
NC	Vance	36.365481	78.405434	North Carolina	37	NC
NC	Wake	35.789846	78.650624	North Carolina	37	NC
NC	Warren	36.397979	78.099924	North Carolina	37	NC
NC	Washington	35.844589	76.572334	North Carolina	37	NC
NC	Watauga	36.235371	81.709919	North Carolina	37	NC
NC	Wayne	35.362741	78.004826	North Carolina	37	NC
NC	Wilkes	36.209303	81.165354	North Carolina	37	NC
NC	Wilson	35.704125	77.918982	North Carolina	37	NC
NC	Yadkin	36.158765	80.665164	North Carolina	37	NC
NC	Yancey	35.889504	82.30398	North Carolina	37	NC
ND	Adams	46.096815	102.533198	North Dakota	38	ND
ND	Barnes	46.94255	98.070195	North Dakota	38	ND
ND	Benson	48.071738	99.361987	North Dakota	38	ND
ND	Billings	47.009283	103.364924	North Dakota	38	ND
ND	Bottineau	48.794412	100.831257	North Dakota	38	ND
ND	Bowman	46.107807	103.506586	North Dakota	38	ND
ND	Burke	48.786453	102.520087	North Dakota	38	ND
ND	Burleigh	46.971843	100.462001	North Dakota	38	ND
ND	Cass	46.927003	97.252375	North Dakota	38	ND
ND	Cavalier	48.768439	98.46379	North Dakota	38	ND
ND	Dickey	46.107756	98.496518	North Dakota	38	ND
ND	Divide	48.818142	103.497653	North Dakota	38	ND
ND	Dunn	47.35461	102.612365	North Dakota	38	ND
ND	Eddy	47.723436	98.900475	North Dakota	38	ND
ND	Emmons	46.284255	100.237842	North Dakota	38	ND
ND	Foster	47.464327	98.872817	North Dakota	38	ND
ND	Golden Valley	46.938924	103.844612	North Dakota	38	ND
ND	Grand Forks	47.926003	97.450851	North Dakota	38	ND
ND	Grant	46.357827	101.639049	North Dakota	38	ND
ND	Griggs	47.463463	98.232444	North Dakota	38	ND
ND	Hettinger	46.434939	102.458385	North Dakota	38	ND
ND	Kidder	46.935385	99.742727	North Dakota	38	ND
ND	LaMoure	46.464195	98.526057	North Dakota	38	ND
ND	Logan	46.469278	99.504585	North Dakota	38	ND
ND	McHenry	48.233842	100.633267	North Dakota	38	ND
ND	McIntosh	46.117034	99.443041	North Dakota	38	ND
ND	McKenzie	47.742475	103.403215	North Dakota	38	ND
ND	McLean	47.653055	101.421794	North Dakota	38	ND
ND	Mercer	47.303279	101.820765	North Dakota	38	ND
ND	Morton	46.713789	101.279743	North Dakota	38	ND
ND	Mountrail	48.210291	102.364756	North Dakota	38	ND
ND	Nelson	47.918667	98.204428	North Dakota	38	ND
ND	Oliver	47.118079	101.33142	North Dakota	38	ND
ND	Pembina	48.766896	97.545405	North Dakota	38	ND
ND	Pierce	48.238883	99.966497	North Dakota	38	ND
ND	Ramsey	48.265551	98.737329	North Dakota	38	ND
ND	Ransom	46.449276	97.647554	North Dakota	38	ND
ND	Renville	48.712782	101.658152	North Dakota	38	ND
ND	Richland	46.265219	96.93796	North Dakota	38	ND
ND	Rolette	48.768272	99.840463	North Dakota	38	ND
ND	Sargent	46.108206	97.63003	North Dakota	38	ND
ND	Sheridan	47.581373	100.341499	North Dakota	38	ND
ND	Sioux	46.109282	101.047525	North Dakota	38	ND
ND	Slope	46.445834	103.462462	North Dakota	38	ND
ND	Stark	46.817031	102.662026	North Dakota	38	ND
ND	Steele	47.458288	97.718895	North Dakota	38	ND
ND	Stutsman	46.971103	98.957592	North Dakota	38	ND
ND	Towner	48.682183	99.248158	North Dakota	38	ND
ND	Traill	47.446215	97.164754	North Dakota	38	ND
ND	Walsh	48.376979	97.72223	North Dakota	38	ND
ND	Ward	48.216686	101.540537	North Dakota	38	ND
ND	Wells	47.580851	99.671502	North Dakota	38	ND
ND	Williams	48.345867	103.4874	North Dakota	38	ND
OH	Adams	38.841681	83.474173	Ohio	39	OH
OH	Allen	40.771528	84.106546	Ohio	39	OH
OH	Ashland	40.843274	82.270121	Ohio	39	OH
OH	Ashtabula	41.906644	80.745641	Ohio	39	OH
OH	Athens	39.333848	82.046008	Ohio	39	OH
OH	Auglaize	40.561309	84.224018	Ohio	39	OH
OH	Belmont	40.017682	80.967727	Ohio	39	OH
OH	Brown	38.931377	83.866772	Ohio	39	OH
OH	Butler	39.439915	84.565397	Ohio	39	OH
OH	Carroll	40.579884	81.090787	Ohio	39	OH
OH	Champaign	40.132759	83.767543	Ohio	39	OH
OH	Clark	39.917032	83.783676	Ohio	39	OH
OH	Clermont	39.052084	84.149614	Ohio	39	OH
OH	Clinton	39.414041	83.814542	Ohio	39	OH
OH	Columbiana	40.768462	80.777231	Ohio	39	OH
OH	Coshocton	40.29672	81.930112	Ohio	39	OH
OH	Crawford	40.848508	82.924771	Ohio	39	OH
OH	Cuyahoga	41.760392	81.724217	Ohio	39	OH
OH	Darke	40.132176	84.620438	Ohio	39	OH
OH	Defiance	41.321679	84.486433	Ohio	39	OH
OH	Delaware	40.278941	83.007462	Ohio	39	OH
OH	Erie	41.554006	82.525897	Ohio	39	OH
OH	Fairfield	39.752935	82.628276	Ohio	39	OH
OH	Fayette	39.553845	83.459327	Ohio	39	OH
OH	Franklin	39.969447	83.008258	Ohio	39	OH
OH	Fulton	41.597264	84.124267	Ohio	39	OH
OH	Gallia	38.817046	82.301746	Ohio	39	OH
OH	Geauga	41.499322	81.173505	Ohio	39	OH
OH	Greene	39.687479	83.894894	Ohio	39	OH
OH	Guernsey	40.056665	81.497875	Ohio	39	OH
OH	Hamilton	39.196927	84.544187	Ohio	39	OH
OH	Hancock	41.000471	83.666034	Ohio	39	OH
OH	Hardin	40.660415	83.664077	Ohio	39	OH
OH	Harrison	40.292318	81.091565	Ohio	39	OH
OH	Henry	41.335072	84.065882	Ohio	39	OH
OH	Highland	39.184488	83.603668	Ohio	39	OH
OH	Hocking	39.490343	82.483445	Ohio	39	OH
OH	Holmes	40.565309	81.929869	Ohio	39	OH
OH	Huron	41.14508	82.594641	Ohio	39	OH
OH	Jackson	39.013477	82.614142	Ohio	39	OH
OH	Jefferson	40.399188	80.76141	Ohio	39	OH
OH	Knox	40.40362	82.422393	Ohio	39	OH
OH	Lake	41.924116	81.392643	Ohio	39	OH
OH	Lawrence	38.603866	82.517186	Ohio	39	OH
OH	Licking	40.093609	82.481251	Ohio	39	OH
OH	Logan	40.387553	83.766343	Ohio	39	OH
OH	Lorain	41.438805	82.179722	Ohio	39	OH
OH	Lucas	41.682321	83.468867	Ohio	39	OH
OH	Madison	39.896607	83.400885	Ohio	39	OH
OH	Mahoning	41.01088	80.770396	Ohio	39	OH
OH	Marion	40.588208	83.172927	Ohio	39	OH
OH	Medina	41.116051	81.899566	Ohio	39	OH
OH	Meigs	39.089807	82.028397	Ohio	39	OH
OH	Mercer	40.535333	84.632059	Ohio	39	OH
OH	Miami	40.053326	84.228414	Ohio	39	OH
OH	Monroe	39.725969	81.090658	Ohio	39	OH
OH	Montgomery	39.755218	84.290546	Ohio	39	OH
OH	Morgan	39.624946	81.861699	Ohio	39	OH
OH	Morrow	40.525266	82.797729	Ohio	39	OH
OH	Muskingum	39.966046	81.943506	Ohio	39	OH
OH	Noble	39.767232	81.452604	Ohio	39	OH
OH	Ottawa	41.544467	83.009253	Ohio	39	OH
OH	Paulding	41.119141	84.576967	Ohio	39	OH
OH	Perry	39.743187	82.237953	Ohio	39	OH
OH	Pickaway	39.648947	83.052827	Ohio	39	OH
OH	Pike	39.071365	83.052921	Ohio	39	OH
OH	Portage	41.16864	81.196932	Ohio	39	OH
OH	Preble	39.737906	84.645358	Ohio	39	OH
OH	Putnam	41.024533	84.129879	Ohio	39	OH
OH	Richland	40.774167	82.542715	Ohio	39	OH
OH	Ross	39.323763	83.059585	Ohio	39	OH
OH	Sandusky	41.355291	83.142735	Ohio	39	OH
OH	Scioto	38.815019	82.999028	Ohio	39	OH
OH	Seneca	41.120008	83.127436	Ohio	39	OH
OH	Shelby	40.33668	84.204143	Ohio	39	OH
OH	Stark	40.814131	81.365667	Ohio	39	OH
OH	Summit	41.121851	81.534936	Ohio	39	OH
OH	Trumbull	41.308936	80.767656	Ohio	39	OH
OH	Tuscarawas	40.447441	81.471157	Ohio	39	OH
OH	Union	40.295901	83.367042	Ohio	39	OH
OH	Van Wert	40.85552	84.585775	Ohio	39	OH
OH	Vinton	39.252014	82.485961	Ohio	39	OH
OH	Warren	39.425652	84.169906	Ohio	39	OH
OH	Washington	39.450684	81.490653	Ohio	39	OH
OH	Wayne	40.829661	81.887194	Ohio	39	OH
OH	Williams	41.564958	84.584323	Ohio	39	OH
OH	Wood	41.360183	83.622682	Ohio	39	OH
OH	Wyandot	40.840122	83.313172	Ohio	39	OH
OK	Adair	35.8975	94.651671	Oklahoma	40	OK
OK	Alfalfa	36.729703	98.323445	Oklahoma	40	OK
OK	Atoka	34.374813	96.034705	Oklahoma	40	OK
OK	Beaver	36.748334	100.483056	Oklahoma	40	OK
OK	Beckham	35.273945	99.671638	Oklahoma	40	OK
OK	Blaine	35.877782	98.428934	Oklahoma	40	OK
OK	Bryan	33.964004	96.264137	Oklahoma	40	OK
OK	Caddo	35.16792	98.381045	Oklahoma	40	OK
OK	Canadian	35.543416	97.979836	Oklahoma	40	OK
OK	Carter	34.251848	97.287927	Oklahoma	40	OK
OK	Cherokee	35.904367	94.996796	Oklahoma	40	OK
OK	Choctaw	34.027645	95.554208	Oklahoma	40	OK
OK	Cimarron	36.755276	102.508735	Oklahoma	40	OK
OK	Cleveland	35.203117	97.328332	Oklahoma	40	OK
OK	Coal	34.582861	96.288039	Oklahoma	40	OK
OK	Comanche	34.662628	98.476597	Oklahoma	40	OK
OK	Cotton	34.290676	98.373438	Oklahoma	40	OK
OK	Craig	36.76389	95.201553	Oklahoma	40	OK
OK	Creek	35.907732	96.379793	Oklahoma	40	OK
OK	Custer	35.645601	98.997386	Oklahoma	40	OK
OK	Delaware	36.393369	94.808206	Oklahoma	40	OK
OK	Dewey	35.978433	99.014094	Oklahoma	40	OK
OK	Ellis	36.224258	99.750139	Oklahoma	40	OK
OK	Garfield	36.378273	97.787729	Oklahoma	40	OK
OK	Garvin	34.70935	97.312723	Oklahoma	40	OK
OK	Grady	35.021058	97.88689	Oklahoma	40	OK
OK	Grant	36.788254	97.788151	Oklahoma	40	OK
OK	Greer	34.935263	99.552968	Oklahoma	40	OK
OK	Harmon	34.745971	99.844194	Oklahoma	40	OK
OK	Harper	36.800456	99.662842	Oklahoma	40	OK
OK	Haskell	35.232294	95.109578	Oklahoma	40	OK
OK	Hughes	35.052934	96.251183	Oklahoma	40	OK
OK	Jackson	34.593949	99.41221	Oklahoma	40	OK
OK	Jefferson	34.105092	97.838814	Oklahoma	40	OK
OK	Johnston	34.313455	96.654255	Oklahoma	40	OK
OK	Kay	36.814842	97.143755	Oklahoma	40	OK
OK	Kingfisher	35.949431	97.934568	Oklahoma	40	OK
OK	Kiowa	34.921489	98.981617	Oklahoma	40	OK
OK	Latimer	34.875137	95.272263	Oklahoma	40	OK
OK	Le Flore	34.899642	94.703491	Oklahoma	40	OK
OK	Lincoln	35.703118	96.881392	Oklahoma	40	OK
OK	Logan	35.914151	97.450764	Oklahoma	40	OK
OK	Love	33.957775	97.245124	Oklahoma	40	OK
OK	McClain	35.016414	97.449811	Oklahoma	40	OK
OK	McCurtain	34.117073	94.766086	Oklahoma	40	OK
OK	McIntosh	35.369092	95.671764	Oklahoma	40	OK
OK	Major	36.313119	98.542015	Oklahoma	40	OK
OK	Marshall	34.027007	96.770533	Oklahoma	40	OK
OK	Mayes	36.303804	95.235638	Oklahoma	40	OK
OK	Murray	34.485766	97.071557	Oklahoma	40	OK
OK	Muskogee	35.617551	95.383911	Oklahoma	40	OK
OK	Noble	36.384901	97.236335	Oklahoma	40	OK
OK	Nowata	36.789615	95.613312	Oklahoma	40	OK
OK	Okfuskee	35.466804	96.327762	Oklahoma	40	OK
OK	Oklahoma	35.554611	97.409401	Oklahoma	40	OK
OK	Okmulgee	35.646879	95.96458	Oklahoma	40	OK
OK	Osage	36.62468	96.408385	Oklahoma	40	OK
OK	Ottawa	36.835764	94.802681	Oklahoma	40	OK
OK	Pawnee	36.313704	96.696669	Oklahoma	40	OK
OK	Payne	36.079225	96.975255	Oklahoma	40	OK
OK	Pittsburg	34.92554	95.74813	Oklahoma	40	OK
OK	Pontotoc	34.721071	96.692738	Oklahoma	40	OK
OK	Pottawatomie	35.211393	96.957007	Oklahoma	40	OK
OK	Pushmataha	34.377896	95.408085	Oklahoma	40	OK
OK	Roger Mills	35.708554	99.741572	Oklahoma	40	OK
OK	Rogers	36.378082	95.601337	Oklahoma	40	OK
OK	Seminole	35.158366	96.602858	Oklahoma	40	OK
OK	Sequoyah	35.502435	94.750757	Oklahoma	40	OK
OK	Stephens	34.481361	97.855607	Oklahoma	40	OK
OK	Texas	36.741964	101.488434	Oklahoma	40	OK
OK	Tillman	34.371085	98.931701	Oklahoma	40	OK
OK	Tulsa	36.120121	95.941731	Oklahoma	40	OK
OK	Wagoner	35.963479	95.5141	Oklahoma	40	OK
OK	Washington	36.70438	95.906155	Oklahoma	40	OK
OK	Washita	35.290177	98.991962	Oklahoma	40	OK
OK	Woods	36.765141	98.868967	Oklahoma	40	OK
OK	Woodward	36.425619	99.273661	Oklahoma	40	OK
OR	Baker	44.703427	117.691933	Oregon	41	OR
OR	Benton	44.490623	123.426317	Oregon	41	OR
OR	Clackamas	45.160493	122.195127	Oregon	41	OR
OR	Clatsop	46.024509	123.705014	Oregon	41	OR
OR	Columbia	45.941932	123.081079	Oregon	41	OR
OR	Coos	43.184193	124.092557	Oregon	41	OR
OR	Crook	44.163054	120.371585	Oregon	41	OR
OR	Curry	42.466671	124.211407	Oregon	41	OR
OR	Deschutes	43.915118	121.225575	Oregon	41	OR
OR	Douglas	43.285904	123.15438	Oregon	41	OR
OR	Gilliam	45.381666	120.211851	Oregon	41	OR
OR	Grant	44.496326	119.014057	Oregon	41	OR
OR	Harney	43.064355	118.985949	Oregon	41	OR
OR	Hood River	45.511775	121.655976	Oregon	41	OR
OR	Jackson	42.411782	122.675797	Oregon	41	OR
OR	Jefferson	44.64379	121.183021	Oregon	41	OR
OR	Josephine	42.385382	123.597245	Oregon	41	OR
OR	Klamath	42.683761	121.646168	Oregon	41	OR
OR	Lake	42.788401	120.38979	Oregon	41	OR
OR	Lane	43.928276	122.897678	Oregon	41	OR
OR	Lincoln	44.641076	123.911183	Oregon	41	OR
OR	Linn	44.494824	122.543756	Oregon	41	OR
OR	Malheur	43.1877	117.603976	Oregon	41	OR
OR	Marion	44.900898	122.57626	Oregon	41	OR
OR	Morrow	45.425496	119.602311	Oregon	41	OR
OR	Multnomah	45.547693	122.417173	Oregon	41	OR
OR	Polk	44.904395	123.397329	Oregon	41	OR
OR	Sherman	45.399216	120.678512	Oregon	41	OR
OR	Tillamook	45.455743	123.759327	Oregon	41	OR
OR	Umatilla	45.5912	118.73388	Oregon	41	OR
OR	Union	45.304047	117.999136	Oregon	41	OR
OR	Wallowa	45.593753	117.18558	Oregon	41	OR
OR	Wasco	45.164536	121.165069	Oregon	41	OR
OR	Washington	45.553542	123.097615	Oregon	41	OR
OR	Wheeler	44.736411	120.026875	Oregon	41	OR
OR	Yamhill	45.248138	123.316117	Oregon	41	OR
PA	Adams	39.869471	77.21773	Pennsylvania	42	PA
PA	Allegheny	40.46892	79.98092	Pennsylvania	42	PA
PA	Armstrong	40.812379	79.464128	Pennsylvania	42	PA
PA	Beaver	40.68414	80.350721	Pennsylvania	42	PA
PA	Bedford	39.997115	78.48998	Pennsylvania	42	PA
PA	Berks	40.413957	75.92686	Pennsylvania	42	PA
PA	Blair	40.497926	78.31064	Pennsylvania	42	PA
PA	Bradford	41.791495	76.502124	Pennsylvania	42	PA
PA	Bucks	40.336887	75.10706	Pennsylvania	42	PA
PA	Butler	40.913834	79.91896	Pennsylvania	42	PA
PA	Cambria	40.494127	78.715284	Pennsylvania	42	PA
PA	Cameron	41.438289	78.198315	Pennsylvania	42	PA
PA	Carbon	40.917833	75.709428	Pennsylvania	42	PA
PA	Centre	40.90916	77.84783	Pennsylvania	42	PA
PA	Chester	39.973965	75.749732	Pennsylvania	42	PA
PA	Clarion	41.198239	79.420404	Pennsylvania	42	PA
PA	Clearfield	41.000249	78.473749	Pennsylvania	42	PA
PA	Clinton	41.245301	77.649141	Pennsylvania	42	PA
PA	Columbia	41.045517	76.40426	Pennsylvania	42	PA
PA	Crawford	41.68684	80.107811	Pennsylvania	42	PA
PA	Cumberland	40.164782	77.26344	Pennsylvania	42	PA
PA	Dauphin	40.412565	76.792634	Pennsylvania	42	PA
PA	Delaware	39.91667	75.398786	Pennsylvania	42	PA
PA	Elk	41.427334	78.653938	Pennsylvania	42	PA
PA	Erie	42.117952	80.096386	Pennsylvania	42	PA
PA	Fayette	39.914115	79.644586	Pennsylvania	42	PA
PA	Forest	41.513304	79.249705	Pennsylvania	42	PA
PA	Franklin	39.926686	77.724485	Pennsylvania	42	PA
PA	Fulton	39.910751	78.122617	Pennsylvania	42	PA
PA	Greene	39.848983	80.225694	Pennsylvania	42	PA
PA	Huntingdon	40.422321	77.968584	Pennsylvania	42	PA
PA	Indiana	40.651432	79.087545	Pennsylvania	42	PA
PA	Jefferson	41.130287	78.999044	Pennsylvania	42	PA
PA	Juniata	40.530673	77.400438	Pennsylvania	42	PA
PA	Lackawanna	41.44025	75.609587	Pennsylvania	42	PA
PA	Lancaster	40.041992	76.250198	Pennsylvania	42	PA
PA	Lawrence	40.992735	80.334446	Pennsylvania	42	PA
PA	Lebanon	40.367344	76.458009	Pennsylvania	42	PA
PA	Lehigh	40.614241	75.590627	Pennsylvania	42	PA
PA	Luzerne	41.172787	75.976035	Pennsylvania	42	PA
PA	Lycoming	41.343624	77.055253	Pennsylvania	42	PA
PA	McKean	41.81459	78.572463	Pennsylvania	42	PA
PA	Mercer	41.300014	80.252786	Pennsylvania	42	PA
PA	Mifflin	40.61189	77.620661	Pennsylvania	42	PA
PA	Monroe	41.056233	75.329037	Pennsylvania	42	PA
PA	Montgomery	40.209999	75.370201	Pennsylvania	42	PA
PA	Montour	41.029261	76.665259	Pennsylvania	42	PA
PA	Northampton	40.752791	75.307447	Pennsylvania	42	PA
PA	Northumberland	40.851524	76.709877	Pennsylvania	42	PA
PA	Perry	40.39778	77.266328	Pennsylvania	42	PA
PA	Philadelphia	40.009376	75.133346	Pennsylvania	42	PA
PA	Pike	41.325949	75.031514	Pennsylvania	42	PA
PA	Potter	41.748222	77.894735	Pennsylvania	42	PA
PA	Schuylkill	40.70369	76.2178	Pennsylvania	42	PA
PA	Snyder	40.755348	77.072954	Pennsylvania	42	PA
PA	Somerset	39.981297	79.028486	Pennsylvania	42	PA
PA	Sullivan	41.43979	76.511525	Pennsylvania	42	PA
PA	Susquehanna	41.819665	75.800969	Pennsylvania	42	PA
PA	Tioga	41.766859	77.257288	Pennsylvania	42	PA
PA	Union	40.962179	77.055475	Pennsylvania	42	PA
PA	Venango	41.40198	79.754418	Pennsylvania	42	PA
PA	Warren	41.843669	79.313173	Pennsylvania	42	PA
PA	Washington	40.200005	80.252132	Pennsylvania	42	PA
PA	Wayne	41.646589	75.292485	Pennsylvania	42	PA
PA	Westmoreland	40.311068	79.466688	Pennsylvania	42	PA
PA	Wyoming	41.525137	76.00878	Pennsylvania	42	PA
PA	York	39.921839	76.728446	Pennsylvania	42	PA
RI	Bristol	41.705271	71.285053	Rhode Island	44	RI
RI	Kent	41.67775	71.576314	Rhode Island	44	RI
RI	Newport	41.502732	71.284063	Rhode Island	44	RI
RI	Providence	41.870488	71.578242	Rhode Island	44	RI
RI	Washington	41.401162	71.617612	Rhode Island	44	RI
SC	Abbeville	34.213809	82.46046	South Carolina	45	SC
SC	Aiken	33.549317	81.63387	South Carolina	45	SC
SC	Allendale	32.979784	81.363421	South Carolina	45	SC
SC	Anderson	34.519549	82.638086	South Carolina	45	SC
SC	Bamberg	33.203021	81.053161	South Carolina	45	SC
SC	Barnwell	33.26068	81.433753	South Carolina	45	SC
SC	Beaufort	32.358147	80.68932	South Carolina	45	SC
SC	Berkeley	33.2077	79.953655	South Carolina	45	SC
SC	Calhoun	33.67478	80.780347	South Carolina	45	SC
SC	Charleston	32.800458	79.94248	South Carolina	45	SC
SC	Cherokee	35.049796	81.607647	South Carolina	45	SC
SC	Chester	34.689345	81.161249	South Carolina	45	SC
SC	Chesterfield	34.637018	80.159227	South Carolina	45	SC
SC	Clarendon	33.664682	80.217889	South Carolina	45	SC
SC	Colleton	32.83498	80.655345	South Carolina	45	SC
SC	Darlington	34.332185	79.962116	South Carolina	45	SC
SC	Dillon	34.390172	79.374964	South Carolina	45	SC
SC	Dorchester	33.082186	80.404697	South Carolina	45	SC
SC	Edgefield	33.776498	81.968245	South Carolina	45	SC
SC	Fairfield	34.395669	81.127001	South Carolina	45	SC
SC	Florence	34.028535	79.710233	South Carolina	45	SC
SC	Georgetown	33.41753	79.300812	South Carolina	45	SC
SC	Greenville	34.892645	82.372077	South Carolina	45	SC
SC	Greenwood	34.155796	82.127876	South Carolina	45	SC
SC	Hampton	32.778323	81.143362	South Carolina	45	SC
SC	Horry	33.909269	78.976675	South Carolina	45	SC
SC	Jasper	32.43059	81.021627	South Carolina	45	SC
SC	Kershaw	34.338356	80.590885	South Carolina	45	SC
SC	Lancaster	34.686818	80.703689	South Carolina	45	SC
SC	Laurens	34.483477	82.005657	South Carolina	45	SC
SC	Lee	34.15864	80.251209	South Carolina	45	SC
SC	Lexington	33.892554	81.272853	South Carolina	45	SC
SC	McCormick	33.897605	82.316192	South Carolina	45	SC
SC	Marion	34.080701	79.362131	South Carolina	45	SC
SC	Marlboro	34.601805	79.677942	South Carolina	45	SC
SC	Newberry	34.28973	81.600053	South Carolina	45	SC
SC	Oconee	34.748759	83.061522	South Carolina	45	SC
SC	Orangeburg	33.436135	80.802913	South Carolina	45	SC
SC	Pickens	34.887362	82.725368	South Carolina	45	SC
SC	Richland	34.029783	80.896566	South Carolina	45	SC
SC	Saluda	34.005278	81.727903	South Carolina	45	SC
SC	Spartanburg	34.933239	81.991053	South Carolina	45	SC
SC	Sumter	33.916046	80.382472	South Carolina	45	SC
SC	Union	34.690514	81.615831	South Carolina	45	SC
SC	Williamsburg	33.626463	79.716475	South Carolina	45	SC
SC	York	34.97019	81.183189	South Carolina	45	SC
SD	Aurora	43.724719	98.577587	South Dakota	46	SD
SD	Beadle	44.418265	98.279422	South Dakota	46	SD
SD	Bennett	43.184826	101.676426	South Dakota	46	SD
SD	Bon Homme	42.986031	97.885613	South Dakota	46	SD
SD	Brookings	44.376675	96.797797	South Dakota	46	SD
SD	Brown	45.589254	98.352175	South Dakota	46	SD
SD	Brule	43.72988	99.092941	South Dakota	46	SD
SD	Buffalo	44.044306	99.203998	South Dakota	46	SD
SD	Butte	44.896435	103.501762	South Dakota	46	SD
SD	Campbell	45.782241	100.027951	South Dakota	46	SD
SD	Charles Mix	43.206185	98.595143	South Dakota	46	SD
SD	Clark	44.855211	97.724912	South Dakota	46	SD
SD	Clay	42.912997	96.979795	South Dakota	46	SD
SD	Codington	44.966324	97.198843	South Dakota	46	SD
SD	Corson	45.69834	101.176017	South Dakota	46	SD
SD	Custer	43.684943	103.46225	South Dakota	46	SD
SD	Davison	43.680439	98.155868	South Dakota	46	SD
SD	Day	45.362283	97.593734	South Dakota	46	SD
SD	Deuel	44.75629	96.690239	South Dakota	46	SD
SD	Dewey	45.150005	100.852218	South Dakota	46	SD
SD	Douglas	43.391506	98.358433	South Dakota	46	SD
SD	Edmunds	45.41168	99.205362	South Dakota	46	SD
SD	Fall River	43.221504	103.512102	South Dakota	46	SD
SD	Faulk	45.065476	99.153564	South Dakota	46	SD
SD	Grant	45.172637	96.772261	South Dakota	46	SD
SD	Gregory	43.179094	99.202158	South Dakota	46	SD
SD	Haakon	44.284312	101.59179	South Dakota	46	SD
SD	Hamlin	44.680619	97.178598	South Dakota	46	SD
SD	Hand	44.546713	99.004575	South Dakota	46	SD
SD	Hanson	43.680612	97.796845	South Dakota	46	SD
SD	Harding	45.596612	103.473867	South Dakota	46	SD
SD	Hughes	44.392258	99.985846	South Dakota	46	SD
SD	Hutchinson	43.33671	97.749383	South Dakota	46	SD
SD	Hyde	44.537301	99.492148	South Dakota	46	SD
SD	Jackson	43.677294	101.626455	South Dakota	46	SD
SD	Jerauld	44.063416	98.623188	South Dakota	46	SD
SD	Jones	43.95199	100.686139	South Dakota	46	SD
SD	Kingsbury	44.362969	97.499313	South Dakota	46	SD
SD	Lake	44.02845	97.123223	South Dakota	46	SD
SD	Lawrence	44.353669	103.796528	South Dakota	46	SD
SD	Lincoln	43.27942	96.722286	South Dakota	46	SD
SD	Lyman	43.894812	99.841925	South Dakota	46	SD
SD	McCook	43.678924	97.362036	South Dakota	46	SD
SD	McPherson	45.784249	99.211421	South Dakota	46	SD
SD	Marshall	45.737054	97.580884	South Dakota	46	SD
SD	Meade	44.606792	102.715864	South Dakota	46	SD
SD	Mellette	43.58493	100.760598	South Dakota	46	SD
SD	Miner	44.017327	97.60979	South Dakota	46	SD
SD	Minnehaha	43.667472	96.795726	South Dakota	46	SD
SD	Moody	44.012429	96.676054	South Dakota	46	SD
SD	Oglala Lakota	43.341937	102.55948	South Dakota	46	SD
SD	Pennington	44.002349	102.823802	South Dakota	46	SD
SD	Perkins	45.483387	102.467995	South Dakota	46	SD
SD	Potter	45.064276	99.949631	South Dakota	46	SD
SD	Roberts	45.623397	96.947551	South Dakota	46	SD
SD	Sanborn	44.021032	98.092105	South Dakota	46	SD
SD	Spink	44.931034	98.339644	South Dakota	46	SD
SD	Stanley	44.415547	100.749163	South Dakota	46	SD
SD	Sully	44.722325	100.131399	South Dakota	46	SD
SD	Todd	43.208172	100.717204	South Dakota	46	SD
SD	Tripp	43.349729	99.876219	South Dakota	46	SD
SD	Turner	43.30867	97.150185	South Dakota	46	SD
SD	Union	42.831106	96.650829	South Dakota	46	SD
SD	Walworth	45.427605	100.027856	South Dakota	46	SD
SD	Yankton	43.006607	97.388339	South Dakota	46	SD
SD	Ziebach	44.981666	101.669225	South Dakota	46	SD
TN	Anderson	36.116731	84.195418	Tennessee	47	TN
TN	Bedford	35.51366	86.458294	Tennessee	47	TN
TN	Benton	36.069253	88.071212	Tennessee	47	TN
TN	Bledsoe	35.593668	85.205979	Tennessee	47	TN
TN	Blount	35.688185	83.922973	Tennessee	47	TN
TN	Bradley	35.153914	84.859414	Tennessee	47	TN
TN	Campbell	36.401592	84.15925	Tennessee	47	TN
TN	Cannon	35.808394	86.062404	Tennessee	47	TN
TN	Carroll	35.967896	88.451659	Tennessee	47	TN
TN	Carter	36.284744	82.126593	Tennessee	47	TN
TN	Cheatham	36.25518	87.100816	Tennessee	47	TN
TN	Chester	35.416639	88.605505	Tennessee	47	TN
TN	Claiborne	36.501557	83.660724	Tennessee	47	TN
TN	Clay	36.545765	85.545718	Tennessee	47	TN
TN	Cocke	35.916198	83.119223	Tennessee	47	TN
TN	Coffee	35.488759	86.078219	Tennessee	47	TN
TN	Crockett	35.811312	89.135349	Tennessee	47	TN
TN	Cumberland	35.952398	84.994761	Tennessee	47	TN
TN	Davidson	36.169129	86.78479	Tennessee	47	TN
TN	Decatur	35.603422	88.107384	Tennessee	47	TN
TN	DeKalb	35.98222	85.833596	Tennessee	47	TN
TN	Dickson	36.145533	87.364155	Tennessee	47	TN
TN	Dyer	36.054196	89.398306	Tennessee	47	TN
TN	Fayette	35.196993	89.413803	Tennessee	47	TN
TN	Fentress	36.376079	84.932703	Tennessee	47	TN
TN	Franklin	35.155926	86.099203	Tennessee	47	TN
TN	Gibson	35.991694	88.933776	Tennessee	47	TN
TN	Giles	35.202723	87.035319	Tennessee	47	TN
TN	Grainger	36.277463	83.509493	Tennessee	47	TN
TN	Greene	36.178998	82.847746	Tennessee	47	TN
TN	Grundy	35.387273	85.722188	Tennessee	47	TN
TN	Hamblen	36.218397	83.266071	Tennessee	47	TN
TN	Hamilton	35.159186	85.202296	Tennessee	47	TN
TN	Hancock	36.52142	83.227453	Tennessee	47	TN
TN	Hardeman	35.218131	88.989037	Tennessee	47	TN
TN	Hardin	35.201893	88.185696	Tennessee	47	TN
TN	Hawkins	36.452206	82.931386	Tennessee	47	TN
TN	Haywood	35.58669	89.282536	Tennessee	47	TN
TN	Henderson	35.653995	88.387674	Tennessee	47	TN
TN	Henry	36.325398	88.300384	Tennessee	47	TN
TN	Hickman	35.802396	87.467114	Tennessee	47	TN
TN	Houston	36.285777	87.705605	Tennessee	47	TN
TN	Humphreys	36.04044	87.790625	Tennessee	47	TN
TN	Jackson	36.354242	85.674182	Tennessee	47	TN
TN	Jefferson	36.048479	83.440966	Tennessee	47	TN
TN	Johnson	36.453204	81.861237	Tennessee	47	TN
TN	Knox	35.992727	83.937721	Tennessee	47	TN
TN	Lake	36.333905	89.485537	Tennessee	47	TN
TN	Lauderdale	35.762951	89.627732	Tennessee	47	TN
TN	Lawrence	35.220476	87.396546	Tennessee	47	TN
TN	Lewis	35.523244	87.496983	Tennessee	47	TN
TN	Lincoln	35.142532	86.593388	Tennessee	47	TN
TN	Loudon	35.73745	84.316204	Tennessee	47	TN
TN	McMinn	35.424471	84.619963	Tennessee	47	TN
TN	McNairy	35.175626	88.564671	Tennessee	47	TN
TN	Macon	36.537838	86.001231	Tennessee	47	TN
TN	Madison	35.606056	88.833424	Tennessee	47	TN
TN	Marion	35.133422	85.618399	Tennessee	47	TN
TN	Marshall	35.468387	86.765886	Tennessee	47	TN
TN	Maury	35.615696	87.077763	Tennessee	47	TN
TN	Meigs	35.503397	84.823888	Tennessee	47	TN
TN	Monroe	35.447666	84.249786	Tennessee	47	TN
TN	Montgomery	36.500354	87.380887	Tennessee	47	TN
TN	Moore	35.288889	86.358684	Tennessee	47	TN
TN	Morgan	36.138697	84.639262	Tennessee	47	TN
TN	Obion	36.358175	89.150175	Tennessee	47	TN
TN	Overton	36.34485	85.283076	Tennessee	47	TN
TN	Perry	35.659785	87.877027	Tennessee	47	TN
TN	Pickett	36.559364	85.075741	Tennessee	47	TN
TN	Polk	35.109437	84.541112	Tennessee	47	TN
TN	Putnam	36.140807	85.496928	Tennessee	47	TN
TN	Rhea	35.600587	84.949552	Tennessee	47	TN
TN	Roane	35.847472	84.523861	Tennessee	47	TN
TN	Robertson	36.52753	86.869377	Tennessee	47	TN
TN	Rutherford	35.843369	86.417213	Tennessee	47	TN
TN	Scott	36.437239	84.498386	Tennessee	47	TN
TN	Sequatchie	35.372335	85.410344	Tennessee	47	TN
TN	Sevier	35.791284	83.521955	Tennessee	47	TN
TN	Shelby	35.183794	89.895397	Tennessee	47	TN
TN	Smith	36.25565	85.942078	Tennessee	47	TN
TN	Stewart	36.511756	87.851548	Tennessee	47	TN
TN	Sullivan	36.510212	82.299397	Tennessee	47	TN
TN	Sumner	36.470015	86.458517	Tennessee	47	TN
TN	Tipton	35.500297	89.763708	Tennessee	47	TN
TN	Trousdale	36.39303	86.156691	Tennessee	47	TN
TN	Unicoi	36.100215	82.418245	Tennessee	47	TN
TN	Union	36.28414	83.836088	Tennessee	47	TN
TN	Van Buren	35.699245	85.458411	Tennessee	47	TN
TN	Warren	35.678282	85.777363	Tennessee	47	TN
TN	Washington	36.295665	82.495037	Tennessee	47	TN
TN	Wayne	35.242687	87.819703	Tennessee	47	TN
TN	Weakley	36.303523	88.720785	Tennessee	47	TN
TN	White	35.927062	85.455766	Tennessee	47	TN
TN	Williamson	35.894972	86.896958	Tennessee	47	TN
TN	Wilson	36.148476	86.29021	Tennessee	47	TN
TX	Anderson	31.841266	95.661744	Texas	48	TX
TX	Andrews	32.312258	102.640206	Texas	48	TX
TX	Angelina	31.251951	94.611056	Texas	48	TX
TX	Aransas	28.104225	96.977983	Texas	48	TX
TX	Archer	33.616305	98.687267	Texas	48	TX
TX	Armstrong	34.964179	101.356636	Texas	48	TX
TX	Atascosa	28.894296	98.528187	Texas	48	TX
TX	Austin	29.891901	96.27017	Texas	48	TX
TX	Bailey	34.067521	102.830345	Texas	48	TX
TX	Bandera	29.755748	99.260682	Texas	48	TX
TX	Bastrop	30.103128	97.311859	Texas	48	TX
TX	Baylor	33.618172	99.197228	Texas	48	TX
TX	Bee	28.416077	97.742586	Texas	48	TX
TX	Bell	31.04211	97.481921	Texas	48	TX
TX	Bexar	29.448671	98.520147	Texas	48	TX
TX	Blanco	30.265605	98.399977	Texas	48	TX
TX	Borden	32.744062	101.433033	Texas	48	TX
TX	Bosque	31.900764	97.637632	Texas	48	TX
TX	Bowie	33.446051	94.422375	Texas	48	TX
TX	Brazoria	29.167818	95.434647	Texas	48	TX
TX	Brazos	30.656725	96.302389	Texas	48	TX
TX	Brewster	29.808997	103.252458	Texas	48	TX
TX	Briscoe	34.525173	101.205893	Texas	48	TX
TX	Brooks	27.034994	98.215276	Texas	48	TX
TX	Brown	31.764103	98.99847	Texas	48	TX
TX	Burleson	30.493487	96.622091	Texas	48	TX
TX	Burnet	30.789616	98.201195	Texas	48	TX
TX	Caldwell	29.840422	97.631097	Texas	48	TX
TX	Calhoun	28.445366	96.5833	Texas	48	TX
TX	Callahan	32.29315	99.372249	Texas	48	TX
TX	Cameron	26.102923	97.478958	Texas	48	TX
TX	Camp	32.974581	94.979085	Texas	48	TX
TX	Carson	35.405496	101.355356	Texas	48	TX
TX	Cass	33.083698	94.357579	Texas	48	TX
TX	Castro	34.533621	102.258786	Texas	48	TX
TX	Chambers	29.703933	94.668875	Texas	48	TX
TX	Cherokee	31.843859	95.156504	Texas	48	TX
TX	Childress	34.529337	100.208336	Texas	48	TX
TX	Clay	33.785904	98.212918	Texas	48	TX
TX	Cochran	33.60844	102.830449	Texas	48	TX
TX	Coke	31.877105	100.635236	Texas	48	TX
TX	Coleman	31.914205	99.346622	Texas	48	TX
TX	Collin	33.193885	96.578153	Texas	48	TX
TX	Collingsworth	34.963358	100.272135	Texas	48	TX
TX	Colorado	29.595908	96.508389	Texas	48	TX
TX	Comal	29.803019	98.255201	Texas	48	TX
TX	Comanche	31.951645	98.549617	Texas	48	TX
TX	Concho	31.318865	99.863648	Texas	48	TX
TX	Cooke	33.639169	97.210372	Texas	48	TX
TX	Coryell	31.391177	97.798022	Texas	48	TX
TX	Cottle	34.091906	100.276442	Texas	48	TX
TX	Crane	31.422797	102.487774	Texas	48	TX
TX	Crockett	30.717532	101.404211	Texas	48	TX
TX	Crosby	33.609144	101.29871	Texas	48	TX
TX	Culberson	31.445909	104.526945	Texas	48	TX
TX	Dallam	36.28637	102.59402	Texas	48	TX
TX	Dallas	32.766987	96.778424	Texas	48	TX
TX	Dawson	32.741934	101.947322	Texas	48	TX
TX	Deaf Smith	34.940766	102.607564	Texas	48	TX
TX	Delta	33.385933	95.67335	Texas	48	TX
TX	Denton	33.205005	97.119046	Texas	48	TX
TX	DeWitt	29.082342	97.361656	Texas	48	TX
TX	Dickens	33.614666	100.786095	Texas	48	TX
TX	Dimmit	28.423587	99.765871	Texas	48	TX
TX	Donley	34.955036	100.815846	Texas	48	TX
TX	Duval	27.681123	98.497393	Texas	48	TX
TX	Eastland	32.324645	98.83656	Texas	48	TX
TX	Ector	31.865301	102.542507	Texas	48	TX
TX	Edwards	29.985877	100.307373	Texas	48	TX
TX	Ellis	32.347279	96.798336	Texas	48	TX
TX	El Paso	31.766403	106.241391	Texas	48	TX
TX	Erath	32.238136	98.222377	Texas	48	TX
TX	Falls	31.25193	96.934128	Texas	48	TX
TX	Fannin	33.591161	96.104988	Texas	48	TX
TX	Fayette	29.877886	96.921231	Texas	48	TX
TX	Fisher	32.740473	100.40312	Texas	48	TX
TX	Floyd	34.073731	101.303274	Texas	48	TX
TX	Foard	33.980404	99.777427	Texas	48	TX
TX	Fort Bend	29.526602	95.771015	Texas	48	TX
TX	Franklin	33.175846	95.219066	Texas	48	TX
TX	Freestone	31.701654	96.144237	Texas	48	TX
TX	Frio	28.869334	99.108788	Texas	48	TX
TX	Gaines	32.743942	102.631562	Texas	48	TX
TX	Galveston	29.228706	94.894865	Texas	48	TX
TX	Garza	33.183792	101.301134	Texas	48	TX
TX	Gillespie	30.32639	98.942106	Texas	48	TX
TX	Glasscock	31.868591	101.528971	Texas	48	TX
TX	Goliad	28.6607	97.430415	Texas	48	TX
TX	Gonzales	29.468704	97.477738	Texas	48	TX
TX	Gray	35.402542	100.812374	Texas	48	TX
TX	Grayson	33.624508	96.675699	Texas	48	TX
TX	Gregg	32.486397	94.816276	Texas	48	TX
TX	Grimes	30.543231	95.988082	Texas	48	TX
TX	Guadalupe	29.583208	97.949027	Texas	48	TX
TX	Hale	34.068436	101.822888	Texas	48	TX
TX	Hall	34.453189	100.576343	Texas	48	TX
TX	Hamilton	31.706982	98.111794	Texas	48	TX
TX	Hansford	36.272847	101.35693	Texas	48	TX
TX	Hardeman	34.289904	99.745697	Texas	48	TX
TX	Hardin	30.329612	94.393149	Texas	48	TX
TX	Harris	29.857273	95.393037	Texas	48	TX
TX	Harrison	32.547993	94.374425	Texas	48	TX
TX	Hartley	35.840244	102.610047	Texas	48	TX
TX	Haskell	33.175965	99.730773	Texas	48	TX
TX	Hays	30.061225	98.029267	Texas	48	TX
TX	Hemphill	35.816237	100.284807	Texas	48	TX
TX	Henderson	32.211633	95.853418	Texas	48	TX
TX	Hidalgo	26.396384	98.18099	Texas	48	TX
TX	Hill	31.98224	97.129886	Texas	48	TX
TX	Hockley	33.605932	102.343398	Texas	48	TX
TX	Hood	32.430149	97.831677	Texas	48	TX
TX	Hopkins	33.148959	95.565194	Texas	48	TX
TX	Houston	31.323036	95.4216	Texas	48	TX
TX	Howard	32.303583	101.43853	Texas	48	TX
TX	Hudspeth	31.450868	105.377549	Texas	48	TX
TX	Hunt	33.123438	96.083807	Texas	48	TX
TX	Hutchinson	35.837047	101.362746	Texas	48	TX
TX	Irion	31.303424	100.981304	Texas	48	TX
TX	Jack	33.232277	98.171902	Texas	48	TX
TX	Jackson	28.959802	96.58908	Texas	48	TX
TX	Jasper	30.752932	94.022294	Texas	48	TX
TX	Jeff Davis	30.617087	104.18786	Texas	48	TX
TX	Jefferson	29.854	94.149331	Texas	48	TX
TX	Jim Hogg	27.041212	98.700127	Texas	48	TX
TX	Jim Wells	27.733516	98.090814	Texas	48	TX
TX	Johnson	32.379511	97.364823	Texas	48	TX
TX	Jones	32.743709	99.87443	Texas	48	TX
TX	Karnes	28.907618	97.860767	Texas	48	TX
TX	Kaufman	32.598944	96.288378	Texas	48	TX
TX	Kendall	29.944524	98.711094	Texas	48	TX
TX	Kenedy	26.890232	97.591233	Texas	48	TX
TX	Kent	33.18478	100.76972	Texas	48	TX
TX	Kerr	30.053928	99.351968	Texas	48	TX
TX	Kimble	30.479472	99.746396	Texas	48	TX
TX	King	33.614159	100.250548	Texas	48	TX
TX	Kinney	29.347087	100.4177	Texas	48	TX
TX	Kleberg	27.438735	97.66062	Texas	48	TX
TX	Knox	33.616657	99.747112	Texas	48	TX
TX	Lamar	33.667263	95.570348	Texas	48	TX
TX	Lamb	34.068862	102.348018	Texas	48	TX
TX	Lampasas	31.196731	98.240889	Texas	48	TX
TX	La Salle	28.351098	99.096774	Texas	48	TX
TX	Lavaca	29.382578	96.923633	Texas	48	TX
TX	Lee	30.321105	96.976365	Texas	48	TX
TX	Leon	31.300493	95.995622	Texas	48	TX
TX	Liberty	30.162189	94.822682	Texas	48	TX
TX	Limestone	31.547543	96.593623	Texas	48	TX
TX	Lipscomb	36.2802	100.272683	Texas	48	TX
TX	Live Oak	28.351535	98.126961	Texas	48	TX
TX	Llano	30.707585	98.68469	Texas	48	TX
TX	Loving	31.844936	103.561229	Texas	48	TX
TX	Lubbock	33.611469	101.819944	Texas	48	TX
TX	Lynn	33.178412	101.818493	Texas	48	TX
TX	McCulloch	31.205477	99.359856	Texas	48	TX
TX	McLennan	31.549493	97.201472	Texas	48	TX
TX	McMullen	28.384922	98.578853	Texas	48	TX
TX	Madison	30.966878	95.930372	Texas	48	TX
TX	Marion	32.797757	94.357673	Texas	48	TX
TX	Martin	32.30983	101.961836	Texas	48	TX
TX	Mason	30.703232	99.237608	Texas	48	TX
TX	Matagorda	28.783341	95.997755	Texas	48	TX
TX	Maverick	28.745217	100.311368	Texas	48	TX
TX	Medina	29.353661	99.111085	Texas	48	TX
TX	Menard	30.883707	99.854936	Texas	48	TX
TX	Midland	31.870896	102.024326	Texas	48	TX
TX	Milam	30.791242	96.984395	Texas	48	TX
TX	Mills	31.494889	98.594623	Texas	48	TX
TX	Mitchell	32.303781	100.92458	Texas	48	TX
TX	Montague	33.676289	97.724747	Texas	48	TX
TX	Montgomery	30.302364	95.503523	Texas	48	TX
TX	Moore	35.835676	101.890502	Texas	48	TX
TX	Morris	33.116466	94.731265	Texas	48	TX
TX	Motley	34.058383	100.793696	Texas	48	TX
TX	Nacogdoches	31.62056	94.62025	Texas	48	TX
TX	Navarro	32.04845	96.476908	Texas	48	TX
TX	Newton	30.786718	93.73925	Texas	48	TX
TX	Nolan	32.312338	100.418108	Texas	48	TX
TX	Nueces	27.739406	97.521643	Texas	48	TX
TX	Ochiltree	36.278744	100.815864	Texas	48	TX
TX	Oldham	35.401921	102.59762	Texas	48	TX
TX	Orange	30.120918	93.893358	Texas	48	TX
TX	Palo Pinto	32.75221	98.317974	Texas	48	TX
TX	Panola	32.163978	94.305156	Texas	48	TX
TX	Parker	32.777096	97.805905	Texas	48	TX
TX	Parmer	34.532163	102.784853	Texas	48	TX
TX	Pecos	30.770894	102.71986	Texas	48	TX
TX	Polk	30.784553	94.837338	Texas	48	TX
TX	Potter	35.398675	101.893804	Texas	48	TX
TX	Presidio	30.005891	104.261619	Texas	48	TX
TX	Rains	32.87058	95.79544	Texas	48	TX
TX	Randall	34.962529	101.895547	Texas	48	TX
TX	Reagan	31.372895	101.513901	Texas	48	TX
TX	Real	29.82303	99.805303	Texas	48	TX
TX	Red River	33.619626	95.048429	Texas	48	TX
TX	Reeves	31.308366	103.712706	Texas	48	TX
TX	Refugio	28.312496	97.160479	Texas	48	TX
TX	Roberts	35.836216	100.807555	Texas	48	TX
TX	Robertson	31.025481	96.514941	Texas	48	TX
TX	Rockwall	32.889216	96.407501	Texas	48	TX
TX	Runnels	31.833311	99.967856	Texas	48	TX
TX	Rusk	32.109423	94.756382	Texas	48	TX
TX	Sabine	31.3433	93.851913	Texas	48	TX
TX	San Augustine	31.382449	94.16318	Texas	48	TX
TX	San Jacinto	30.574218	95.162852	Texas	48	TX
TX	San Patricio	28.011782	97.517165	Texas	48	TX
TX	San Saba	31.155138	98.819292	Texas	48	TX
TX	Schleicher	30.896233	100.527216	Texas	48	TX
TX	Scurry	32.744462	100.913399	Texas	48	TX
TX	Shackelford	32.743788	99.347045	Texas	48	TX
TX	Shelby	31.790137	94.142565	Texas	48	TX
TX	Sherman	36.277628	101.894716	Texas	48	TX
TX	Smith	32.377093	95.26963	Texas	48	TX
TX	Somervell	32.217942	97.769211	Texas	48	TX
TX	Starr	26.546335	98.715803	Texas	48	TX
TX	Stephens	32.731531	98.840081	Texas	48	TX
TX	Sterling	31.835774	101.054911	Texas	48	TX
TX	Stonewall	33.17958	100.253807	Texas	48	TX
TX	Sutton	30.517865	100.505395	Texas	48	TX
TX	Swisher	34.53046	101.732852	Texas	48	TX
TX	Tarrant	32.77204	97.291291	Texas	48	TX
TX	Taylor	32.295684	99.89322	Texas	48	TX
TX	Terrell	30.232332	102.072539	Texas	48	TX
TX	Terry	33.171229	102.339284	Texas	48	TX
TX	Throckmorton	33.170712	99.206137	Texas	48	TX
TX	Titus	33.214599	94.966783	Texas	48	TX
TX	Tom Green	31.401583	100.461355	Texas	48	TX
TX	Travis	30.239513	97.69127	Texas	48	TX
TX	Trinity	31.087483	95.153291	Texas	48	TX
TX	Tyler	30.769579	94.379449	Texas	48	TX
TX	Upshur	32.735878	94.941649	Texas	48	TX
TX	Upton	31.353849	102.042013	Texas	48	TX
TX	Uvalde	29.35034	99.761074	Texas	48	TX
TX	Val Verde	29.884961	101.146646	Texas	48	TX
TX	Van Zandt	32.558948	95.836391	Texas	48	TX
TX	Victoria	28.79637	96.971198	Texas	48	TX
TX	Walker	30.74309	95.569888	Texas	48	TX
TX	Waller	30.013578	95.982102	Texas	48	TX
TX	Ward	31.513069	103.105113	Texas	48	TX
TX	Washington	30.215075	96.410272	Texas	48	TX
TX	Webb	27.770584	99.326641	Texas	48	TX
TX	Wharton	29.278481	96.229675	Texas	48	TX
TX	Wheeler	35.392593	100.253107	Texas	48	TX
TX	Wichita	33.991103	98.716851	Texas	48	TX
TX	Wilbarger	34.08492	99.24244	Texas	48	TX
TX	Willacy	26.481092	97.584224	Texas	48	TX
TX	Williamson	30.64903	97.605069	Texas	48	TX
TX	Wilson	29.174303	98.085899	Texas	48	TX
TX	Winkler	31.831416	103.055986	Texas	48	TX
TX	Wise	33.219095	97.653997	Texas	48	TX
TX	Wood	32.783588	95.382166	Texas	48	TX
TX	Yoakum	33.172397	102.823771	Texas	48	TX
TX	Young	33.158787	98.678267	Texas	48	TX
TX	Zapata	26.996981	99.182603	Texas	48	TX
TX	Zavala	28.864652	99.75983	Texas	48	TX
UT	Beaver	38.357535	113.238948	Utah	49	UT
UT	Box Elder	41.476021	113.052922	Utah	49	UT
UT	Cache	41.734225	111.744581	Utah	49	UT
UT	Carbon	39.67005	110.590357	Utah	49	UT
UT	Daggett	40.890099	109.505786	Utah	49	UT
UT	Davis	41.037045	112.202123	Utah	49	UT
UT	Duchesne	40.289649	110.42983	Utah	49	UT
UT	Emery	39.009028	110.721111	Utah	49	UT
UT	Garfield	37.831622	111.450886	Utah	49	UT
UT	Grand	38.974326	109.57345	Utah	49	UT
UT	Iron	37.882727	113.290059	Utah	49	UT
UT	Juab	39.710827	112.794262	Utah	49	UT
UT	Kane	37.275118	111.815413	Utah	49	UT
UT	Millard	39.09454	113.525014	Utah	49	UT
UT	Morgan	41.091027	111.577885	Utah	49	UT
UT	Piute	38.335881	112.129376	Utah	49	UT
UT	Rich	41.627598	111.240227	Utah	49	UT
UT	Salt Lake	40.667882	111.924244	Utah	49	UT
UT	San Juan	37.623064	109.78932	Utah	49	UT
UT	Sanpete	39.380588	111.570451	Utah	49	UT
UT	Sevier	38.746825	111.81193	Utah	49	UT
UT	Summit	40.87206	110.968486	Utah	49	UT
UT	Tooele	40.467692	113.124015	Utah	49	UT
UT	Uintah	40.125887	109.517748	Utah	49	UT
UT	Utah	40.120409	111.668667	Utah	49	UT
UT	Wasatch	40.334884	111.161568	Utah	49	UT
UT	Washington	37.262531	113.4878	Utah	49	UT
UT	Wayne	38.261229	110.990323	Utah	49	UT
UT	Weber	41.270355	111.875879	Utah	49	UT
VT	Addison	44.031248	73.141581	Vermont	50	VT
VT	Bennington	43.035325	73.11146	Vermont	50	VT
VT	Caledonia	44.468791	72.112168	Vermont	50	VT
VT	Chittenden	44.460676	73.070525	Vermont	50	VT
VT	Essex	44.724021	71.732736	Vermont	50	VT
VT	Franklin	44.858964	72.909402	Vermont	50	VT
VT	Grand Isle	44.801788	73.300758	Vermont	50	VT
VT	Lamoille	44.603504	72.638356	Vermont	50	VT
VT	Orange	44.003392	72.369687	Vermont	50	VT
VT	Orleans	44.828442	72.25163	Vermont	50	VT
VT	Rutland	43.580844	73.038196	Vermont	50	VT
VT	Washington	44.274953	72.609475	Vermont	50	VT
VT	Windham	42.999143	72.716335	Vermont	50	VT
VT	Windsor	43.588143	72.591515	Vermont	50	VT
VA	Accomack	37.765944	75.757807	Virginia	51	VA
VA	Albemarle	38.024184	78.553506	Virginia	51	VA
VA	Alleghany	37.787905	80.008669	Virginia	51	VA
VA	Amelia	37.336131	77.973218	Virginia	51	VA
VA	Amherst	37.630362	79.147848	Virginia	51	VA
VA	Appomattox	37.370725	78.81094	Virginia	51	VA
VA	Arlington	38.878337	77.100703	Virginia	51	VA
VA	Augusta	38.167807	79.146682	Virginia	51	VA
VA	Bath	38.068988	79.732898	Virginia	51	VA
VA	Bedford	37.312408	79.527947	Virginia	51	VA
VA	Bland	37.130612	81.125853	Virginia	51	VA
VA	Botetourt	37.553193	79.805318	Virginia	51	VA
VA	Brunswick	36.764531	77.860916	Virginia	51	VA
VA	Buchanan	37.26812	82.038151	Virginia	51	VA
VA	Buckingham	37.573928	78.529169	Virginia	51	VA
VA	Campbell	37.210151	79.095429	Virginia	51	VA
VA	Caroline	38.030319	77.352348	Virginia	51	VA
VA	Carroll	36.732426	80.728043	Virginia	51	VA
VA	Charles City	37.361048	77.054171	Virginia	51	VA
VA	Charlotte	37.014091	78.661424	Virginia	51	VA
VA	Chesterfield	37.378434	77.585847	Virginia	51	VA
VA	Clarke	39.115931	77.992004	Virginia	51	VA
VA	Craig	37.473129	80.231734	Virginia	51	VA
VA	Culpeper	38.48593	77.956476	Virginia	51	VA
VA	Cumberland	37.520189	78.252836	Virginia	51	VA
VA	Dickenson	37.137081	82.349208	Virginia	51	VA
VA	Dinwiddie	37.073498	77.635492	Virginia	51	VA
VA	Essex	37.93948	76.941871	Virginia	51	VA
VA	Fairfax	38.833743	77.276117	Virginia	51	VA
VA	Fauquier	38.744103	77.821585	Virginia	51	VA
VA	Floyd	36.931438	80.350309	Virginia	51	VA
VA	Fluvanna	37.830606	78.284445	Virginia	51	VA
VA	Franklin	36.99235	79.883959	Virginia	51	VA
VA	Frederick	39.203637	78.263916	Virginia	51	VA
VA	Giles	37.31193	80.717178	Virginia	51	VA
VA	Gloucester	37.403541	76.523505	Virginia	51	VA
VA	Goochland	37.724166	77.914273	Virginia	51	VA
VA	Grayson	36.656303	81.225337	Virginia	51	VA
VA	Greene	38.297981	78.470163	Virginia	51	VA
VA	Greensville	36.680225	77.560261	Virginia	51	VA
VA	Halifax	36.766461	78.939614	Virginia	51	VA
VA	Hanover	37.760166	77.490992	Virginia	51	VA
VA	Henrico	37.437521	77.300333	Virginia	51	VA
VA	Henry	36.620593	79.980584	Virginia	51	VA
VA	Highland	38.356672	79.567958	Virginia	51	VA
VA	Isle of Wight	36.901418	76.707569	Virginia	51	VA
VA	James City	37.324427	76.778319	Virginia	51	VA
VA	King and Queen	37.720995	76.89109	Virginia	51	VA
VA	King George	38.277179	77.162702	Virginia	51	VA
VA	King William	37.70826	77.091054	Virginia	51	VA
VA	Lancaster	37.703831	76.413199	Virginia	51	VA
VA	Lee	36.702162	83.130334	Virginia	51	VA
VA	Loudoun	39.08113	77.638857	Virginia	51	VA
VA	Louisa	37.971681	77.959178	Virginia	51	VA
VA	Lunenburg	36.945757	78.242313	Virginia	51	VA
VA	Madison	38.412059	78.276961	Virginia	51	VA
VA	Mathews	37.425348	76.268808	Virginia	51	VA
VA	Mecklenburg	36.687256	78.368959	Virginia	51	VA
VA	Middlesex	37.606828	76.527958	Virginia	51	VA
VA	Montgomery	37.174885	80.387314	Virginia	51	VA
VA	Nelson	37.790016	78.879394	Virginia	51	VA
VA	New Kent	37.498974	76.993339	Virginia	51	VA
VA	Northampton	37.302629	75.923868	Virginia	51	VA
VA	Northumberland	37.856974	76.379687	Virginia	51	VA
VA	Nottoway	37.143696	78.052162	Virginia	51	VA
VA	Orange	38.250439	78.00998	Virginia	51	VA
VA	Page	38.623751	78.490471	Virginia	51	VA
VA	Patrick	36.667327	80.286141	Virginia	51	VA
VA	Pittsylvania	36.821721	79.398502	Virginia	51	VA
VA	Powhatan	37.549404	77.912855	Virginia	51	VA
VA	Prince Edward	37.224881	78.432957	Virginia	51	VA
VA	Prince George	37.187326	77.220993	Virginia	51	VA
VA	Prince William	38.702332	77.478887	Virginia	51	VA
VA	Pulaski	37.063385	80.713444	Virginia	51	VA
VA	Rappahannock	38.684522	78.168824	Virginia	51	VA
VA	Richmond	37.942894	76.730561	Virginia	51	VA
VA	Roanoke	37.331077	80.19011	Virginia	51	VA
VA	Rockbridge	37.814517	79.447754	Virginia	51	VA
VA	Rockingham	38.511257	78.876307	Virginia	51	VA
VA	Russell	36.93342	82.095934	Virginia	51	VA
VA	Scott	36.712778	82.613627	Virginia	51	VA
VA	Shenandoah	38.856204	78.573987	Virginia	51	VA
VA	Smyth	36.842318	81.539786	Virginia	51	VA
VA	Southampton	36.720173	77.103856	Virginia	51	VA
VA	Spotsylvania	38.182311	77.65628	Virginia	51	VA
VA	Stafford	38.418933	77.459043	Virginia	51	VA
VA	Surry	37.119761	76.880172	Virginia	51	VA
VA	Sussex	36.926645	77.259732	Virginia	51	VA
VA	Tazewell	37.125395	81.562924	Virginia	51	VA
VA	Warren	38.908187	78.207131	Virginia	51	VA
VA	Washington	36.747813	81.950291	Virginia	51	VA
VA	Westmoreland	38.109191	76.80417	Virginia	51	VA
VA	Wise	36.974561	82.62156	Virginia	51	VA
VA	Wythe	36.901471	81.084209	Virginia	51	VA
VA	York	37.220914	76.395533	Virginia	51	VA
VA	Alexandria	38.818343	77.082026	Virginia	51	VA
VA	Bedford	37.338156	79.520705	Virginia	51	VA
VA	Bristol	36.616954	82.157564	Virginia	51	VA
VA	Buena Vista	37.731663	79.356375	Virginia	51	VA
VA	Charlottesville	38.037658	78.485381	Virginia	51	VA
VA	Chesapeake	36.679376	76.301788	Virginia	51	VA
VA	Colonial Heights	37.261685	77.396804	Virginia	51	VA
VA	Covington	37.778143	79.986039	Virginia	51	VA
VA	Danville	36.583334	79.408071	Virginia	51	VA
VA	Emporia	36.696182	77.535975	Virginia	51	VA
VA	Fairfax	38.853183	77.299025	Virginia	51	VA
VA	Falls Church	38.883787	77.174639	Virginia	51	VA
VA	Franklin	36.684014	76.941396	Virginia	51	VA
VA	Fredericksburg	38.299272	77.486658	Virginia	51	VA
VA	Galax	36.66564	80.914308	Virginia	51	VA
VA	Hampton	37.04803	76.297149	Virginia	51	VA
VA	Harrisonburg	38.436013	78.874197	Virginia	51	VA
VA	Hopewell	37.29101	77.298944	Virginia	51	VA
VA	Lexington	37.782332	79.44432	Virginia	51	VA
VA	Lynchburg	37.399016	79.195458	Virginia	51	VA
VA	Manassas	38.747561	77.484727	Virginia	51	VA
VA	Manassas Park	38.768991	77.448681	Virginia	51	VA
VA	Martinsville	36.683527	79.863648	Virginia	51	VA
VA	Newport News	37.075978	76.521719	Virginia	51	VA
VA	Norfolk	36.923015	76.244641	Virginia	51	VA
VA	Norton	36.931549	82.625996	Virginia	51	VA
VA	Petersburg	37.20473	77.392368	Virginia	51	VA
VA	Poquoson	37.12836	76.303534	Virginia	51	VA
VA	Portsmouth	36.85943	76.356269	Virginia	51	VA
VA	Radford	37.120036	80.557048	Virginia	51	VA
VA	Richmond	37.531399	77.476009	Virginia	51	VA
VA	Roanoke	37.27783	79.958472	Virginia	51	VA
VA	Salem	37.285333	80.055241	Virginia	51	VA
VA	Staunton	38.158056	79.061501	Virginia	51	VA
VA	Suffolk	36.697157	76.634781	Virginia	51	VA
VA	Virginia Beach	36.779322	76.02402	Virginia	51	VA
VA	Waynesboro	38.067157	78.90142	Virginia	51	VA
VA	Williamsburg	37.269293	76.706717	Virginia	51	VA
VA	Winchester	39.173869	78.176356	Virginia	51	VA
WA	Adams	47.00484	118.533308	Washington	53	WA
WA	Asotin	46.181861	117.227781	Washington	53	WA
WA	Benton	46.228072	119.516864	Washington	53	WA
WA	Chelan	47.859892	120.618543	Washington	53	WA
WA	Clallam	48.113009	123.930611	Washington	53	WA
WA	Clark	45.771674	122.485903	Washington	53	WA
WA	Columbia	46.292851	117.911635	Washington	53	WA
WA	Cowlitz	46.185923	122.658682	Washington	53	WA
WA	Douglas	47.735866	119.69588	Washington	53	WA
WA	Ferry	48.437246	118.517074	Washington	53	WA
WA	Franklin	46.53458	118.906944	Washington	53	WA
WA	Garfield	46.429474	117.536715	Washington	53	WA
WA	Grant	47.213633	119.467788	Washington	53	WA
WA	Grays Harbor	47.142786	123.827043	Washington	53	WA
WA	Island	48.158436	122.670503	Washington	53	WA
WA	Jefferson	47.802641	123.52181	Washington	53	WA
WA	King	47.493554	121.832375	Washington	53	WA
WA	Kitsap	47.639687	122.649636	Washington	53	WA
WA	Kittitas	47.124444	120.676714	Washington	53	WA
WA	Klickitat	45.869509	120.780117	Washington	53	WA
WA	Lewis	46.580071	122.377444	Washington	53	WA
WA	Lincoln	47.582718	118.417668	Washington	53	WA
WA	Mason	47.354126	123.17385	Washington	53	WA
WA	Okanogan	48.550971	119.691035	Washington	53	WA
WA	Pacific	46.556587	123.782419	Washington	53	WA
WA	Pend Oreille	48.543877	117.232183	Washington	53	WA
WA	Pierce	47.040716	122.144709	Washington	53	WA
WA	San Juan	48.508862	123.100616	Washington	53	WA
WA	Skagit	48.493066	121.816278	Washington	53	WA
WA	Skamania	46.024782	121.953227	Washington	53	WA
WA	Snohomish	48.054913	121.766412	Washington	53	WA
WA	Spokane	47.620379	117.404392	Washington	53	WA
WA	Stevens	48.390648	117.854897	Washington	53	WA
WA	Thurston	46.932598	122.829441	Washington	53	WA
WA	Wahkiakum	46.294638	123.424458	Washington	53	WA
WA	Walla Walla	46.254606	118.480374	Washington	53	WA
WA	Whatcom	48.842653	121.836433	Washington	53	WA
WA	Whitman	46.903322	117.522962	Washington	53	WA
WA	Yakima	46.456558	120.740145	Washington	53	WA
WV	Barbour	39.139754	79.996914	West Virginia	54	WV
WV	Berkeley	39.457854	78.032338	West Virginia	54	WV
WV	Boone	38.022838	81.713314	West Virginia	54	WV
WV	Braxton	38.699302	80.731649	West Virginia	54	WV
WV	Brooke	40.272645	80.578691	West Virginia	54	WV
WV	Cabell	38.41958	82.243392	West Virginia	54	WV
WV	Calhoun	38.844159	81.115478	West Virginia	54	WV
WV	Clay	38.459826	81.081866	West Virginia	54	WV
WV	Doddridge	39.263482	80.701147	West Virginia	54	WV
WV	Fayette	38.030933	81.086051	West Virginia	54	WV
WV	Gilmer	38.915865	80.849409	West Virginia	54	WV
WV	Grant	39.105988	79.195064	West Virginia	54	WV
WV	Greenbrier	37.924418	80.45059	West Virginia	54	WV
WV	Hampshire	39.31214	78.611989	West Virginia	54	WV
WV	Hancock	40.516931	80.570057	West Virginia	54	WV
WV	Hardy	39.010818	78.843641	West Virginia	54	WV
WV	Harrison	39.279199	80.386487	West Virginia	54	WV
WV	Jackson	38.834234	81.677717	West Virginia	54	WV
WV	Jefferson	39.307399	77.86322	West Virginia	54	WV
WV	Kanawha	38.328061	81.523522	West Virginia	54	WV
WV	Lewis	38.988844	80.495518	West Virginia	54	WV
WV	Lincoln	38.171651	82.077547	West Virginia	54	WV
WV	Logan	37.830591	81.940853	West Virginia	54	WV
WV	McDowell	37.382663	81.658205	West Virginia	54	WV
WV	Marion	39.505839	80.243402	West Virginia	54	WV
WV	Marshall	39.854717	80.671378	West Virginia	54	WV
WV	Mason	38.759288	82.024172	West Virginia	54	WV
WV	Mercer	37.403448	81.106456	West Virginia	54	WV
WV	Mineral	39.405626	78.956581	West Virginia	54	WV
WV	Mingo	37.721151	82.158993	West Virginia	54	WV
WV	Monongalia	39.633645	80.059074	West Virginia	54	WV
WV	Monroe	37.550353	80.547891	West Virginia	54	WV
WV	Morgan	39.554835	78.257314	West Virginia	54	WV
WV	Nicholas	38.291416	80.797516	West Virginia	54	WV
WV	Ohio	40.098932	80.620728	West Virginia	54	WV
WV	Pendleton	38.686836	79.333707	West Virginia	54	WV
WV	Pleasants	39.368133	81.161172	West Virginia	54	WV
WV	Pocahontas	38.332513	80.012092	West Virginia	54	WV
WV	Preston	39.46903	79.668865	West Virginia	54	WV
WV	Putnam	38.510513	81.906109	West Virginia	54	WV
WV	Raleigh	37.76247	81.264671	West Virginia	54	WV
WV	Randolph	38.781087	79.867783	West Virginia	54	WV
WV	Ritchie	39.177112	81.066317	West Virginia	54	WV
WV	Roane	38.743033	81.354502	West Virginia	54	WV
WV	Summers	37.656003	80.856315	West Virginia	54	WV
WV	Taylor	39.329072	80.045629	West Virginia	54	WV
WV	Tucker	39.111175	79.559968	West Virginia	54	WV
WV	Tyler	39.465981	80.879493	West Virginia	54	WV
WV	Upshur	38.902537	80.231335	West Virginia	54	WV
WV	Wayne	38.145531	82.419698	West Virginia	54	WV
WV	Webster	38.492985	80.430262	West Virginia	54	WV
WV	Wetzel	39.596574	80.634394	West Virginia	54	WV
WV	Wirt	39.020034	81.382975	West Virginia	54	WV
WV	Wood	39.211679	81.515928	West Virginia	54	WV
WV	Wyoming	37.603717	81.548884	West Virginia	54	WV
WI	Adams	43.973763	89.767223	Wisconsin	55	WI
WI	Ashland	46.546291	90.665154	Wisconsin	55	WI
WI	Barron	45.437192	91.852892	Wisconsin	55	WI
WI	Bayfield	46.634199	91.177282	Wisconsin	55	WI
WI	Brown	44.473961	87.995926	Wisconsin	55	WI
WI	Buffalo	44.389759	91.758714	Wisconsin	55	WI
WI	Burnett	45.865255	92.367978	Wisconsin	55	WI
WI	Calumet	44.07841	88.212132	Wisconsin	55	WI
WI	Chippewa	45.069092	91.283505	Wisconsin	55	WI
WI	Clark	44.733596	90.610201	Wisconsin	55	WI
WI	Columbia	43.471882	89.330472	Wisconsin	55	WI
WI	Crawford	43.24991	90.95123	Wisconsin	55	WI
WI	Dane	43.067468	89.417852	Wisconsin	55	WI
WI	Dodge	43.422706	88.704379	Wisconsin	55	WI
WI	Door	45.067808	87.087936	Wisconsin	55	WI
WI	Douglas	46.463316	91.89258	Wisconsin	55	WI
WI	Dunn	44.947741	91.89772	Wisconsin	55	WI
WI	Eau Claire	44.726355	91.286414	Wisconsin	55	WI
WI	Florence	45.849646	88.400322	Wisconsin	55	WI
WI	Fond du Lac	43.754722	88.493284	Wisconsin	55	WI
WI	Forest	45.666882	88.773225	Wisconsin	55	WI
WI	Grant	42.870062	90.695368	Wisconsin	55	WI
WI	Green	42.677728	89.605639	Wisconsin	55	WI
WI	Green Lake	43.76141	88.987228	Wisconsin	55	WI
WI	Iowa	43.001021	90.133692	Wisconsin	55	WI
WI	Iron	46.32655	90.261299	Wisconsin	55	WI
WI	Jackson	44.324895	90.806541	Wisconsin	55	WI
WI	Jefferson	43.013807	88.773986	Wisconsin	55	WI
WI	Juneau	43.932836	90.113984	Wisconsin	55	WI
WI	Kenosha	42.579703	87.424898	Wisconsin	55	WI
WI	Kewaunee	44.500949	87.161813	Wisconsin	55	WI
WI	La Crosse	43.908222	91.111758	Wisconsin	55	WI
WI	Lafayette	42.655578	90.130292	Wisconsin	55	WI
WI	Langlade	45.259204	89.06819	Wisconsin	55	WI
WI	Lincoln	45.338319	89.742082	Wisconsin	55	WI
WI	Manitowoc	44.105108	87.313828	Wisconsin	55	WI
WI	Marathon	44.898036	89.757823	Wisconsin	55	WI
WI	Marinette	45.346899	87.991198	Wisconsin	55	WI
WI	Marquette	43.826053	89.409095	Wisconsin	55	WI
WI	Menominee	44.991304	88.669251	Wisconsin	55	WI
WI	Milwaukee	43.017655	87.481575	Wisconsin	55	WI
WI	Monroe	43.945175	90.619969	Wisconsin	55	WI
WI	Oconto	44.996575	88.206516	Wisconsin	55	WI
WI	Oneida	45.713791	89.536693	Wisconsin	55	WI
WI	Outagamie	44.418226	88.464988	Wisconsin	55	WI
WI	Ozaukee	43.360715	87.496553	Wisconsin	55	WI
WI	Pepin	44.627436	91.83489	Wisconsin	55	WI
WI	Pierce	44.725337	92.426279	Wisconsin	55	WI
WI	Polk	45.46803	92.453154	Wisconsin	55	WI
WI	Portage	44.476246	89.49807	Wisconsin	55	WI
WI	Price	45.679072	90.35965	Wisconsin	55	WI
WI	Racine	42.754075	87.414676	Wisconsin	55	WI
WI	Richland	43.376199	90.435693	Wisconsin	55	WI
WI	Rock	42.669931	89.075119	Wisconsin	55	WI
WI	Rusk	45.472734	91.136745	Wisconsin	55	WI
WI	St. Croix	45.028959	92.447284	Wisconsin	55	WI
WI	Sauk	43.427998	89.943329	Wisconsin	55	WI
WI	Sawyer	45.864913	91.14713	Wisconsin	55	WI
WI	Shawano	44.789641	88.755813	Wisconsin	55	WI
WI	Sheboygan	43.746002	87.730546	Wisconsin	55	WI
WI	Taylor	45.211656	90.504853	Wisconsin	55	WI
WI	Trempealeau	44.30305	91.358867	Wisconsin	55	WI
WI	Vernon	43.599858	90.815226	Wisconsin	55	WI
WI	Vilas	46.049848	89.501254	Wisconsin	55	WI
WI	Walworth	42.66811	88.541731	Wisconsin	55	WI
WI	Washburn	45.892463	91.796423	Wisconsin	55	WI
WI	Washington	43.391156	88.232917	Wisconsin	55	WI
WI	Waukesha	43.019308	88.306707	Wisconsin	55	WI
WI	Waupaca	44.478004	88.967006	Wisconsin	55	WI
WI	Waushara	44.112825	89.239752	Wisconsin	55	WI
WI	Winnebago	44.085707	88.668149	Wisconsin	55	WI
WI	Wood	44.461413	90.038825	Wisconsin	55	WI
WY	Albany	41.665514	105.721883	Wyoming	56	WY
WY	Big Horn	44.525654	107.993321	Wyoming	56	WY
WY	Campbell	44.241321	105.552029	Wyoming	56	WY
WY	Carbon	41.70359	106.933153	Wyoming	56	WY
WY	Converse	42.972839	105.507367	Wyoming	56	WY
WY	Crook	44.589266	104.567298	Wyoming	56	WY
WY	Fremont	43.055303	108.605531	Wyoming	56	WY
WY	Goshen	42.08958	104.353482	Wyoming	56	WY
WY	Hot Springs	43.720871	108.435652	Wyoming	56	WY
WY	Johnson	44.044048	106.588541	Wyoming	56	WY
WY	Laramie	41.29283	104.660395	Wyoming	56	WY
WY	Lincoln	42.228788	110.679842	Wyoming	56	WY
WY	Natrona	42.973641	106.764877	Wyoming	56	WY
WY	Niobrara	43.062159	104.468373	Wyoming	56	WY
WY	Park	44.492387	109.593598	Wyoming	56	WY
WY	Platte	42.130319	104.960809	Wyoming	56	WY
WY	Sheridan	44.781369	106.881211	Wyoming	56	WY
WY	Sublette	42.767928	109.91617	Wyoming	56	WY
WY	Sweetwater	41.660339	108.875676	Wyoming	56	WY
WY	Teton	44.049321	110.588102	Wyoming	56	WY
WY	Uinta	41.284726	110.558947	Wyoming	56	WY
WY	Washakie	43.878831	107.669052	Wyoming	56	WY
WY	Weston	43.846213	104.57002	Wyoming	56	WY
